HIERARCHY
ROOT Root
{
  OFFSET 0.000000 0.000000 0.000000
  CHANNELS 6 Xposition Yposition Zposition Zrotation Yrotation Xrotation
  JOINT Hips
  {
    OFFSET 0.000000 100.000000 0.000000
    CHANNELS 6 Xposition Yposition Zposition Zrotation Yrotation Xrotation
    JOINT Spine1
    {
      OFFSET -0.013727 5.003763 -0.053727
      CHANNELS 3 Zrotation Yrotation Xrotation
      JOINT Spine2
      {
        OFFSET -0.000000 7.125301 -0.029825
        CHANNELS 3 Zrotation Yrotation Xrotation
        JOINT Chest
        {
          OFFSET -0.000001 7.550063 -0.815971
          CHANNELS 3 Zrotation Yrotation Xrotation
          JOINT Neck1
          {
            OFFSET -0.181677 26.311295 -0.553348
            CHANNELS 3 Zrotation Yrotation Xrotation
            JOINT Neck2
            {
              OFFSET -0.000003 7.709397 2.302585
              CHANNELS 3 Zrotation Yrotation Xrotation
              JOINT Head
              {
                OFFSET -0.000005 6.128916 1.953709
                CHANNELS 3 Zrotation Yrotation Xrotation
                JOINT HeadEnd
                {
                  OFFSET 0.003598 16.065403 -1.835379
                  CHANNELS 3 Zrotation Yrotation Xrotation
                }
                JOINT Jaw
                {
                  OFFSET 0.002637 0.475592 3.094941
                  CHANNELS 3 Zrotation Yrotation Xrotation
                }
                JOINT LeftEye
                {
                  OFFSET 3.206381 5.380205 7.586883
                  CHANNELS 3 Zrotation Yrotation Xrotation
                }
                JOINT RightEye
                {
                  OFFSET -3.222440 5.361869 7.558234
                  CHANNELS 3 Zrotation Yrotation Xrotation
                }
              }
            }
          }
          JOINT LeftShoulder
          {
            OFFSET 1.621652 23.237164 5.113413
            CHANNELS 3 Zrotation Yrotation Xrotation
            JOINT LeftArm
            {
              OFFSET 14.919846 0.000002 -5.502326
              CHANNELS 3 Zrotation Yrotation Xrotation
              JOINT LeftForeArm
              {
                OFFSET 28.739307 0.000000 -0.002588
                CHANNELS 3 Zrotation Yrotation Xrotation
                JOINT LeftHand
                {
                  OFFSET 27.093981 -0.000001 0.002609
                  CHANNELS 3 Zrotation Yrotation Xrotation
                  JOINT LeftHandThumb1
                  {
                    OFFSET 2.276482 -1.392045 3.191413
                    CHANNELS 3 Zrotation Yrotation Xrotation
                    JOINT LeftHandThumb2
                    {
                      OFFSET 4.012836 -1.828127 1.641654
                      CHANNELS 3 Zrotation Yrotation Xrotation
                      JOINT LeftHandThumb3
                      {
                        OFFSET 2.798515 0.000000 -0.000003
                        CHANNELS 3 Zrotation Yrotation Xrotation
                        JOINT LeftHandThumbEnd
                        {
                          OFFSET 3.180793 -0.000004 0.000004
                          CHANNELS 3 Zrotation Yrotation Xrotation
                        }
                      }
                    }
                  }
                  JOINT LeftHandIndex1
                  {
                    OFFSET 3.247555 -0.531998 2.296169
                    CHANNELS 3 Zrotation Yrotation Xrotation
                    JOINT LeftHandIndex2
                    {
                      OFFSET 6.364578 0.012060 0.178600
                      CHANNELS 3 Zrotation Yrotation Xrotation
                      JOINT LeftHandIndex3
                      {
                        OFFSET 3.662364 0.000000 0.000000
                        CHANNELS 3 Zrotation Yrotation Xrotation
                        JOINT LeftHandIndex4
                        {
                          OFFSET 2.329242 0.000004 0.000004
                          CHANNELS 3 Zrotation Yrotation Xrotation
                          JOINT LeftHandIndexEnd
                          {
                            OFFSET 2.759615 -0.180537 -0.113024
                            CHANNELS 3 Zrotation Yrotation Xrotation
                          }
                        }
                      }
                    }
                  }
                  JOINT LeftHandMiddle1
                  {
                    OFFSET 3.163495 0.240981 1.000332
                    CHANNELS 3 Zrotation Yrotation Xrotation
                    JOINT LeftHandMiddle2
                    {
                      OFFSET 6.190780 -0.259278 -1.002548
                      CHANNELS 3 Zrotation Yrotation Xrotation
                      JOINT LeftHandMiddle3
                      {
                        OFFSET 4.356520 -0.000004 -0.000001
                        CHANNELS 3 Zrotation Yrotation Xrotation
                        JOINT LeftHandMiddle4
                        {
                          OFFSET 2.996877 -0.000008 0.000000
                          CHANNELS 3 Zrotation Yrotation Xrotation
                          JOINT LeftHandMiddleEnd
                          {
                            OFFSET 2.304287 -0.294569 -0.031741
                            CHANNELS 3 Zrotation Yrotation Xrotation
                          }
                        }
                      }
                    }
                  }
                  JOINT LeftHandRing1
                  {
                    OFFSET 2.882643 -0.053652 -0.322543
                    CHANNELS 3 Zrotation Yrotation Xrotation
                    JOINT LeftHandRing2
                    {
                      OFFSET 5.854541 -0.486202 -1.373841
                      CHANNELS 3 Zrotation Yrotation Xrotation
                      JOINT LeftHandRing3
                      {
                        OFFSET 4.350578 0.000000 0.000003
                        CHANNELS 3 Zrotation Yrotation Xrotation
                        JOINT LeftHandRing4
                        {
                          OFFSET 2.651321 0.000007 0.000002
                          CHANNELS 3 Zrotation Yrotation Xrotation
                          JOINT LeftHandRingEnd
                          {
                            OFFSET 1.936105 0.077687 -0.000071
                            CHANNELS 3 Zrotation Yrotation Xrotation
                          }
                        }
                      }
                    }
                  }
                  JOINT LeftHandPinky1
                  {
                    OFFSET 2.865500 -0.310005 -1.600378
                    CHANNELS 3 Zrotation Yrotation Xrotation
                    JOINT LeftHandPinky2
                    {
                      OFFSET 5.087849 -1.331141 -1.771230
                      CHANNELS 3 Zrotation Yrotation Xrotation
                      JOINT LeftHandPinky3
                      {
                        OFFSET 3.070974 0.000004 0.000000
                        CHANNELS 3 Zrotation Yrotation Xrotation
                        JOINT LeftHandPinky4
                        {
                          OFFSET 1.549672 0.000000 0.000001
                          CHANNELS 3 Zrotation Yrotation Xrotation
                          JOINT LeftHandPinkyEnd
                          {
                            OFFSET 1.944893 -0.157802 0.057219
                            CHANNELS 3 Zrotation Yrotation Xrotation
                          }
                        }
                      }
                    }
                  }
                }
              }
            }
          }
          JOINT RightShoulder
          {
            OFFSET -1.380118 23.180309 5.214158
            CHANNELS 3 Zrotation Yrotation Xrotation
            JOINT RightArm
            {
              OFFSET -15.037196 0.000012 -5.545604
              CHANNELS 3 Zrotation Yrotation Xrotation
              JOINT RightForeArm
              {
                OFFSET -28.736639 0.000002 -0.002597
                CHANNELS 3 Zrotation Yrotation Xrotation
                JOINT RightHand
                {
                  OFFSET -27.133619 -0.000000 0.002613
                  CHANNELS 3 Zrotation Yrotation Xrotation
                  JOINT RightHandThumb1
                  {
                    OFFSET -2.274032 -1.383988 3.163127
                    CHANNELS 3 Zrotation Yrotation Xrotation
                    JOINT RightHandThumb2
                    {
                      OFFSET -4.011429 -1.827466 1.640914
                      CHANNELS 3 Zrotation Yrotation Xrotation
                      JOINT RightHandThumb3
                      {
                        OFFSET -2.794935 -0.000004 -0.000003
                        CHANNELS 3 Zrotation Yrotation Xrotation
                        JOINT RightHandThumbEnd
                        {
                          OFFSET -3.183852 0.000004 0.000001
                          CHANNELS 3 Zrotation Yrotation Xrotation
                        }
                      }
                    }
                  }
                  JOINT RightHandIndex1
                  {
                    OFFSET -3.253266 -0.520057 2.282866
                    CHANNELS 3 Zrotation Yrotation Xrotation
                    JOINT RightHandIndex2
                    {
                      OFFSET -6.341917 0.012471 0.178266
                      CHANNELS 3 Zrotation Yrotation Xrotation
                      JOINT RightHandIndex3
                      {
                        OFFSET -3.654871 -0.000008 -0.000000
                        CHANNELS 3 Zrotation Yrotation Xrotation
                        JOINT RightHandIndex4
                        {
                          OFFSET -2.327586 0.000000 0.000001
                          CHANNELS 3 Zrotation Yrotation Xrotation
                          JOINT RightHandIndexEnd
                          {
                            OFFSET -2.761790 -0.180656 -0.113078
                            CHANNELS 3 Zrotation Yrotation Xrotation
                          }
                        }
                      }
                    }
                  }
                  JOINT RightHandMiddle1
                  {
                    OFFSET -3.168106 0.246593 1.001030
                    CHANNELS 3 Zrotation Yrotation Xrotation
                    JOINT RightHandMiddle2
                    {
                      OFFSET -6.180828 -0.258836 -1.000895
                      CHANNELS 3 Zrotation Yrotation Xrotation
                      JOINT RightHandMiddle3
                      {
                        OFFSET -4.348901 0.000000 -0.000000
                        CHANNELS 3 Zrotation Yrotation Xrotation
                        JOINT RightHandMiddle4
                        {
                          OFFSET -3.000240 -0.000004 -0.000002
                          CHANNELS 3 Zrotation Yrotation Xrotation
                          JOINT RightHandMiddleEnd
                          {
                            OFFSET -2.302520 -0.294370 -0.031706
                            CHANNELS 3 Zrotation Yrotation Xrotation
                          }
                        }
                      }
                    }
                  }
                  JOINT RightHandRing1
                  {
                    OFFSET -2.885690 -0.067952 -0.308858
                    CHANNELS 3 Zrotation Yrotation Xrotation
                    JOINT RightHandRing2
                    {
                      OFFSET -5.854198 -0.486130 -1.373731
                      CHANNELS 3 Zrotation Yrotation Xrotation
                      JOINT RightHandRing3
                      {
                        OFFSET -4.338810 -0.000004 -0.000000
                        CHANNELS 3 Zrotation Yrotation Xrotation
                        JOINT RightHandRing4
                        {
                          OFFSET -2.654903 -0.000004 0.000004
                          CHANNELS 3 Zrotation Yrotation Xrotation
                          JOINT RightHandRingEnd
                          {
                            OFFSET -1.933568 0.077527 -0.000052
                            CHANNELS 3 Zrotation Yrotation Xrotation
                          }
                        }
                      }
                    }
                  }
                  JOINT RightHandPinky1
                  {
                    OFFSET -2.866425 -0.342796 -1.584145
                    CHANNELS 3 Zrotation Yrotation Xrotation
                    JOINT RightHandPinky2
                    {
                      OFFSET -5.091371 -1.332055 -1.772385
                      CHANNELS 3 Zrotation Yrotation Xrotation
                      JOINT RightHandPinky3
                      {
                        OFFSET -3.062664 -0.000004 0.000001
                        CHANNELS 3 Zrotation Yrotation Xrotation
                        JOINT RightHandPinky4
                        {
                          OFFSET -1.546529 0.000004 -0.000002
                          CHANNELS 3 Zrotation Yrotation Xrotation
                          JOINT RightHandPinkyEnd
                          {
                            OFFSET -1.945119 -0.157718 0.057211
                            CHANNELS 3 Zrotation Yrotation Xrotation
                          }
                        }
                      }
                    }
                  }
                }
              }
            }
          }
        }
      }
    }
    JOINT LeftLeg
    {
      OFFSET 10.043214 -8.434526 2.595655
      CHANNELS 3 Zrotation Yrotation Xrotation
      JOINT LeftShin
      {
        OFFSET -0.000001 -43.221752 -0.802913
        CHANNELS 3 Zrotation Yrotation Xrotation
        JOINT LeftFoot
        {
          OFFSET 0.000001 -42.155094 -3.481523
          CHANNELS 3 Zrotation Yrotation Xrotation
          JOINT LeftToeBase
          {
            OFFSET 0.000000 -5.059472 13.231529
            CHANNELS 3 Zrotation Yrotation Xrotation
            JOINT LeftToeEnd
            {
              OFFSET -0.009607 -1.647619 6.513017
              CHANNELS 3 Zrotation Yrotation Xrotation
            }
          }
        }
      }
    }
    JOINT RightLeg
    {
      OFFSET -10.047278 -8.295260 2.620317
      CHANNELS 3 Zrotation Yrotation Xrotation
      JOINT RightShin
      {
        OFFSET 0.000001 -43.362206 -0.805556
        CHANNELS 3 Zrotation Yrotation Xrotation
        JOINT RightFoot
        {
          OFFSET 0.000002 -42.117393 -3.478398
          CHANNELS 3 Zrotation Yrotation Xrotation
          JOINT RightToeBase
          {
            OFFSET -0.000000 -5.079609 13.284196
            CHANNELS 3 Zrotation Yrotation Xrotation
            JOINT RightToeEnd
            {
              OFFSET 0.009532 -1.634378 6.460591
              CHANNELS 3 Zrotation Yrotation Xrotation
            }
          }
        }
      }
    }
  }
}
MOTION
Frames: 34
Frame Time: 0.03333333
0.000000 0.000000 0.000000 0.000000 -0.000000 0.000000 1.257608 0.327776 1.716003 1.761072 -0.468760 -0.793152 -0.121366 -0.551246 -6.805549 -0.652414 -1.684040 -7.011664 -1.240256 -4.348083 14.783617 2.717360 1.380047 4.698644 -1.152927 -2.126751 -3.723445 0.169510 -3.981679 -1.150318 0.000077 -0.000022 0.000006 -0.003089 0.003143 -0.022063 0.693972 -3.699331 -10.612726 -0.698139 3.724261 -10.593757 -18.788694 -10.492126 12.798076 -50.872696 -10.557639 29.186338 179.840729 -75.340378 -179.736328 14.352126 -7.965098 -2.357333 -5.882102 9.861279 0.702590 -10.936861 -0.360574 7.156197 0.000000 8.774815 -0.000000 -15.047174 17.432165 6.548707 -1.844031 2.498503 -2.507276 -10.163590 4.678941 4.621104 -20.975996 -0.000001 0.000001 -21.226254 2.451698 -3.593995 0.000000 -0.000006 -0.000000 -1.362681 2.240797 -0.746323 -21.334892 0.584910 3.008319 -13.821196 -0.000001 0.000001 -23.887129 -0.249075 -0.839485 -60.041374 2.444330 -1.186766 -0.294025 1.679686 0.833255 -14.218195 0.093215 1.300579 -34.212002 -0.287561 0.967166 -20.033176 0.964536 1.212838 0.000000 -0.000000 0.000000 -3.440387 0.788233 0.501655 -15.928172 -3.167306 2.999703 -6.338817 -0.000000 0.000001 -18.123419 3.648181 -4.905662 -0.000004 0.000000 -0.000002 20.114042 6.655039 12.260350 53.238323 5.423427 19.914513 -178.914948 74.384422 -178.232422 -33.127186 8.555435 -5.235038 2.243540 -5.255033 -3.180156 14.282877 -0.826594 6.952496 -0.000000 -12.690593 -0.000001 15.065697 -17.915964 2.892485 1.665665 -1.955920 -2.878297 4.727794 -4.170584 4.993919 11.020511 0.000001 -0.000000 12.109032 -3.735715 -2.866778 0.000000 -0.000000 0.000000 1.291985 -1.928548 -1.498088 14.800115 0.567467 3.865604 14.242553 -1.341738 -6.660648 19.631935 0.143921 -0.648243 49.794968 -0.497831 -6.294379 0.353029 -1.511150 -0.031940 20.222769 3.684305 2.316629 18.787249 0.000001 -0.000001 10.751608 -0.479870 1.397903 0.000000 -0.000000 0.000000 3.273804 0.305947 -0.580110 21.486790 11.830364 2.266131 8.162915 0.000000 -0.000000 18.399052 -3.798986 -4.940567 0.000003 0.000000 -0.000001 5.812557 33.725983 3.571704 -0.023688 -0.596062 35.254776 -17.687002 15.523762 2.585563 1.845391 -1.902462 -14.519191 0.000000 -0.000000 0.000002 -6.201277 7.035227 -22.206150 0.079352 0.289561 18.269913 14.595168 17.699402 7.448946 -1.354638 0.948900 -2.126538 0.000000 -0.000000 -0.000001
0.000000 0.000000 0.000000 0.000000 -0.000000 0.000000 1.257608 0.325617 1.716003 1.761072 -0.468760 -0.793152 -0.143496 -0.562313 -6.812816 -0.671483 -1.709544 -7.019281 -1.255880 -4.371264 14.777914 2.841795 1.344030 4.766613 -1.190211 -2.249771 -3.719207 0.124794 -4.080339 -1.079521 0.000077 -0.000022 0.000006 -0.002864 0.006738 -0.021354 0.690817 -3.693267 -10.608001 -0.694589 3.724974 -10.587624 -18.763016 -10.571075 12.801807 -50.887665 -10.687560 29.225351 179.845856 -75.373039 -179.739746 14.325098 -7.933764 -2.418910 -5.882102 9.861279 0.702590 -10.936861 -0.360574 7.156197 0.000000 8.774815 -0.000000 -15.043678 17.418921 6.559175 -1.844031 2.498503 -2.507276 -10.163590 4.678941 4.621104 -20.975996 -0.000001 0.000001 -21.226254 2.451698 -3.593995 0.000000 -0.000006 -0.000000 -1.362681 2.240797 -0.746323 -21.334892 0.584910 3.008319 -13.821196 -0.000001 0.000001 -23.887129 -0.249075 -0.839485 -60.027199 2.455249 -1.165332 -0.294025 1.679686 0.833255 -14.218195 0.093215 1.300579 -34.212002 -0.287561 0.967166 -20.033176 0.964536 1.212838 0.000000 -0.000000 0.000000 -3.440387 0.788233 0.501655 -15.928172 -3.167306 2.999703 -6.338817 -0.000000 0.000001 -18.123419 3.648181 -4.905662 -0.000004 0.000000 -0.000002 20.140581 6.580024 12.210761 53.184883 5.373570 19.887703 -178.958328 74.331841 -178.269730 -33.210342 8.554582 -5.067556 2.243540 -5.255033 -3.180156 14.282877 -0.826594 6.952496 -0.000000 -12.690593 -0.000001 15.081079 -17.951801 2.892477 1.665665 -1.955920 -2.878297 4.727794 -4.170584 4.993919 11.020511 0.000001 -0.000000 12.109032 -3.735715 -2.866778 0.000000 -0.000000 0.000000 1.291985 -1.928548 -1.498088 14.800115 0.567467 3.865604 14.242553 -1.341738 -6.660648 19.631935 0.143921 -0.648243 49.771557 -0.493371 -6.314600 0.353029 -1.511150 -0.031940 20.222769 3.684305 2.316629 18.787249 0.000001 -0.000001 10.751608 -0.479870 1.397903 0.000000 -0.000000 0.000000 3.273804 0.305947 -0.580110 21.486790 11.830364 2.266131 8.162915 0.000000 -0.000000 18.399052 -3.798986 -4.940567 0.000003 0.000000 -0.000001 5.812557 33.725983 3.571704 -0.023688 -0.596062 35.254776 -17.687002 15.523762 2.585563 1.845391 -1.902462 -14.519191 0.000000 -0.000000 0.000002 -6.201277 7.035227 -22.206150 0.079352 0.289561 18.269913 14.595168 17.699402 7.448946 -1.354638 0.948900 -2.126538 0.000000 -0.000000 -0.000001
0.000000 0.000000 0.000000 0.000000 -0.000000 0.000000 1.257608 0.322199 1.716003 1.761072 -0.468760 -0.793152 -0.165733 -0.579652 -6.828091 -0.687911 -1.718419 -7.033757 -1.256700 -4.399189 14.787629 2.956538 1.314836 4.819465 -1.242616 -2.370859 -3.715691 0.101001 -4.192687 -1.000401 0.000077 -0.000022 0.000006 -0.002412 0.008449 -0.022165 0.688771 -3.689995 -10.608848 -0.691791 3.725078 -10.587079 -18.748682 -10.650427 12.790201 -50.894451 -10.799092 29.297762 179.890350 -75.430298 -179.806442 14.304810 -7.955381 -2.415107 -5.882102 9.861279 0.702590 -10.936861 -0.360574 7.156197 0.000000 8.774815 -0.000000 -15.043454 17.403667 6.567833 -1.844031 2.498503 -2.507276 -10.163590 4.678941 4.621104 -20.975996 -0.000001 0.000001 -21.226254 2.451698 -3.593995 0.000000 -0.000006 -0.000000 -1.362681 2.240797 -0.746323 -21.334892 0.584910 3.008319 -13.821196 -0.000001 0.000001 -23.887129 -0.249075 -0.839485 -60.022011 2.458662 -1.151523 -0.294025 1.679686 0.833255 -14.218195 0.093215 1.300579 -34.212002 -0.287561 0.967166 -20.033176 0.964536 1.212838 0.000000 -0.000000 0.000000 -3.440387 0.788233 0.501655 -15.928172 -3.167306 2.999703 -6.338817 -0.000000 0.000001 -18.123419 3.648181 -4.905662 -0.000004 0.000000 -0.000002 20.188627 6.487904 12.190405 53.099514 5.348374 19.919182 -178.755157 74.292274 -178.068665 -33.248940 8.571374 -4.987901 2.243540 -5.255033 -3.180156 14.282877 -0.826594 6.952496 -0.000000 -12.690593 -0.000001 15.095867 -17.977291 2.903638 1.665665 -1.955920 -2.878297 4.727794 -4.170584 4.993919 11.020511 0.000001 -0.000000 12.109032 -3.735715 -2.866778 0.000000 -0.000000 0.000000 1.291985 -1.928548 -1.498088 14.800115 0.567467 3.865604 14.242553 -1.341738 -6.660648 19.631935 0.143921 -0.648243 49.773026 -0.481564 -6.321873 0.353029 -1.511150 -0.031940 20.222769 3.684305 2.316629 18.787249 0.000001 -0.000001 10.751608 -0.479870 1.397903 0.000000 -0.000000 0.000000 3.273804 0.305947 -0.580110 21.486790 11.830364 2.266131 8.162915 0.000000 -0.000000 18.399052 -3.798986 -4.940567 0.000003 0.000000 -0.000001 5.812557 33.725983 3.571704 -0.023688 -0.596062 35.254776 -17.687002 15.523762 2.585563 1.845391 -1.902462 -14.519191 0.000000 -0.000000 0.000002 -6.201277 7.035227 -22.206150 0.079352 0.289561 18.269913 14.595168 17.699402 7.448946 -1.354638 0.948900 -2.126538 0.000000 -0.000000 -0.000001
0.000000 0.000000 0.000000 0.000000 -0.000000 0.000000 1.257608 0.319979 1.716003 1.761072 -0.468760 -0.793152 -0.202034 -0.585324 -6.851682 -0.698053 -1.721529 -7.045070 -1.244142 -4.438499 14.797427 3.067935 1.288492 4.860292 -1.284536 -2.433871 -3.718742 0.055744 -4.314075 -0.909196 0.000077 -0.000022 0.000006 -0.002011 0.018747 -0.026391 0.688959 -3.678722 -10.611020 -0.691257 3.734382 -10.589867 -18.771891 -10.726255 12.795926 -50.864510 -10.862963 29.425531 179.851273 -75.479935 -179.815247 14.281106 -8.027416 -2.392799 -5.882102 9.861279 0.702590 -10.936861 -0.360574 7.156197 0.000000 8.774815 -0.000000 -15.035922 17.399086 6.581705 -1.844031 2.498503 -2.507276 -10.163590 4.678941 4.621104 -20.975996 -0.000001 0.000001 -21.226254 2.451698 -3.593995 0.000000 -0.000006 -0.000000 -1.362681 2.240797 -0.746323 -21.334892 0.584910 3.008319 -13.821196 -0.000001 0.000001 -23.887129 -0.249075 -0.839485 -60.019829 2.471016 -1.128175 -0.294025 1.679686 0.833255 -14.218195 0.093215 1.300579 -34.212002 -0.287561 0.967166 -20.033176 0.964536 1.212838 0.000000 -0.000000 0.000000 -3.440387 0.788233 0.501655 -15.928172 -3.167306 2.999703 -6.338817 -0.000000 0.000001 -18.123419 3.648181 -4.905662 -0.000004 0.000000 -0.000002 20.290533 6.390954 12.203845 53.001900 5.313661 19.925489 -178.474121 74.255913 -177.789917 -33.269543 8.608743 -4.912454 2.243540 -5.255033 -3.180156 14.282877 -0.826594 6.952496 -0.000000 -12.690593 -0.000001 15.103739 -17.967699 2.931116 1.665665 -1.955920 -2.878297 4.727794 -4.170584 4.993919 11.020511 0.000001 -0.000000 12.109032 -3.735715 -2.866778 0.000000 -0.000000 0.000000 1.291985 -1.928548 -1.498088 14.800115 0.567467 3.865604 14.242553 -1.341738 -6.660648 19.631935 0.143921 -0.648243 49.772381 -0.461808 -6.316303 0.353029 -1.511150 -0.031940 20.222769 3.684305 2.316629 18.787249 0.000001 -0.000001 10.751608 -0.479870 1.397903 0.000000 -0.000000 0.000000 3.273804 0.305947 -0.580110 21.486790 11.830364 2.266131 8.162915 0.000000 -0.000000 18.399052 -3.798986 -4.940567 0.000003 0.000000 -0.000001 5.812557 33.725983 3.571704 -0.023688 -0.596062 35.254776 -17.687002 15.523762 2.585563 1.845391 -1.902462 -14.519191 0.000000 -0.000000 0.000002 -6.201277 7.035227 -22.206150 0.079352 0.289561 18.269913 14.595168 17.699402 7.448946 -1.354638 0.948900 -2.126538 0.000000 -0.000000 -0.000001
0.000000 0.000000 0.000000 0.000000 -0.000000 0.000000 1.257608 0.304346 1.716003 1.761072 -0.468760 -0.793152 -0.228482 -0.580322 -6.932493 -0.720177 -1.782887 -7.041189 -1.247383 -4.485726 14.850930 3.173216 1.259651 4.879112 -1.340819 -2.508081 -3.723563 0.042868 -4.344328 -0.886201 0.000077 -0.000022 0.000006 -0.003453 -0.003004 -0.022879 0.688920 -3.698216 -10.606038 -0.694245 3.710883 -10.579985 -18.719559 -10.761909 12.697927 -50.819656 -10.853797 29.584602 179.937119 -75.463707 -179.887878 14.337400 -7.915433 -2.256871 -5.882102 9.861279 0.702590 -10.936861 -0.360574 7.156197 0.000000 8.774815 -0.000000 -15.054439 17.339781 6.595240 -1.844031 2.498503 -2.507276 -10.163590 4.678941 4.621104 -20.975996 -0.000001 0.000001 -21.226254 2.451698 -3.593995 0.000000 -0.000006 -0.000000 -1.362681 2.240797 -0.746323 -21.334892 0.584910 3.008319 -13.821196 -0.000001 0.000001 -23.887129 -0.249075 -0.839485 -60.071896 2.409530 -1.098251 -0.294025 1.679686 0.833255 -14.218195 0.093215 1.300579 -34.212002 -0.287561 0.967166 -20.033176 0.964536 1.212838 0.000000 -0.000000 0.000000 -3.440387 0.788233 0.501655 -15.928172 -3.167306 2.999703 -6.338817 -0.000000 0.000001 -18.123419 3.648181 -4.905662 -0.000004 0.000000 -0.000002 20.352259 6.328489 12.204185 52.990978 5.285887 19.985350 -178.160324 74.236061 -177.522858 -33.255623 8.651768 -4.905621 2.243540 -5.255033 -3.180156 14.282877 -0.826594 6.952496 -0.000000 -12.690593 -0.000001 15.108225 -17.990494 2.946213 1.665665 -1.955920 -2.878297 4.727794 -4.170584 4.993919 11.020511 0.000001 -0.000000 12.109032 -3.735715 -2.866778 0.000000 -0.000000 0.000000 1.291985 -1.928548 -1.498088 14.800115 0.567467 3.865604 14.242553 -1.341738 -6.660648 19.631935 0.143921 -0.648243 49.844822 -0.503578 -6.327901 0.353029 -1.511150 -0.031940 20.222769 3.684305 2.316629 18.787249 0.000001 -0.000001 10.751608 -0.479870 1.397903 0.000000 -0.000000 0.000000 3.273804 0.305947 -0.580110 21.486790 11.830364 2.266131 8.162915 0.000000 -0.000000 18.399052 -3.798986 -4.940567 0.000003 0.000000 -0.000001 5.812557 33.725983 3.571704 -0.023688 -0.596062 35.254776 -17.687002 15.523762 2.585563 1.845391 -1.902462 -14.519191 0.000000 -0.000000 0.000002 -6.201277 7.035227 -22.206150 0.079352 0.289561 18.269913 14.595168 17.699402 7.448946 -1.354638 0.948900 -2.126538 0.000000 -0.000000 -0.000001
0.000000 0.000000 0.000000 0.000000 -0.000000 0.000000 1.257608 0.303553 1.716003 1.761072 -0.468760 -0.793152 -0.231799 -0.587045 -6.949634 -0.700924 -1.733240 -7.069358 -1.223441 -4.497926 14.871750 3.133445 1.262138 4.968113 -1.316269 -2.520746 -3.706541 0.003298 -4.357647 -0.767109 0.000077 -0.000022 0.000006 -0.003407 0.001812 -0.026507 0.691709 -3.698033 -10.629084 -0.697268 3.720455 -10.609991 -18.750526 -10.723855 12.629262 -50.835281 -10.778649 29.609245 -179.842194 -75.529381 179.827744 14.369728 -8.058905 -2.390303 -5.882102 9.861279 0.702590 -10.936861 -0.360574 7.156197 0.000000 8.774815 -0.000000 -15.063612 17.388182 6.596783 -1.844031 2.498503 -2.507276 -10.163590 4.678941 4.621104 -20.975996 -0.000001 0.000001 -21.226254 2.451698 -3.593995 0.000000 -0.000006 -0.000000 -1.362681 2.240797 -0.746323 -21.334892 0.584910 3.008319 -13.821196 -0.000001 0.000001 -23.887129 -0.249075 -0.839485 -60.033909 2.418351 -1.120807 -0.294025 1.679686 0.833255 -14.218195 0.093215 1.300579 -34.212002 -0.287561 0.967166 -20.033176 0.964536 1.212838 0.000000 -0.000000 0.000000 -3.440387 0.788233 0.501655 -15.928172 -3.167306 2.999703 -6.338817 -0.000000 0.000001 -18.123419 3.648181 -4.905662 -0.000004 0.000000 -0.000002 20.352253 6.345037 12.172761 52.984776 5.288728 19.995874 -178.310638 74.276451 -177.669724 -33.276386 8.772064 -4.694482 2.243540 -5.255033 -3.180156 14.282877 -0.826594 6.952496 -0.000000 -12.690593 -0.000001 15.133980 -17.920313 2.891969 1.665665 -1.955920 -2.878297 4.727794 -4.170584 4.993919 11.020511 0.000001 -0.000000 12.109032 -3.735715 -2.866778 0.000000 -0.000000 0.000000 1.291985 -1.928548 -1.498088 14.800115 0.567467 3.865604 14.242553 -1.341738 -6.660648 19.631935 0.143921 -0.648243 49.799816 -0.485361 -6.302608 0.353029 -1.511150 -0.031940 20.222769 3.684305 2.316629 18.787249 0.000001 -0.000001 10.751608 -0.479870 1.397903 0.000000 -0.000000 0.000000 3.273804 0.305947 -0.580110 21.486790 11.830364 2.266131 8.162915 0.000000 -0.000000 18.399052 -3.798986 -4.940567 0.000003 0.000000 -0.000001 5.812557 33.725983 3.571704 -0.023688 -0.596062 35.254776 -17.687002 15.523762 2.585563 1.845391 -1.902462 -14.519191 0.000000 -0.000000 0.000002 -6.201277 7.035227 -22.206150 0.079352 0.289561 18.269913 14.595168 17.699402 7.448946 -1.354638 0.948900 -2.126538 0.000000 -0.000000 -0.000001
0.000000 0.000000 0.000000 0.000000 -0.000000 0.000000 1.257608 0.296290 1.716003 1.761072 -0.468760 -0.793152 -0.241684 -0.581501 -6.974786 -0.700298 -1.726223 -7.081800 -1.174946 -4.504586 14.886138 3.129099 1.242366 5.031846 -1.309775 -2.485636 -3.700552 -0.061904 -4.320367 -0.689528 0.000077 -0.000022 0.000006 -0.004539 0.000755 -0.024327 0.696127 -3.699032 -10.629647 -0.704180 3.719597 -10.614010 -18.768667 -10.626480 12.587614 -50.796329 -10.718751 29.698582 -179.801743 -75.508034 179.782639 14.450440 -8.038124 -2.410969 -5.882102 9.861279 0.702590 -10.936861 -0.360574 7.156197 0.000000 8.774815 -0.000000 -15.075759 17.390060 6.585324 -1.844031 2.498503 -2.507276 -10.163590 4.678941 4.621104 -20.975996 -0.000001 0.000001 -21.226254 2.451698 -3.593995 0.000000 -0.000006 -0.000000 -1.362681 2.240797 -0.746323 -21.334892 0.584910 3.008319 -13.821196 -0.000001 0.000001 -23.887129 -0.249075 -0.839485 -60.014816 2.417455 -1.132348 -0.294025 1.679686 0.833255 -14.218195 0.093215 1.300579 -34.212002 -0.287561 0.967166 -20.033176 0.964536 1.212838 0.000000 -0.000000 0.000000 -3.440387 0.788233 0.501655 -15.928172 -3.167306 2.999703 -6.338817 -0.000000 0.000001 -18.123419 3.648181 -4.905662 -0.000004 0.000000 -0.000002 20.360792 6.381750 12.173059 52.989853 5.278566 20.007750 -178.475433 74.274002 -177.869339 -33.260025 8.794956 -4.558649 2.243540 -5.255033 -3.180156 14.282877 -0.826594 6.952496 -0.000000 -12.690593 -0.000001 15.144599 -17.881073 2.869963 1.665665 -1.955920 -2.878297 4.727794 -4.170584 4.993919 11.020511 0.000001 -0.000000 12.109032 -3.735715 -2.866778 0.000000 -0.000000 0.000000 1.291985 -1.928548 -1.498088 14.800115 0.567467 3.865604 14.242553 -1.341738 -6.660648 19.631935 0.143921 -0.648243 49.796852 -0.477890 -6.305129 0.353029 -1.511150 -0.031940 20.222769 3.684305 2.316629 18.787249 0.000001 -0.000001 10.751608 -0.479870 1.397903 0.000000 -0.000000 0.000000 3.273804 0.305947 -0.580110 21.486790 11.830364 2.266131 8.162915 0.000000 -0.000000 18.399052 -3.798986 -4.940567 0.000003 0.000000 -0.000001 5.812557 33.725983 3.571704 -0.023688 -0.596062 35.254776 -17.687002 15.523762 2.585563 1.845391 -1.902462 -14.519191 0.000000 -0.000000 0.000002 -6.201277 7.035227 -22.206150 0.079352 0.289561 18.269913 14.595168 17.699402 7.448946 -1.354638 0.948900 -2.126538 0.000000 -0.000000 -0.000001
0.000000 0.000000 0.000000 0.000000 -0.000000 0.000000 1.257608 0.290499 1.716003 1.761072 -0.468760 -0.793152 -0.236458 -0.576623 -6.977778 -0.692165 -1.713339 -7.090535 -1.128420 -4.485334 14.886456 3.105543 1.237502 5.090910 -1.316544 -2.462170 -3.701270 -0.112466 -4.281755 -0.652001 0.000077 -0.000022 0.000006 -0.005891 -0.007735 -0.023784 0.700334 -3.705986 -10.627908 -0.711231 3.710104 -10.617056 -18.813808 -10.547964 12.571349 -50.708199 -10.644208 29.729713 -179.700104 -75.472267 179.677429 14.532954 -7.970859 -2.594134 -5.882102 9.861279 0.702590 -10.936861 -0.360574 7.156197 0.000000 8.774815 -0.000000 -15.109736 17.388083 6.564292 -1.844031 2.498503 -2.507276 -10.163590 4.678941 4.621104 -20.975996 -0.000001 0.000001 -21.226254 2.451698 -3.593995 0.000000 -0.000006 -0.000000 -1.362681 2.240797 -0.746323 -21.334892 0.584910 3.008319 -13.821196 -0.000001 0.000001 -23.887129 -0.249075 -0.839485 -59.972599 2.422349 -1.133381 -0.294025 1.679686 0.833255 -14.218195 0.093215 1.300579 -34.212002 -0.287561 0.967166 -20.033176 0.964536 1.212838 0.000000 -0.000000 0.000000 -3.440387 0.788233 0.501655 -15.928172 -3.167306 2.999703 -6.338817 -0.000000 0.000001 -18.123419 3.648181 -4.905662 -0.000004 0.000000 -0.000002 20.376738 6.422097 12.185644 52.966866 5.310545 20.064581 -178.551331 74.282921 -177.995941 -33.263786 8.768151 -4.578645 2.243540 -5.255033 -3.180156 14.282877 -0.826594 6.952496 -0.000000 -12.690593 -0.000001 15.137665 -17.857716 2.878242 1.665665 -1.955920 -2.878297 4.727794 -4.170584 4.993919 11.020511 0.000001 -0.000000 12.109032 -3.735715 -2.866778 0.000000 -0.000000 0.000000 1.291985 -1.928548 -1.498088 14.800115 0.567467 3.865604 14.242553 -1.341738 -6.660648 19.631935 0.143921 -0.648243 49.814949 -0.472462 -6.303138 0.353029 -1.511150 -0.031940 20.222769 3.684305 2.316629 18.787249 0.000001 -0.000001 10.751608 -0.479870 1.397903 0.000000 -0.000000 0.000000 3.273804 0.305947 -0.580110 21.486790 11.830364 2.266131 8.162915 0.000000 -0.000000 18.399052 -3.798986 -4.940567 0.000003 0.000000 -0.000001 5.812557 33.725983 3.571704 -0.023688 -0.596062 35.254776 -17.687002 15.523762 2.585563 1.845391 -1.902462 -14.519191 0.000000 -0.000000 0.000002 -6.201277 7.035227 -22.206150 0.079352 0.289561 18.269913 14.595168 17.699402 7.448946 -1.354638 0.948900 -2.126538 0.000000 -0.000000 -0.000001
0.000000 0.000000 0.000000 0.000000 -0.000000 0.000000 1.257608 0.288752 1.716003 1.761072 -0.468760 -0.793152 -0.221685 -0.577847 -6.979258 -0.688203 -1.695792 -7.096159 -1.077626 -4.456100 14.890996 3.067556 1.247788 5.128841 -1.319364 -2.424726 -3.704251 -0.148607 -4.252507 -0.670968 0.000077 -0.000022 0.000006 -0.006340 -0.010958 -0.021242 0.702617 -3.707708 -10.623567 -0.714396 3.705555 -10.614289 -18.888527 -10.474537 12.576545 -50.588268 -10.594637 29.711788 -179.569534 -75.440514 179.550797 14.602192 -7.869669 -2.826235 -5.882102 9.861279 0.702590 -10.936861 -0.360574 7.156197 0.000000 8.774815 -0.000000 -15.128164 17.390175 6.562275 -1.844031 2.498503 -2.507276 -10.163590 4.678941 4.621104 -20.975996 -0.000001 0.000001 -21.226254 2.451698 -3.593995 0.000000 -0.000006 -0.000000 -1.362681 2.240797 -0.746323 -21.334892 0.584910 3.008319 -13.821196 -0.000001 0.000001 -23.887129 -0.249075 -0.839485 -59.916054 2.431004 -1.121196 -0.294025 1.679686 0.833255 -14.218195 0.093215 1.300579 -34.212002 -0.287561 0.967166 -20.033176 0.964536 1.212838 0.000000 -0.000000 0.000000 -3.440387 0.788233 0.501655 -15.928172 -3.167306 2.999703 -6.338817 -0.000000 0.000001 -18.123419 3.648181 -4.905662 -0.000004 0.000000 -0.000002 20.402088 6.461086 12.211455 52.916004 5.373549 20.172998 -178.464325 74.290115 -177.932037 -33.266510 8.716100 -4.686912 2.243540 -5.255033 -3.180156 14.282877 -0.826594 6.952496 -0.000000 -12.690593 -0.000001 15.123920 -17.830915 2.894491 1.665665 -1.955920 -2.878297 4.727794 -4.170584 4.993919 11.020511 0.000001 -0.000000 12.109032 -3.735715 -2.866778 0.000000 -0.000000 0.000000 1.291985 -1.928548 -1.498088 14.800115 0.567467 3.865604 14.242553 -1.341738 -6.660648 19.631935 0.143921 -0.648243 49.833172 -0.466757 -6.284676 0.353029 -1.511150 -0.031940 20.222769 3.684305 2.316629 18.787249 0.000001 -0.000001 10.751608 -0.479870 1.397903 0.000000 -0.000000 0.000000 3.273804 0.305947 -0.580110 21.486790 11.830364 2.266131 8.162915 0.000000 -0.000000 18.399052 -3.798986 -4.940567 0.000003 0.000000 -0.000001 5.812557 33.725983 3.571704 -0.023688 -0.596062 35.254776 -17.687002 15.523762 2.585563 1.845391 -1.902462 -14.519191 0.000000 -0.000000 0.000002 -6.201277 7.035227 -22.206150 0.079352 0.289561 18.269913 14.595168 17.699402 7.448946 -1.354638 0.948900 -2.126538 0.000000 -0.000000 -0.000001
0.000000 0.000000 0.000000 0.000000 -0.000000 0.000000 1.257608 0.291521 1.716003 1.761072 -0.468760 -0.793152 -0.204048 -0.578927 -6.973225 -0.683978 -1.686175 -7.099521 -1.042824 -4.429984 14.889830 3.025971 1.245362 5.153456 -1.307613 -2.364341 -3.703645 -0.185034 -4.225983 -0.715664 0.000077 -0.000022 0.000006 -0.006193 -0.008244 -0.018632 0.703882 -3.704268 -10.621745 -0.715332 3.707593 -10.611415 -18.956509 -10.398674 12.582088 -50.494804 -10.559326 29.718082 -179.609116 -75.412529 179.608841 14.679393 -7.761451 -2.996775 -5.882102 9.861279 0.702590 -10.936861 -0.360574 7.156197 0.000000 8.774815 -0.000000 -15.130283 17.387054 6.576276 -1.844031 2.498503 -2.507276 -10.163590 4.678941 4.621104 -20.975996 -0.000001 0.000001 -21.226254 2.451698 -3.593995 0.000000 -0.000006 -0.000000 -1.362681 2.240797 -0.746323 -21.334892 0.584910 3.008319 -13.821196 -0.000001 0.000001 -23.887129 -0.249075 -0.839485 -59.889217 2.424757 -1.106427 -0.294025 1.679686 0.833255 -14.218195 0.093215 1.300579 -34.212002 -0.287561 0.967166 -20.033176 0.964536 1.212838 0.000000 -0.000000 0.000000 -3.440387 0.788233 0.501655 -15.928172 -3.167306 2.999703 -6.338817 -0.000000 0.000001 -18.123419 3.648181 -4.905662 -0.000004 0.000000 -0.000002 20.415541 6.485062 12.230728 52.861378 5.440361 20.288458 -178.354507 74.274956 -177.816238 -33.208538 8.591315 -4.716838 2.243540 -5.255033 -3.180156 14.282877 -0.826594 6.952496 -0.000000 -12.690593 -0.000001 15.112402 -17.801970 2.901074 1.665665 -1.955920 -2.878297 4.727794 -4.170584 4.993919 11.020511 0.000001 -0.000000 12.109032 -3.735715 -2.866778 0.000000 -0.000000 0.000000 1.291985 -1.928548 -1.498088 14.800115 0.567467 3.865604 14.242553 -1.341738 -6.660648 19.631935 0.143921 -0.648243 49.831799 -0.465879 -6.251835 0.353029 -1.511150 -0.031940 20.222769 3.684305 2.316629 18.787249 0.000001 -0.000001 10.751608 -0.479870 1.397903 0.000000 -0.000000 0.000000 3.273804 0.305947 -0.580110 21.486790 11.830364 2.266131 8.162915 0.000000 -0.000000 18.399052 -3.798986 -4.940567 0.000003 0.000000 -0.000001 5.812557 33.725983 3.571704 -0.023688 -0.596062 35.254776 -17.687002 15.523762 2.585563 1.845391 -1.902462 -14.519191 0.000000 -0.000000 0.000002 -6.201277 7.035227 -22.206150 0.079352 0.289561 18.269913 14.595168 17.699402 7.448946 -1.354638 0.948900 -2.126538 0.000000 -0.000000 -0.000001
0.000000 0.000000 0.000000 0.000000 -0.000000 0.000000 1.257608 0.294093 1.716003 1.761072 -0.468760 -0.793152 -0.179226 -0.578333 -6.950946 -0.675276 -1.678293 -7.101692 -1.030883 -4.412251 14.872235 2.990067 1.242674 5.169812 -1.289649 -2.297924 -3.700115 -0.198422 -4.196124 -0.743694 0.000077 -0.000022 0.000006 -0.005540 -0.004475 -0.017899 0.703850 -3.700474 -10.617855 -0.713942 3.711440 -10.606688 -19.028605 -10.315426 12.568971 -50.402126 -10.509279 29.745586 -179.743027 -75.373932 179.749100 14.763461 -7.687190 -2.981554 -5.882102 9.861279 0.702590 -10.936861 -0.360574 7.156197 0.000000 8.774815 -0.000000 -15.130433 17.380209 6.589570 -1.844031 2.498503 -2.507276 -10.163590 4.678941 4.621104 -20.975996 -0.000001 0.000001 -21.226254 2.451698 -3.593995 0.000000 -0.000006 -0.000000 -1.362681 2.240797 -0.746323 -21.334892 0.584910 3.008319 -13.821196 -0.000001 0.000001 -23.887129 -0.249075 -0.839485 -59.911953 2.413646 -1.101709 -0.294025 1.679686 0.833255 -14.218195 0.093215 1.300579 -34.212002 -0.287561 0.967166 -20.033176 0.964536 1.212838 0.000000 -0.000000 0.000000 -3.440387 0.788233 0.501655 -15.928172 -3.167306 2.999703 -6.338817 -0.000000 0.000001 -18.123419 3.648181 -4.905662 -0.000004 0.000000 -0.000002 20.418285 6.509159 12.232070 52.812359 5.507446 20.402824 -178.296326 74.264740 -177.760803 -33.153141 8.463129 -4.624641 2.243540 -5.255033 -3.180156 14.282877 -0.826594 6.952496 -0.000000 -12.690593 -0.000001 15.115703 -17.791365 2.891096 1.665665 -1.955920 -2.878297 4.727794 -4.170584 4.993919 11.020511 0.000001 -0.000000 12.109032 -3.735715 -2.866778 0.000000 -0.000000 0.000000 1.291985 -1.928548 -1.498088 14.800115 0.567467 3.865604 14.242553 -1.341738 -6.660648 19.631935 0.143921 -0.648243 49.821350 -0.463738 -6.226109 0.353029 -1.511150 -0.031940 20.222769 3.684305 2.316629 18.787249 0.000001 -0.000001 10.751608 -0.479870 1.397903 0.000000 -0.000000 0.000000 3.273804 0.305947 -0.580110 21.486790 11.830364 2.266131 8.162915 0.000000 -0.000000 18.399052 -3.798986 -4.940567 0.000003 0.000000 -0.000001 5.812557 33.725983 3.571704 -0.023688 -0.596062 35.254776 -17.687002 15.523762 2.585563 1.845391 -1.902462 -14.519191 0.000000 -0.000000 0.000002 -6.201277 7.035227 -22.206150 0.079352 0.289561 18.269913 14.595168 17.699402 7.448946 -1.354638 0.948900 -2.126538 0.000000 -0.000000 -0.000001
0.000000 0.000000 0.000000 0.000000 -0.000000 0.000000 1.257608 0.296244 1.716003 1.761072 -0.468760 -0.793152 -0.152773 -0.576150 -6.921381 -0.663100 -1.673365 -7.100687 -1.032303 -4.401075 14.841767 2.958043 1.251320 5.179788 -1.270278 -2.241873 -3.700313 -0.191794 -4.156494 -0.750020 0.000077 -0.000022 0.000006 -0.005202 -0.000632 -0.017258 0.702734 -3.698068 -10.611562 -0.712066 3.716710 -10.599865 -19.124048 -10.241489 12.566499 -50.288712 -10.460095 29.786106 -179.919724 -75.353035 179.926620 14.840784 -7.671625 -2.805651 -5.882102 9.861279 0.702590 -10.936861 -0.360574 7.156197 0.000000 8.774815 -0.000000 -15.124810 17.379942 6.593643 -1.844031 2.498503 -2.507276 -10.163590 4.678941 4.621104 -20.975996 -0.000001 0.000001 -21.226254 2.451698 -3.593995 0.000000 -0.000006 -0.000000 -1.362681 2.240797 -0.746323 -21.334892 0.584910 3.008319 -13.821196 -0.000001 0.000001 -23.887129 -0.249075 -0.839485 -59.933647 2.400198 -1.110551 -0.294025 1.679686 0.833255 -14.218195 0.093215 1.300579 -34.212002 -0.287561 0.967166 -20.033176 0.964536 1.212838 0.000000 -0.000000 0.000000 -3.440387 0.788233 0.501655 -15.928172 -3.167306 2.999703 -6.338817 -0.000000 0.000001 -18.123419 3.648181 -4.905662 -0.000004 0.000000 -0.000002 20.401606 6.539153 12.212914 52.787258 5.543257 20.459003 -178.469467 74.267128 -177.935379 -33.136047 8.358596 -4.532243 2.243540 -5.255033 -3.180156 14.282877 -0.826594 6.952496 -0.000000 -12.690593 -0.000001 15.117285 -17.799915 2.880575 1.665665 -1.955920 -2.878297 4.727794 -4.170584 4.993919 11.020511 0.000001 -0.000000 12.109032 -3.735715 -2.866778 0.000000 -0.000000 0.000000 1.291985 -1.928548 -1.498088 14.800115 0.567467 3.865604 14.242553 -1.341738 -6.660648 19.631935 0.143921 -0.648243 49.827225 -0.472160 -6.205966 0.353029 -1.511150 -0.031940 20.222769 3.684305 2.316629 18.787249 0.000001 -0.000001 10.751608 -0.479870 1.397903 0.000000 -0.000000 0.000000 3.273804 0.305947 -0.580110 21.486790 11.830364 2.266131 8.162915 0.000000 -0.000000 18.399052 -3.798986 -4.940567 0.000003 0.000000 -0.000001 5.812557 33.725983 3.571704 -0.023688 -0.596062 35.254776 -17.687002 15.523762 2.585563 1.845391 -1.902462 -14.519191 0.000000 -0.000000 0.000002 -6.201277 7.035227 -22.206150 0.079352 0.289561 18.269913 14.595168 17.699402 7.448946 -1.354638 0.948900 -2.126538 0.000000 -0.000000 -0.000001
0.000000 0.000000 0.000000 0.000000 -0.000000 0.000000 1.257608 0.295870 1.716003 1.761072 -0.468760 -0.793152 -0.128610 -0.568950 -6.895865 -0.652829 -1.675947 -7.096545 -1.034081 -4.394590 14.817308 2.940030 1.263553 5.181785 -1.250209 -2.189325 -3.705407 -0.195022 -4.115551 -0.773664 0.000077 -0.000022 0.000006 -0.004860 0.001640 -0.017001 0.701564 -3.697093 -10.608246 -0.710187 3.719881 -10.596894 -19.221209 -10.200453 12.572865 -50.173023 -10.408993 29.826080 179.946075 -75.350922 -179.953705 14.886786 -7.710595 -2.587172 -5.882102 9.861279 0.702590 -10.936861 -0.360574 7.156197 0.000000 8.774815 -0.000000 -15.102836 17.391872 6.603322 -1.844031 2.498503 -2.507276 -10.163590 4.678941 4.621104 -20.975996 -0.000001 0.000001 -21.226254 2.451698 -3.593995 0.000000 -0.000006 -0.000000 -1.362681 2.240797 -0.746323 -21.334892 0.584910 3.008319 -13.821196 -0.000001 0.000001 -23.887129 -0.249075 -0.839485 -59.923355 2.398117 -1.119578 -0.294025 1.679686 0.833255 -14.218195 0.093215 1.300579 -34.212002 -0.287561 0.967166 -20.033176 0.964536 1.212838 0.000000 -0.000000 0.000000 -3.440387 0.788233 0.501655 -15.928172 -3.167306 2.999703 -6.338817 -0.000000 0.000001 -18.123419 3.648181 -4.905662 -0.000004 0.000000 -0.000002 20.385033 6.565998 12.168980 52.747906 5.530028 20.474251 -178.737564 74.237579 -178.194855 -33.144688 8.244206 -4.470420 2.243540 -5.255033 -3.180156 14.282877 -0.826594 6.952496 -0.000000 -12.690593 -0.000001 15.133961 -17.807600 2.863872 1.665665 -1.955920 -2.878297 4.727794 -4.170584 4.993919 11.020511 0.000001 -0.000000 12.109032 -3.735715 -2.866778 0.000000 -0.000000 0.000000 1.291985 -1.928548 -1.498088 14.800115 0.567467 3.865604 14.242553 -1.341738 -6.660648 19.631935 0.143921 -0.648243 49.839756 -0.475112 -6.195003 0.353029 -1.511150 -0.031940 20.222769 3.684305 2.316629 18.787249 0.000001 -0.000001 10.751608 -0.479870 1.397903 0.000000 -0.000000 0.000000 3.273804 0.305947 -0.580110 21.486790 11.830364 2.266131 8.162915 0.000000 -0.000000 18.399052 -3.798986 -4.940567 0.000003 0.000000 -0.000001 5.812557 33.725983 3.571704 -0.023688 -0.596062 35.254776 -17.687002 15.523762 2.585563 1.845391 -1.902462 -14.519191 0.000000 -0.000000 0.000002 -6.201277 7.035227 -22.206150 0.079352 0.289561 18.269913 14.595168 17.699402 7.448946 -1.354638 0.948900 -2.126538 0.000000 -0.000000 -0.000001
0.000000 0.000000 0.000000 0.000000 -0.000000 0.000000 1.257608 0.295748 1.716003 1.761072 -0.468760 -0.793152 -0.115396 -0.562318 -6.879153 -0.649870 -1.685217 -7.091493 -1.042405 -4.393662 14.801684 2.947584 1.279471 5.169531 -1.232130 -2.174069 -3.720942 -0.197825 -4.074401 -0.799737 0.000077 -0.000022 0.000006 -0.004152 0.006585 -0.018168 0.700569 -3.693322 -10.609695 -0.707785 3.725792 -10.599795 -19.316580 -10.202448 12.590905 -50.047981 -10.360766 29.894806 179.773682 -75.339485 -179.788025 14.916306 -7.797271 -2.438407 -5.882102 9.861279 0.702590 -10.936861 -0.360574 7.156197 0.000000 8.774815 -0.000000 -15.058561 17.395283 6.622377 -1.844031 2.498503 -2.507276 -10.163590 4.678941 4.621104 -20.975996 -0.000001 0.000001 -21.226254 2.451698 -3.593995 0.000000 -0.000006 -0.000000 -1.362681 2.240797 -0.746323 -21.334892 0.584910 3.008319 -13.821196 -0.000001 0.000001 -23.887129 -0.249075 -0.839485 -59.880932 2.420953 -1.120857 -0.294025 1.679686 0.833255 -14.218195 0.093215 1.300579 -34.212002 -0.287561 0.967166 -20.033176 0.964536 1.212838 0.000000 -0.000000 0.000000 -3.440387 0.788233 0.501655 -15.928172 -3.167306 2.999703 -6.338817 -0.000000 0.000001 -18.123419 3.648181 -4.905662 -0.000004 0.000000 -0.000002 20.372980 6.563521 12.097888 52.706184 5.487384 20.472349 -178.966660 74.203316 -178.438217 -33.128132 8.165039 -4.357450 2.243540 -5.255033 -3.180156 14.282877 -0.826594 6.952496 -0.000000 -12.690593 -0.000001 15.137807 -17.825848 2.855803 1.665665 -1.955920 -2.878297 4.727794 -4.170584 4.993919 11.020511 0.000001 -0.000000 12.109032 -3.735715 -2.866778 0.000000 -0.000000 0.000000 1.291985 -1.928548 -1.498088 14.800115 0.567467 3.865604 14.242553 -1.341738 -6.660648 19.631935 0.143921 -0.648243 49.837116 -0.468922 -6.206097 0.353029 -1.511150 -0.031940 20.222769 3.684305 2.316629 18.787249 0.000001 -0.000001 10.751608 -0.479870 1.397903 0.000000 -0.000000 0.000000 3.273804 0.305947 -0.580110 21.486790 11.830364 2.266131 8.162915 0.000000 -0.000000 18.399052 -3.798986 -4.940567 0.000003 0.000000 -0.000001 5.812557 33.725983 3.571704 -0.023688 -0.596062 35.254776 -17.687002 15.523762 2.585563 1.845391 -1.902462 -14.519191 0.000000 -0.000000 0.000002 -6.201277 7.035227 -22.206150 0.079352 0.289561 18.269913 14.595168 17.699402 7.448946 -1.354638 0.948900 -2.126538 0.000000 -0.000000 -0.000001
0.000000 0.000000 0.000000 0.000000 -0.000000 0.000000 1.257608 0.300639 1.716003 1.761072 -0.468760 -0.793152 -0.103763 -0.565164 -6.877662 -0.653027 -1.687257 -7.086988 -1.054029 -4.410229 14.807912 2.978443 1.290601 5.144013 -1.215466 -2.171025 -3.730562 -0.186556 -4.028491 -0.834458 0.000077 -0.000022 0.000006 -0.004233 0.006989 -0.016307 0.698695 -3.695984 -10.611134 -0.706174 3.729051 -10.602430 -19.401144 -10.215723 12.634642 -49.930290 -10.363820 29.961967 179.622437 -75.313034 -179.626083 14.918605 -7.893926 -2.324769 -5.882102 9.861279 0.702590 -10.936861 -0.360574 7.156197 0.000000 8.774815 -0.000000 -15.001822 17.394228 6.639791 -1.844031 2.498503 -2.507276 -10.163590 4.678941 4.621104 -20.975996 -0.000001 0.000001 -21.226254 2.451698 -3.593995 0.000000 -0.000006 -0.000000 -1.362681 2.240797 -0.746323 -21.334892 0.584910 3.008319 -13.821196 -0.000001 0.000001 -23.887129 -0.249075 -0.839485 -59.819454 2.447470 -1.124792 -0.294025 1.679686 0.833255 -14.218195 0.093215 1.300579 -34.212002 -0.287561 0.967166 -20.033176 0.964536 1.212838 0.000000 -0.000000 0.000000 -3.440387 0.788233 0.501655 -15.928172 -3.167306 2.999703 -6.338817 -0.000000 0.000001 -18.123419 3.648181 -4.905662 -0.000004 0.000000 -0.000002 20.366579 6.545012 12.019417 52.664497 5.420170 20.475071 -179.104797 74.163841 -178.587982 -33.103920 8.098010 -4.262190 2.243540 -5.255033 -3.180156 14.282877 -0.826594 6.952496 -0.000000 -12.690593 -0.000001 15.113279 -17.826290 2.853101 1.665665 -1.955920 -2.878297 4.727794 -4.170584 4.993919 11.020511 0.000001 -0.000000 12.109032 -3.735715 -2.866778 0.000000 -0.000000 0.000000 1.291985 -1.928548 -1.498088 14.800115 0.567467 3.865604 14.242553 -1.341738 -6.660648 19.631935 0.143921 -0.648243 49.812160 -0.449077 -6.224206 0.353029 -1.511150 -0.031940 20.222769 3.684305 2.316629 18.787249 0.000001 -0.000001 10.751608 -0.479870 1.397903 0.000000 -0.000000 0.000000 3.273804 0.305947 -0.580110 21.486790 11.830364 2.266131 8.162915 0.000000 -0.000000 18.399052 -3.798986 -4.940567 0.000003 0.000000 -0.000001 5.812557 33.725983 3.571704 -0.023688 -0.596062 35.254776 -17.687002 15.523762 2.585563 1.845391 -1.902462 -14.519191 0.000000 -0.000000 0.000002 -6.201277 7.035227 -22.206150 0.079352 0.289561 18.269913 14.595168 17.699402 7.448946 -1.354638 0.948900 -2.126538 0.000000 -0.000000 -0.000001
0.000000 0.000000 0.000000 0.000000 -0.000000 0.000000 1.257608 0.304407 1.716003 1.761072 -0.468760 -0.793152 -0.089816 -0.569265 -6.893218 -0.660349 -1.700640 -7.084905 -1.068472 -4.427113 14.833824 3.027798 1.292549 5.131324 -1.203194 -2.163879 -3.730505 -0.160267 -4.005129 -0.884748 0.000077 -0.000022 0.000006 -0.004389 0.008395 -0.014486 0.696706 -3.697280 -10.609472 -0.704677 3.733265 -10.601745 -19.470385 -10.250059 12.728843 -49.834488 -10.428465 29.997658 179.530853 -75.292542 -179.520630 14.907894 -7.968209 -2.263703 -5.882102 9.861279 0.702590 -10.936861 -0.360574 7.156197 0.000000 8.774815 -0.000000 -14.962281 17.402676 6.659079 -1.844031 2.498503 -2.507276 -10.163590 4.678941 4.621104 -20.975996 -0.000001 0.000001 -21.226254 2.451698 -3.593995 0.000000 -0.000006 -0.000000 -1.362681 2.240797 -0.746323 -21.334892 0.584910 3.008319 -13.821196 -0.000001 0.000001 -23.887129 -0.249075 -0.839485 -59.775875 2.460846 -1.123799 -0.294025 1.679686 0.833255 -14.218195 0.093215 1.300579 -34.212002 -0.287561 0.967166 -20.033176 0.964536 1.212838 0.000000 -0.000000 0.000000 -3.440387 0.788233 0.501655 -15.928172 -3.167306 2.999703 -6.338817 -0.000000 0.000001 -18.123419 3.648181 -4.905662 -0.000004 0.000000 -0.000002 20.387484 6.486058 11.967834 52.595444 5.362199 20.488670 -179.095078 74.131989 -178.600449 -33.115185 8.066168 -4.153795 2.243540 -5.255033 -3.180156 14.282877 -0.826594 6.952496 -0.000000 -12.690593 -0.000001 15.101181 -17.820486 2.852512 1.665665 -1.955920 -2.878297 4.727794 -4.170584 4.993919 11.020511 0.000001 -0.000000 12.109032 -3.735715 -2.866778 0.000000 -0.000000 0.000000 1.291985 -1.928548 -1.498088 14.800115 0.567467 3.865604 14.242553 -1.341738 -6.660648 19.631935 0.143921 -0.648243 49.792843 -0.424422 -6.235582 0.353029 -1.511150 -0.031940 20.222769 3.684305 2.316629 18.787249 0.000001 -0.000001 10.751608 -0.479870 1.397903 0.000000 -0.000000 0.000000 3.273804 0.305947 -0.580110 21.486790 11.830364 2.266131 8.162915 0.000000 -0.000000 18.399052 -3.798986 -4.940567 0.000003 0.000000 -0.000001 5.812557 33.725983 3.571704 -0.023688 -0.596062 35.254776 -17.687002 15.523762 2.585563 1.845391 -1.902462 -14.519191 0.000000 -0.000000 0.000002 -6.201277 7.035227 -22.206150 0.079352 0.289561 18.269913 14.595168 17.699402 7.448946 -1.354638 0.948900 -2.126538 0.000000 -0.000000 -0.000001
0.000000 0.000000 0.000000 0.000000 -0.000000 0.000000 1.257608 0.309664 1.716003 1.761072 -0.468760 -0.793152 -0.080331 -0.587782 -6.902877 -0.661804 -1.713310 -7.088061 -1.090511 -4.444640 14.862988 3.077142 1.284777 5.131356 -1.198565 -2.176881 -3.724883 -0.104151 -3.990366 -0.945524 0.000077 -0.000022 0.000006 -0.004284 0.018102 -0.015748 0.695928 -3.690104 -10.612005 -0.703930 3.745813 -10.604285 -19.509811 -10.291641 12.807669 -49.776123 -10.520693 30.026386 179.538574 -75.300377 -179.532608 14.897167 -7.986094 -2.212571 -5.882102 9.861279 0.702590 -10.936861 -0.360574 7.156197 0.000000 8.774815 -0.000000 -14.958316 17.411276 6.666182 -1.844031 2.498503 -2.507276 -10.163590 4.678941 4.621104 -20.975996 -0.000001 0.000001 -21.226254 2.451698 -3.593995 0.000000 -0.000006 -0.000000 -1.362681 2.240797 -0.746323 -21.334892 0.584910 3.008319 -13.821196 -0.000001 0.000001 -23.887129 -0.249075 -0.839485 -59.765503 2.466654 -1.111832 -0.294025 1.679686 0.833255 -14.218195 0.093215 1.300579 -34.212002 -0.287561 0.967166 -20.033176 0.964536 1.212838 0.000000 -0.000000 0.000000 -3.440387 0.788233 0.501655 -15.928172 -3.167306 2.999703 -6.338817 -0.000000 0.000001 -18.123419 3.648181 -4.905662 -0.000004 0.000000 -0.000002 20.414265 6.385993 11.959740 52.523106 5.355304 20.516251 -178.901398 74.160225 -178.419342 -33.118645 8.075533 -4.056211 2.243540 -5.255033 -3.180156 14.282877 -0.826594 6.952496 -0.000000 -12.690593 -0.000001 15.104605 -17.832184 2.863725 1.665665 -1.955920 -2.878297 4.727794 -4.170584 4.993919 11.020511 0.000001 -0.000000 12.109032 -3.735715 -2.866778 0.000000 -0.000000 0.000000 1.291985 -1.928548 -1.498088 14.800115 0.567467 3.865604 14.242553 -1.341738 -6.660648 19.631935 0.143921 -0.648243 49.816399 -0.415505 -6.254235 0.353029 -1.511150 -0.031940 20.222769 3.684305 2.316629 18.787249 0.000001 -0.000001 10.751608 -0.479870 1.397903 0.000000 -0.000000 0.000000 3.273804 0.305947 -0.580110 21.486790 11.830364 2.266131 8.162915 0.000000 -0.000000 18.399052 -3.798986 -4.940567 0.000003 0.000000 -0.000001 5.812557 33.725983 3.571704 -0.023688 -0.596062 35.254776 -17.687002 15.523762 2.585563 1.845391 -1.902462 -14.519191 0.000000 -0.000000 0.000002 -6.201277 7.035227 -22.206150 0.079352 0.289561 18.269913 14.595168 17.699402 7.448946 -1.354638 0.948900 -2.126538 0.000000 -0.000000 -0.000001
0.000000 0.000000 0.000000 0.000000 -0.000000 0.000000 1.257608 0.317583 1.716003 1.761072 -0.468760 -0.793152 -0.077628 -0.608567 -6.904579 -0.667834 -1.720555 -7.098398 -1.105747 -4.477105 14.895422 3.121146 1.275507 5.145544 -1.192847 -2.171100 -3.720845 -0.043982 -3.975241 -1.043078 0.000077 -0.000022 0.000006 -0.003802 0.030191 -0.018422 0.696138 -3.679248 -10.617865 -0.703332 3.759524 -10.610116 -19.539139 -10.331218 12.857679 -49.745041 -10.601093 30.063868 179.583145 -75.324165 -179.609161 14.902976 -7.988282 -2.218784 -5.882102 9.861279 0.702590 -10.936861 -0.360574 7.156197 0.000000 8.774815 -0.000000 -14.982676 17.421967 6.662675 -1.844031 2.498503 -2.507276 -10.163590 4.678941 4.621104 -20.975996 -0.000001 0.000001 -21.226254 2.451698 -3.593995 0.000000 -0.000006 -0.000000 -1.362681 2.240797 -0.746323 -21.334892 0.584910 3.008319 -13.821196 -0.000001 0.000001 -23.887129 -0.249075 -0.839485 -59.803616 2.469385 -1.102841 -0.294025 1.679686 0.833255 -14.218195 0.093215 1.300579 -34.212002 -0.287561 0.967166 -20.033176 0.964536 1.212838 0.000000 -0.000000 0.000000 -3.440387 0.788233 0.501655 -15.928172 -3.167306 2.999703 -6.338817 -0.000000 0.000001 -18.123419 3.648181 -4.905662 -0.000004 0.000000 -0.000002 20.419939 6.291976 11.980496 52.467384 5.385710 20.552351 -178.576294 74.235977 -178.099747 -33.121559 8.127284 -3.979129 2.243540 -5.255033 -3.180156 14.282877 -0.826594 6.952496 -0.000000 -12.690593 -0.000001 15.118002 -17.858667 2.883802 1.665665 -1.955920 -2.878297 4.727794 -4.170584 4.993919 11.020511 0.000001 -0.000000 12.109032 -3.735715 -2.866778 0.000000 -0.000000 0.000000 1.291985 -1.928548 -1.498088 14.800115 0.567467 3.865604 14.242553 -1.341738 -6.660648 19.631935 0.143921 -0.648243 49.859283 -0.410868 -6.271426 0.353029 -1.511150 -0.031940 20.222769 3.684305 2.316629 18.787249 0.000001 -0.000001 10.751608 -0.479870 1.397903 0.000000 -0.000000 0.000000 3.273804 0.305947 -0.580110 21.486790 11.830364 2.266131 8.162915 0.000000 -0.000000 18.399052 -3.798986 -4.940567 0.000003 0.000000 -0.000001 5.812557 33.725983 3.571704 -0.023688 -0.596062 35.254776 -17.687002 15.523762 2.585563 1.845391 -1.902462 -14.519191 0.000000 -0.000000 0.000002 -6.201277 7.035227 -22.206150 0.079352 0.289561 18.269913 14.595168 17.699402 7.448946 -1.354638 0.948900 -2.126538 0.000000 -0.000000 -0.000001
0.000000 0.000000 0.000000 0.000000 -0.000000 0.000000 1.257608 0.322619 1.716003 1.761072 -0.468760 -0.793152 -0.087764 -0.618792 -6.897975 -0.674528 -1.728211 -7.108043 -1.105271 -4.509185 14.917379 3.167673 1.247089 5.187177 -1.164350 -2.079011 -3.729450 -0.019703 -3.950019 -1.146026 0.000077 -0.000022 0.000006 -0.003508 0.055068 -0.021860 0.696040 -3.654871 -10.624060 -0.702658 3.784626 -10.616537 -19.619881 -10.346627 12.941584 -49.695683 -10.684106 30.108086 179.636932 -75.336182 -179.708145 14.930120 -8.032402 -2.225073 -5.882102 9.861279 0.702590 -10.936861 -0.360574 7.156197 0.000000 8.774815 -0.000000 -14.987083 17.414875 6.634589 -1.844031 2.498503 -2.507276 -10.163590 4.678941 4.621104 -20.975996 -0.000001 0.000001 -21.226254 2.451698 -3.593995 0.000000 -0.000006 -0.000000 -1.362681 2.240797 -0.746323 -21.334892 0.584910 3.008319 -13.821196 -0.000001 0.000001 -23.887129 -0.249075 -0.839485 -59.832451 2.496190 -1.089847 -0.294025 1.679686 0.833255 -14.218195 0.093215 1.300579 -34.212002 -0.287561 0.967166 -20.033176 0.964536 1.212838 0.000000 -0.000000 0.000000 -3.440387 0.788233 0.501655 -15.928172 -3.167306 2.999703 -6.338817 -0.000000 0.000001 -18.123419 3.648181 -4.905662 -0.000004 0.000000 -0.000002 20.458069 6.220215 12.040306 52.386147 5.407835 20.523539 -178.248001 74.300400 -177.739990 -33.089695 8.149038 -3.936561 2.243540 -5.255033 -3.180156 14.282877 -0.826594 6.952496 -0.000000 -12.690593 -0.000001 15.124800 -17.866697 2.931309 1.665665 -1.955920 -2.878297 4.727794 -4.170584 4.993919 11.020511 0.000001 -0.000000 12.109032 -3.735715 -2.866778 0.000000 -0.000000 0.000000 1.291985 -1.928548 -1.498088 14.800115 0.567467 3.865604 14.242553 -1.341738 -6.660648 19.631935 0.143921 -0.648243 49.899193 -0.404821 -6.294354 0.353029 -1.511150 -0.031940 20.222769 3.684305 2.316629 18.787249 0.000001 -0.000001 10.751608 -0.479870 1.397903 0.000000 -0.000000 0.000000 3.273804 0.305947 -0.580110 21.486790 11.830364 2.266131 8.162915 0.000000 -0.000000 18.399052 -3.798986 -4.940567 0.000003 0.000000 -0.000001 5.812557 33.725983 3.571704 -0.023688 -0.596062 35.254776 -17.687002 15.523762 2.585563 1.845391 -1.902462 -14.519191 0.000000 -0.000000 0.000002 -6.201277 7.035227 -22.206150 0.079352 0.289561 18.269913 14.595168 17.699402 7.448946 -1.354638 0.948900 -2.126538 0.000000 -0.000000 -0.000001
0.000000 0.000000 0.000000 0.000000 -0.000000 0.000000 1.257608 0.308245 1.716003 1.761072 -0.468760 -0.793152 -0.079874 -0.614599 -6.948476 -0.690006 -1.794659 -7.094274 -1.160930 -4.518407 14.965010 3.223047 1.189291 5.239856 -1.161931 -2.037351 -3.749254 0.010585 -3.853706 -1.277097 0.000077 -0.000022 0.000006 -0.005262 0.026668 -0.014531 0.696805 -3.684712 -10.624031 -0.707053 3.758062 -10.613158 -19.630505 -10.356123 12.955565 -49.627945 -10.730569 30.110571 179.886551 -75.272049 -179.924622 15.018541 -7.864611 -2.186671 -5.882102 9.861279 0.702590 -10.936861 -0.360574 7.156197 0.000000 8.774815 -0.000000 -15.027489 17.344114 6.597749 -1.844031 2.498503 -2.507276 -10.163590 4.678941 4.621104 -20.975996 -0.000001 0.000001 -21.226254 2.451698 -3.593995 0.000000 -0.000006 -0.000000 -1.362681 2.240797 -0.746323 -21.334892 0.584910 3.008319 -13.821196 -0.000001 0.000001 -23.887129 -0.249075 -0.839485 -59.872925 2.437342 -1.062382 -0.294025 1.679686 0.833255 -14.218195 0.093215 1.300579 -34.212002 -0.287561 0.967166 -20.033176 0.964536 1.212838 0.000000 -0.000000 0.000000 -3.440387 0.788233 0.501655 -15.928172 -3.167306 2.999703 -6.338817 -0.000000 0.000001 -18.123419 3.648181 -4.905662 -0.000004 0.000000 -0.000002 20.445393 6.179338 12.056601 52.367764 5.431118 20.603903 -177.812408 74.353699 -177.351044 -32.997780 8.122503 -4.139447 2.243540 -5.255033 -3.180156 14.282877 -0.826594 6.952496 -0.000000 -12.690593 -0.000001 15.107395 -17.910994 2.988821 1.665665 -1.955920 -2.878297 4.727794 -4.170584 4.993919 11.020511 0.000001 -0.000000 12.109032 -3.735715 -2.866778 0.000000 -0.000000 0.000000 1.291985 -1.928548 -1.498088 14.800115 0.567467 3.865604 14.242553 -1.341738 -6.660648 19.631935 0.143921 -0.648243 50.021023 -0.470951 -6.318900 0.353029 -1.511150 -0.031940 20.222769 3.684305 2.316629 18.787249 0.000001 -0.000001 10.751608 -0.479870 1.397903 0.000000 -0.000000 0.000000 3.273804 0.305947 -0.580110 21.486790 11.830364 2.266131 8.162915 0.000000 -0.000000 18.399052 -3.798986 -4.940567 0.000003 0.000000 -0.000001 5.812557 33.725983 3.571704 -0.023688 -0.596062 35.254776 -17.687002 15.523762 2.585563 1.845391 -1.902462 -14.519191 0.000000 -0.000000 0.000002 -6.201277 7.035227 -22.206150 0.079352 0.289561 18.269913 14.595168 17.699402 7.448946 -1.354638 0.948900 -2.126538 0.000000 -0.000000 -0.000001
0.000000 0.000000 0.000000 0.000000 -0.000000 0.000000 1.257608 0.309267 1.716003 1.761072 -0.468760 -0.793152 -0.033681 -0.616635 -6.939717 -0.656500 -1.741652 -7.113818 -1.146180 -4.483082 14.981414 3.098074 1.218602 5.354996 -1.128869 -1.945943 -3.747610 0.060812 -3.849771 -1.270922 0.000077 -0.000022 0.000006 -0.006352 0.033614 -0.017707 0.694265 -3.680984 -10.639584 -0.706720 3.768280 -10.633632 -19.764259 -10.279507 12.929718 -49.619492 -10.708971 29.950075 -179.573776 -75.274086 179.547424 15.074250 -7.978005 -2.440962 -5.882102 9.861279 0.702590 -10.936861 -0.360574 7.156197 0.000000 8.774815 -0.000000 -15.025741 17.384699 6.559676 -1.844031 2.498503 -2.507276 -10.163590 4.678941 4.621104 -20.975996 -0.000001 0.000001 -21.226254 2.451698 -3.593995 0.000000 -0.000006 -0.000000 -1.362681 2.240797 -0.746323 -21.334892 0.584910 3.008319 -13.821196 -0.000001 0.000001 -23.887129 -0.249075 -0.839485 -59.801369 2.434048 -1.104211 -0.294025 1.679686 0.833255 -14.218195 0.093215 1.300579 -34.212002 -0.287561 0.967166 -20.033176 0.964536 1.212838 0.000000 -0.000000 0.000000 -3.440387 0.788233 0.501655 -15.928172 -3.167306 2.999703 -6.338817 -0.000000 0.000001 -18.123419 3.648181 -4.905662 -0.000004 0.000000 -0.000002 20.377048 6.259984 12.095700 52.357426 5.542584 20.642576 -177.729965 74.450500 -177.265411 -33.076794 8.191944 -4.174447 2.243540 -5.255033 -3.180156 14.282877 -0.826594 6.952496 -0.000000 -12.690593 -0.000001 15.152645 -17.864246 2.940810 1.665665 -1.955920 -2.878297 4.727794 -4.170584 4.993919 11.020511 0.000001 -0.000000 12.109032 -3.735715 -2.866778 0.000000 -0.000000 0.000000 1.291985 -1.928548 -1.498088 14.800115 0.567467 3.865604 14.242553 -1.341738 -6.660648 19.631935 0.143921 -0.648243 50.004601 -0.479591 -6.303373 0.353029 -1.511150 -0.031940 20.222769 3.684305 2.316629 18.787249 0.000001 -0.000001 10.751608 -0.479870 1.397903 0.000000 -0.000000 0.000000 3.273804 0.305947 -0.580110 21.486790 11.830364 2.266131 8.162915 0.000000 -0.000000 18.399052 -3.798986 -4.940567 0.000003 0.000000 -0.000001 5.812557 33.725983 3.571704 -0.023688 -0.596062 35.254776 -17.687002 15.523762 2.585563 1.845391 -1.902462 -14.519191 0.000000 -0.000000 0.000002 -6.201277 7.035227 -22.206150 0.079352 0.289561 18.269913 14.595168 17.699402 7.448946 -1.354638 0.948900 -2.126538 0.000000 -0.000000 -0.000001
0.000000 0.000000 0.000000 0.000000 -0.000000 0.000000 1.257608 0.299609 1.716003 1.761072 -0.468760 -0.793152 0.003084 -0.606201 -6.968616 -0.644318 -1.724568 -7.119792 -1.142718 -4.451342 15.016777 3.000456 1.238630 5.425970 -1.095779 -1.833335 -3.750275 0.100169 -3.779737 -1.253857 0.000077 -0.000022 0.000006 -0.006454 0.029986 -0.015489 0.695773 -3.684922 -10.634642 -0.708500 3.764954 -10.630222 -19.863859 -10.176816 12.937633 -49.563957 -10.701712 29.890900 -179.532150 -75.146805 179.555740 15.145159 -7.956676 -2.520008 -5.882102 9.861279 0.702590 -10.936861 -0.360574 7.156197 0.000000 8.774815 -0.000000 -15.004264 17.368513 6.537588 -1.844031 2.498503 -2.507276 -10.163590 4.678941 4.621104 -20.975996 -0.000001 0.000001 -21.226254 2.451698 -3.593995 0.000000 -0.000006 -0.000000 -1.362681 2.240797 -0.746323 -21.334892 0.584910 3.008319 -13.821196 -0.000001 0.000001 -23.887129 -0.249075 -0.839485 -59.771675 2.419651 -1.112263 -0.294025 1.679686 0.833255 -14.218195 0.093215 1.300579 -34.212002 -0.287561 0.967166 -20.033176 0.964536 1.212838 0.000000 -0.000000 0.000000 -3.440387 0.788233 0.501655 -15.928172 -3.167306 2.999703 -6.338817 -0.000000 0.000001 -18.123419 3.648181 -4.905662 -0.000004 0.000000 -0.000002 20.308298 6.374595 12.113794 52.405457 5.620241 20.644423 -177.862793 74.484467 -177.425476 -33.119801 8.235996 -4.231477 2.243540 -5.255033 -3.180156 14.282877 -0.826594 6.952496 -0.000000 -12.690593 -0.000001 15.151585 -17.833815 2.928964 1.665665 -1.955920 -2.878297 4.727794 -4.170584 4.993919 11.020511 0.000001 -0.000000 12.109032 -3.735715 -2.866778 0.000000 -0.000000 0.000000 1.291985 -1.928548 -1.498088 14.800115 0.567467 3.865604 14.242553 -1.341738 -6.660648 19.631935 0.143921 -0.648243 49.981953 -0.503189 -6.283616 0.353029 -1.511150 -0.031940 20.222769 3.684305 2.316629 18.787249 0.000001 -0.000001 10.751608 -0.479870 1.397903 0.000000 -0.000000 0.000000 3.273804 0.305947 -0.580110 21.486790 11.830364 2.266131 8.162915 0.000000 -0.000000 18.399052 -3.798986 -4.940567 0.000003 0.000000 -0.000001 5.812557 33.725983 3.571704 -0.023688 -0.596062 35.254776 -17.687002 15.523762 2.585563 1.845391 -1.902462 -14.519191 0.000000 -0.000000 0.000002 -6.201277 7.035227 -22.206150 0.079352 0.289561 18.269913 14.595168 17.699402 7.448946 -1.354638 0.948900 -2.126538 0.000000 -0.000000 -0.000001
0.000000 0.000000 0.000000 0.000000 -0.000000 0.000000 1.257608 0.287791 1.716003 1.761072 -0.468760 -0.793152 0.049208 -0.593341 -6.993917 -0.624506 -1.695015 -7.122974 -1.135143 -4.400228 15.057697 2.882497 1.292671 5.487298 -1.077537 -1.753834 -3.750728 0.146157 -3.711602 -1.237588 0.000077 -0.000022 0.000006 -0.005995 0.026558 -0.017125 0.695951 -3.688510 -10.627793 -0.707802 3.761954 -10.624797 -19.984449 -10.074993 12.965475 -49.451775 -10.694332 29.842510 -179.710678 -74.975304 179.748077 15.249128 -7.881480 -2.604206 -5.882102 9.861279 0.702590 -10.936861 -0.360574 7.156197 0.000000 8.774815 -0.000000 -14.998869 17.360411 6.521368 -1.844031 2.498503 -2.507276 -10.163590 4.678941 4.621104 -20.975996 -0.000001 0.000001 -21.226254 2.451698 -3.593995 0.000000 -0.000006 -0.000000 -1.362681 2.240797 -0.746323 -21.334892 0.584910 3.008319 -13.821196 -0.000001 0.000001 -23.887129 -0.249075 -0.839485 -59.765858 2.400670 -1.114862 -0.294025 1.679686 0.833255 -14.218195 0.093215 1.300579 -34.212002 -0.287561 0.967166 -20.033176 0.964536 1.212838 0.000000 -0.000000 0.000000 -3.440387 0.788233 0.501655 -15.928172 -3.167306 2.999703 -6.338817 -0.000000 0.000001 -18.123419 3.648181 -4.905662 -0.000004 0.000000 -0.000002 20.262424 6.500017 12.162145 52.452038 5.751812 20.650812 -178.091583 74.513779 -177.653229 -33.184765 8.278114 -4.265537 2.243540 -5.255033 -3.180156 14.282877 -0.826594 6.952496 -0.000000 -12.690593 -0.000001 15.146334 -17.813713 2.905780 1.665665 -1.955920 -2.878297 4.727794 -4.170584 4.993919 11.020511 0.000001 -0.000000 12.109032 -3.735715 -2.866778 0.000000 -0.000000 0.000000 1.291985 -1.928548 -1.498088 14.800115 0.567467 3.865604 14.242553 -1.341738 -6.660648 19.631935 0.143921 -0.648243 49.912666 -0.503094 -6.260750 0.353029 -1.511150 -0.031940 20.222769 3.684305 2.316629 18.787249 0.000001 -0.000001 10.751608 -0.479870 1.397903 0.000000 -0.000000 0.000000 3.273804 0.305947 -0.580110 21.486790 11.830364 2.266131 8.162915 0.000000 -0.000000 18.399052 -3.798986 -4.940567 0.000003 0.000000 -0.000001 5.812557 33.725983 3.571704 -0.023688 -0.596062 35.254776 -17.687002 15.523762 2.585563 1.845391 -1.902462 -14.519191 0.000000 -0.000000 0.000002 -6.201277 7.035227 -22.206150 0.079352 0.289561 18.269913 14.595168 17.699402 7.448946 -1.354638 0.948900 -2.126538 0.000000 -0.000000 -0.000001
0.000000 0.000000 0.000000 0.000000 -0.000000 0.000000 1.257608 0.281069 1.716003 1.761072 -0.468760 -0.793152 0.100745 -0.573645 -7.011840 -0.600687 -1.661610 -7.126394 -1.113866 -4.339728 15.098599 2.745434 1.360489 5.533206 -1.056861 -1.701532 -3.753472 0.205857 -3.642556 -1.209238 0.000077 -0.000022 0.000006 -0.005626 0.026284 -0.019577 0.693146 -3.688001 -10.620695 -0.704297 3.760967 -10.617043 -20.110481 -9.959317 12.995215 -49.313583 -10.685713 29.800406 179.982361 -74.791779 -179.937225 15.355686 -7.799873 -2.669343 -5.882102 9.861279 0.702590 -10.936861 -0.360574 7.156197 0.000000 8.774815 -0.000000 -14.984965 17.355526 6.514471 -1.844031 2.498503 -2.507276 -10.163590 4.678941 4.621104 -20.975996 -0.000001 0.000001 -21.226254 2.451698 -3.593995 0.000000 -0.000006 -0.000000 -1.362681 2.240797 -0.746323 -21.334892 0.584910 3.008319 -13.821196 -0.000001 0.000001 -23.887129 -0.249075 -0.839485 -59.770603 2.383490 -1.101828 -0.294025 1.679686 0.833255 -14.218195 0.093215 1.300579 -34.212002 -0.287561 0.967166 -20.033176 0.964536 1.212838 0.000000 -0.000000 0.000000 -3.440387 0.788233 0.501655 -15.928172 -3.167306 2.999703 -6.338817 -0.000000 0.000001 -18.123419 3.648181 -4.905662 -0.000004 0.000000 -0.000002 20.227287 6.618437 12.231142 52.523495 5.919304 20.700964 -178.243576 74.566025 -177.779953 -33.284504 8.318194 -4.310885 2.243540 -5.255033 -3.180156 14.282877 -0.826594 6.952496 -0.000000 -12.690593 -0.000001 15.136116 -17.798464 2.885064 1.665665 -1.955920 -2.878297 4.727794 -4.170584 4.993919 11.020511 0.000001 -0.000000 12.109032 -3.735715 -2.866778 0.000000 -0.000000 0.000000 1.291985 -1.928548 -1.498088 14.800115 0.567467 3.865604 14.242553 -1.341738 -6.660648 19.631935 0.143921 -0.648243 49.840168 -0.491088 -6.236001 0.353029 -1.511150 -0.031940 20.222769 3.684305 2.316629 18.787249 0.000001 -0.000001 10.751608 -0.479870 1.397903 0.000000 -0.000000 0.000000 3.273804 0.305947 -0.580110 21.486790 11.830364 2.266131 8.162915 0.000000 -0.000000 18.399052 -3.798986 -4.940567 0.000003 0.000000 -0.000001 5.812557 33.725983 3.571704 -0.023688 -0.596062 35.254776 -17.687002 15.523762 2.585563 1.845391 -1.902462 -14.519191 0.000000 -0.000000 0.000002 -6.201277 7.035227 -22.206150 0.079352 0.289561 18.269913 14.595168 17.699402 7.448946 -1.354638 0.948900 -2.126538 0.000000 -0.000000 -0.000001
0.000000 0.000000 0.000000 0.000000 -0.000000 0.000000 1.257608 0.278811 1.716003 1.761072 -0.468760 -0.793152 0.143932 -0.549417 -7.024841 -0.585136 -1.640483 -7.132242 -1.088143 -4.281644 15.138399 2.636145 1.417295 5.576516 -1.031915 -1.651661 -3.761902 0.242300 -3.580603 -1.161565 0.000077 -0.000022 0.000006 -0.004824 0.031910 -0.021822 0.688876 -3.679127 -10.612211 -0.698402 3.763079 -10.607628 -20.209419 -9.862925 13.002531 -49.195297 -10.637869 29.774345 179.608002 -74.653130 -179.569138 15.453559 -7.742863 -2.674154 -5.882102 9.861279 0.702590 -10.936861 -0.360574 7.156197 0.000000 8.774815 -0.000000 -14.958979 17.379570 6.530781 -1.844031 2.498503 -2.507276 -10.163590 4.678941 4.621104 -20.975996 -0.000001 0.000001 -21.226254 2.451698 -3.593995 0.000000 -0.000006 -0.000000 -1.362681 2.240797 -0.746323 -21.334892 0.584910 3.008319 -13.821196 -0.000001 0.000001 -23.887129 -0.249075 -0.839485 -59.796902 2.386055 -1.092636 -0.294025 1.679686 0.833255 -14.218195 0.093215 1.300579 -34.212002 -0.287561 0.967166 -20.033176 0.964536 1.212838 0.000000 -0.000000 0.000000 -3.440387 0.788233 0.501655 -15.928172 -3.167306 2.999703 -6.338817 -0.000000 0.000001 -18.123419 3.648181 -4.905662 -0.000004 0.000000 -0.000002 20.205765 6.712588 12.279066 52.602203 6.062711 20.750139 -178.490753 74.617104 -178.007416 -33.383854 8.324780 -4.295618 2.243540 -5.255033 -3.180156 14.282877 -0.826594 6.952496 -0.000000 -12.690593 -0.000001 15.143648 -17.808132 2.874828 1.665665 -1.955920 -2.878297 4.727794 -4.170584 4.993919 11.020511 0.000001 -0.000000 12.109032 -3.735715 -2.866778 0.000000 -0.000000 0.000000 1.291985 -1.928548 -1.498088 14.800115 0.567467 3.865604 14.242553 -1.341738 -6.660648 19.631935 0.143921 -0.648243 49.802879 -0.478768 -6.221706 0.353029 -1.511150 -0.031940 20.222769 3.684305 2.316629 18.787249 0.000001 -0.000001 10.751608 -0.479870 1.397903 0.000000 -0.000000 0.000000 3.273804 0.305947 -0.580110 21.486790 11.830364 2.266131 8.162915 0.000000 -0.000000 18.399052 -3.798986 -4.940567 0.000003 0.000000 -0.000001 5.812557 33.725983 3.571704 -0.023688 -0.596062 35.254776 -17.687002 15.523762 2.585563 1.845391 -1.902462 -14.519191 0.000000 -0.000000 0.000002 -6.201277 7.035227 -22.206150 0.079352 0.289561 18.269913 14.595168 17.699402 7.448946 -1.354638 0.948900 -2.126538 0.000000 -0.000000 -0.000001
0.000000 0.000000 0.000000 0.000000 -0.000000 0.000000 1.257608 0.281695 1.716003 1.761072 -0.468760 -0.793152 0.180730 -0.531577 -7.046321 -0.579736 -1.622381 -7.142333 -1.064266 -4.235667 15.188233 2.570796 1.456495 5.611049 -1.011041 -1.621409 -3.771371 0.264578 -3.508298 -1.119295 0.000077 -0.000022 0.000006 -0.003726 0.038204 -0.022563 0.685217 -3.670167 -10.608990 -0.692479 3.766586 -10.603262 -20.268433 -9.785650 13.002677 -49.110786 -10.575164 29.761412 179.238953 -74.576706 -179.219803 15.535320 -7.691806 -2.578818 -5.882102 9.861279 0.702590 -10.936861 -0.360574 7.156197 0.000000 8.774815 -0.000000 -14.943735 17.406187 6.556236 -1.844031 2.498503 -2.507276 -10.163590 4.678941 4.621104 -20.975996 -0.000001 0.000001 -21.226254 2.451698 -3.593995 0.000000 -0.000006 -0.000000 -1.362681 2.240797 -0.746323 -21.334892 0.584910 3.008319 -13.821196 -0.000001 0.000001 -23.887129 -0.249075 -0.839485 -59.840389 2.402694 -1.090295 -0.294025 1.679686 0.833255 -14.218195 0.093215 1.300579 -34.212002 -0.287561 0.967166 -20.033176 0.964536 1.212838 0.000000 -0.000000 0.000000 -3.440387 0.788233 0.501655 -15.928172 -3.167306 2.999703 -6.338817 -0.000000 0.000001 -18.123419 3.648181 -4.905662 -0.000004 0.000000 -0.000002 20.177332 6.778298 12.310678 52.690548 6.185621 20.761494 -178.931442 74.675674 -178.447876 -33.464069 8.330389 -4.184685 2.243540 -5.255033 -3.180156 14.282877 -0.826594 6.952496 -0.000000 -12.690593 -0.000001 15.136951 -17.827438 2.877843 1.665665 -1.955920 -2.878297 4.727794 -4.170584 4.993919 11.020511 0.000001 -0.000000 12.109032 -3.735715 -2.866778 0.000000 -0.000000 0.000000 1.291985 -1.928548 -1.498088 14.800115 0.567467 3.865604 14.242553 -1.341738 -6.660648 19.631935 0.143921 -0.648243 49.773247 -0.472551 -6.219355 0.353029 -1.511150 -0.031940 20.222769 3.684305 2.316629 18.787249 0.000001 -0.000001 10.751608 -0.479870 1.397903 0.000000 -0.000000 0.000000 3.273804 0.305947 -0.580110 21.486790 11.830364 2.266131 8.162915 0.000000 -0.000000 18.399052 -3.798986 -4.940567 0.000003 0.000000 -0.000001 5.812557 33.725983 3.571704 -0.023688 -0.596062 35.254776 -17.687002 15.523762 2.585563 1.845391 -1.902462 -14.519191 0.000000 -0.000000 0.000002 -6.201277 7.035227 -22.206150 0.079352 0.289561 18.269913 14.595168 17.699402 7.448946 -1.354638 0.948900 -2.126538 0.000000 -0.000000 -0.000001
0.000000 0.000000 0.000000 0.000000 -0.000000 0.000000 1.257608 0.288111 1.716003 1.761072 -0.468760 -0.793152 0.215291 -0.522491 -7.067846 -0.579495 -1.602469 -7.153157 -1.040257 -4.196343 15.237070 2.537123 1.463615 5.654282 -1.003553 -1.594801 -3.772514 0.285315 -3.467441 -1.079454 0.000077 -0.000022 0.000006 -0.003112 0.052794 -0.021440 0.682682 -3.655265 -10.609413 -0.688799 3.780848 -10.605219 -20.302589 -9.729124 13.016070 -49.057056 -10.519587 29.714157 178.988693 -74.557930 -178.991760 15.567675 -7.669719 -2.419616 -5.882102 9.861279 0.702590 -10.936861 -0.360574 7.156197 0.000000 8.774815 -0.000000 -14.921490 17.406042 6.576755 -1.844031 2.498503 -2.507276 -10.163590 4.678941 4.621104 -20.975996 -0.000001 0.000001 -21.226254 2.451698 -3.593995 0.000000 -0.000006 -0.000000 -1.362681 2.240797 -0.746323 -21.334892 0.584910 3.008319 -13.821196 -0.000001 0.000001 -23.887129 -0.249075 -0.839485 -59.855709 2.421485 -1.079676 -0.294025 1.679686 0.833255 -14.218195 0.093215 1.300579 -34.212002 -0.287561 0.967166 -20.033176 0.964536 1.212838 0.000000 -0.000000 0.000000 -3.440387 0.788233 0.501655 -15.928172 -3.167306 2.999703 -6.338817 -0.000000 0.000001 -18.123419 3.648181 -4.905662 -0.000004 0.000000 -0.000002 20.150328 6.821015 12.357210 52.761604 6.294577 20.789070 -179.162003 74.737793 -178.698730 -33.481712 8.357285 -3.971158 2.243540 -5.255033 -3.180156 14.282877 -0.826594 6.952496 -0.000000 -12.690593 -0.000001 15.121013 -17.843502 2.887095 1.665665 -1.955920 -2.878297 4.727794 -4.170584 4.993919 11.020511 0.000001 -0.000000 12.109032 -3.735715 -2.866778 0.000000 -0.000000 0.000000 1.291985 -1.928548 -1.498088 14.800115 0.567467 3.865604 14.242553 -1.341738 -6.660648 19.631935 0.143921 -0.648243 49.747917 -0.461342 -6.231746 0.353029 -1.511150 -0.031940 20.222769 3.684305 2.316629 18.787249 0.000001 -0.000001 10.751608 -0.479870 1.397903 0.000000 -0.000000 0.000000 3.273804 0.305947 -0.580110 21.486790 11.830364 2.266131 8.162915 0.000000 -0.000000 18.399052 -3.798986 -4.940567 0.000003 0.000000 -0.000001 5.812557 33.725983 3.571704 -0.023688 -0.596062 35.254776 -17.687002 15.523762 2.585563 1.845391 -1.902462 -14.519191 0.000000 -0.000000 0.000002 -6.201277 7.035227 -22.206150 0.079352 0.289561 18.269913 14.595168 17.699402 7.448946 -1.354638 0.948900 -2.126538 0.000000 -0.000000 -0.000001
0.000000 0.000000 0.000000 0.000000 -0.000000 0.000000 1.257608 0.290385 1.716003 1.761072 -0.468760 -0.793152 0.244638 -0.526935 -7.097946 -0.581103 -1.575132 -7.165400 -1.025558 -4.179725 15.285913 2.526652 1.458534 5.715666 -1.008167 -1.579691 -3.763214 0.294457 -3.475439 -1.060186 0.000077 -0.000022 0.000006 -0.002742 0.065491 -0.018833 0.679180 -3.643350 -10.609941 -0.684685 3.794320 -10.607009 -20.320461 -9.685331 13.038358 -49.022442 -10.487094 29.638227 178.961288 -74.568390 -178.965469 15.573779 -7.642820 -2.230239 -5.882102 9.861279 0.702590 -10.936861 -0.360574 7.156197 0.000000 8.774815 -0.000000 -14.896590 17.394030 6.595047 -1.844031 2.498503 -2.507276 -10.163590 4.678941 4.621104 -20.975996 -0.000001 0.000001 -21.226254 2.451698 -3.593995 0.000000 -0.000006 -0.000000 -1.362681 2.240797 -0.746323 -21.334892 0.584910 3.008319 -13.821196 -0.000001 0.000001 -23.887129 -0.249075 -0.839485 -59.862720 2.436389 -1.066124 -0.294025 1.679686 0.833255 -14.218195 0.093215 1.300579 -34.212002 -0.287561 0.967166 -20.033176 0.964536 1.212838 0.000000 -0.000000 0.000000 -3.440387 0.788233 0.501655 -15.928172 -3.167306 2.999703 -6.338817 -0.000000 0.000001 -18.123419 3.648181 -4.905662 -0.000004 0.000000 -0.000002 20.127039 6.842474 12.421868 52.808125 6.397018 20.833313 -179.074890 74.795830 -178.630081 -33.459835 8.395701 -3.743210 2.243540 -5.255033 -3.180156 14.282877 -0.826594 6.952496 -0.000000 -12.690593 -0.000001 15.120579 -17.859894 2.895930 1.665665 -1.955920 -2.878297 4.727794 -4.170584 4.993919 11.020511 0.000001 -0.000000 12.109032 -3.735715 -2.866778 0.000000 -0.000000 0.000000 1.291985 -1.928548 -1.498088 14.800115 0.567467 3.865604 14.242553 -1.341738 -6.660648 19.631935 0.143921 -0.648243 49.743500 -0.451478 -6.254280 0.353029 -1.511150 -0.031940 20.222769 3.684305 2.316629 18.787249 0.000001 -0.000001 10.751608 -0.479870 1.397903 0.000000 -0.000000 0.000000 3.273804 0.305947 -0.580110 21.486790 11.830364 2.266131 8.162915 0.000000 -0.000000 18.399052 -3.798986 -4.940567 0.000003 0.000000 -0.000001 5.812557 33.725983 3.571704 -0.023688 -0.596062 35.254776 -17.687002 15.523762 2.585563 1.845391 -1.902462 -14.519191 0.000000 -0.000000 0.000002 -6.201277 7.035227 -22.206150 0.079352 0.289561 18.269913 14.595168 17.699402 7.448946 -1.354638 0.948900 -2.126538 0.000000 -0.000000 -0.000001
0.000000 0.000000 0.000000 0.000000 -0.000000 0.000000 1.257608 0.293581 1.716003 1.761072 -0.468760 -0.793152 0.258419 -0.547752 -7.127483 -0.586310 -1.558432 -7.175778 -1.022951 -4.180478 15.319826 2.537924 1.440256 5.791678 -1.021485 -1.584033 -3.749558 0.308488 -3.517159 -1.048060 0.000077 -0.000022 0.000006 -0.002736 0.080231 -0.017648 0.678166 -3.629797 -10.613605 -0.683801 3.810400 -10.609969 -20.310120 -9.654926 13.086980 -49.006405 -10.493701 29.548304 179.085999 -74.564804 -179.070221 15.579194 -7.612253 -2.067009 -5.882102 9.861279 0.702590 -10.936861 -0.360574 7.156197 0.000000 8.774815 -0.000000 -14.876670 17.390921 6.617562 -1.844031 2.498503 -2.507276 -10.163590 4.678941 4.621104 -20.975996 -0.000001 0.000001 -21.226254 2.451698 -3.593995 0.000000 -0.000006 -0.000000 -1.362681 2.240797 -0.746323 -21.334892 0.584910 3.008319 -13.821196 -0.000001 0.000001 -23.887129 -0.249075 -0.839485 -59.865318 2.456933 -1.047452 -0.294025 1.679686 0.833255 -14.218195 0.093215 1.300579 -34.212002 -0.287561 0.967166 -20.033176 0.964536 1.212838 0.000000 -0.000000 0.000000 -3.440387 0.788233 0.501655 -15.928172 -3.167306 2.999703 -6.338817 -0.000000 0.000001 -18.123419 3.648181 -4.905662 -0.000004 0.000000 -0.000002 20.094679 6.834197 12.468971 52.854774 6.481280 20.874428 -178.796738 74.851517 -178.361374 -33.435452 8.433494 -3.506001 2.243540 -5.255033 -3.180156 14.282877 -0.826594 6.952496 -0.000000 -12.690593 -0.000001 15.136234 -17.865028 2.901335 1.665665 -1.955920 -2.878297 4.727794 -4.170584 4.993919 11.020511 0.000001 -0.000000 12.109032 -3.735715 -2.866778 0.000000 -0.000000 0.000000 1.291985 -1.928548 -1.498088 14.800115 0.567467 3.865604 14.242553 -1.341738 -6.660648 19.631935 0.143921 -0.648243 49.749092 -0.458119 -6.274727 0.353029 -1.511150 -0.031940 20.222769 3.684305 2.316629 18.787249 0.000001 -0.000001 10.751608 -0.479870 1.397903 0.000000 -0.000000 0.000000 3.273804 0.305947 -0.580110 21.486790 11.830364 2.266131 8.162915 0.000000 -0.000000 18.399052 -3.798986 -4.940567 0.000003 0.000000 -0.000001 5.812557 33.725983 3.571704 -0.023688 -0.596062 35.254776 -17.687002 15.523762 2.585563 1.845391 -1.902462 -14.519191 0.000000 -0.000000 0.000002 -6.201277 7.035227 -22.206150 0.079352 0.289561 18.269913 14.595168 17.699402 7.448946 -1.354638 0.948900 -2.126538 0.000000 -0.000000 -0.000001
0.000000 0.000000 0.000000 0.000000 0.000000 0.000000 1.257608 0.293994 1.716003 1.761072 -0.468760 -0.793152 0.236662 -0.574031 -7.183303 -0.606032 -1.603302 -7.185152 -1.066355 -4.227341 15.337783 2.652484 1.375268 5.902274 -1.067788 -1.696628 -3.744340 0.291023 -3.642144 -1.027346 0.000077 -0.000022 0.000006 -0.003079 0.074483 -0.015938 0.682757 -3.636114 -10.621228 -0.689041 3.805354 -10.612022 -20.205620 -9.706684 13.176894 -49.062035 -10.562597 29.433065 179.328212 -74.508071 -179.250172 15.461539 -7.546063 -1.908340 -5.882102 9.861279 0.702590 -10.936861 -0.360574 7.156197 0.000000 8.774815 0.000000 -14.889045 17.405069 6.619392 -1.844031 2.498503 -2.507276 -10.163590 4.678941 4.621104 -20.975996 -0.000001 0.000001 -21.226254 2.451698 -3.593995 0.000000 -0.000006 0.000000 -1.362681 2.240797 -0.746323 -21.334892 0.584910 3.008319 -13.821196 -0.000001 0.000001 -23.887129 -0.249075 -0.839485 -59.897995 2.463088 -1.055902 -0.294025 1.679686 0.833255 -14.218195 0.093215 1.300579 -34.212002 -0.287561 0.967166 -20.033176 0.964536 1.212838 0.000000 0.000000 0.000000 -3.440387 0.788233 0.501655 -15.928172 -3.167306 2.999703 -6.338817 0.000000 0.000001 -18.123419 3.648181 -4.905662 -0.000004 0.000000 -0.000002 20.079343 6.723191 12.481994 52.809898 6.506558 20.867452 -178.315608 74.835566 -177.843422 -33.419441 8.523834 -3.225227 2.243540 -5.255033 -3.180156 14.282877 -0.826594 6.952496 0.000000 -12.690593 -0.000001 15.181828 -17.864775 2.901995 1.665665 -1.955920 -2.878297 4.727794 -4.170584 4.993919 11.020511 0.000001 -0.000000 12.109032 -3.735715 -2.866778 0.000000 0.000000 0.000000 1.291985 -1.928548 -1.498088 14.800115 0.567467 3.865604 14.242553 -1.341738 -6.660648 19.631935 0.143921 -0.648243 49.781227 -0.508209 -6.308082 0.353029 -1.511150 -0.031940 20.222769 3.684305 2.316629 18.787249 0.000001 -0.000001 10.751608 -0.479870 1.397903 0.000000 0.000000 0.000000 3.273804 0.305947 -0.580110 21.486790 11.830364 2.266131 8.162915 0.000000 0.000000 18.399052 -3.798986 -4.940567 0.000003 0.000000 -0.000001 5.812557 33.725983 3.571704 -0.023688 -0.596062 35.254776 -17.687002 15.523762 2.585563 1.845391 -1.902462 -14.519191 0.000000 0.000000 0.000002 -6.201277 7.035227 -22.206150 0.079352 0.289561 18.269913 14.595168 17.699402 7.448946 -1.354638 0.948900 -2.126538 0.000000 0.000000 -0.000001
0.000000 0.000000 0.000000 0.000000 0.000000 0.000000 1.257608 0.287267 1.716003 1.761072 -0.468760 -0.793152 0.220656 -0.584103 -7.209017 -0.606412 -1.637642 -7.190189 -1.111304 -4.260974 15.317172 2.727176 1.345230 6.015565 -1.115304 -1.835602 -3.741411 0.276988 -3.804401 -1.002960 0.000077 -0.000022 0.000006 -0.003732 0.056495 -0.015419 0.685871 -3.655281 -10.627712 -0.693399 3.788773 -10.616053 -20.096857 -9.767589 13.216740 -49.168072 -10.618165 29.353638 179.357593 -74.465145 -179.232213 15.270251 -7.595941 -1.964028 -5.882102 9.861279 0.702590 -10.936861 -0.360574 7.156197 0.000000 8.774815 0.000000 -14.923948 17.435817 6.587311 -1.844031 2.498503 -2.507276 -10.163590 4.678941 4.621104 -20.975996 -0.000001 0.000001 -21.226254 2.451698 -3.593995 0.000000 -0.000006 0.000000 -1.362681 2.240797 -0.746323 -21.334892 0.584910 3.008319 -13.821196 -0.000001 0.000001 -23.887129 -0.249075 -0.839485 -59.922522 2.450647 -1.096128 -0.294025 1.679686 0.833255 -14.218195 0.093215 1.300579 -34.212002 -0.287561 0.967166 -20.033176 0.964536 1.212838 0.000000 0.000000 0.000000 -3.440387 0.788233 0.501655 -15.928172 -3.167306 2.999703 -6.338817 0.000000 0.000001 -18.123419 3.648181 -4.905662 -0.000004 0.000000 -0.000002 20.055078 6.645067 12.494135 52.725420 6.532559 20.833473 -178.041608 74.811708 -177.526769 -33.497602 8.664197 -2.947894 2.243540 -5.255033 -3.180156 14.282877 -0.826594 6.952496 0.000000 -12.690593 -0.000001 15.245178 -17.834278 2.870761 1.665665 -1.955920 -2.878297 4.727794 -4.170584 4.993919 11.020511 0.000001 -0.000000 12.109032 -3.735715 -2.866778 0.000000 0.000000 0.000000 1.291985 -1.928548 -1.498088 14.800115 0.567467 3.865604 14.242553 -1.341738 -6.660648 19.631935 0.143921 -0.648243 49.797006 -0.551253 -6.307061 0.353029 -1.511150 -0.031940 20.222769 3.684305 2.316629 18.787249 0.000001 -0.000001 10.751608 -0.479870 1.397903 0.000000 0.000000 0.000000 3.273804 0.305947 -0.580110 21.486790 11.830364 2.266131 8.162915 0.000000 0.000000 18.399052 -3.798986 -4.940567 0.000003 0.000000 -0.000001 5.812557 33.725983 3.571704 -0.023688 -0.596062 35.254776 -17.687002 15.523762 2.585563 1.845391 -1.902462 -14.519191 0.000000 0.000000 0.000002 -6.201277 7.035227 -22.206150 0.079352 0.289561 18.269913 14.595168 17.699402 7.448946 -1.354638 0.948900 -2.126538 0.000000 0.000000 -0.000001
0.000000 0.000000 0.000000 0.000000 0.000000 0.000000 1.257608 0.279181 1.716003 1.761072 -0.468760 -0.793152 0.213876 -0.571709 -7.217994 -0.597944 -1.657658 -7.186628 -1.150706 -4.265598 15.280800 2.767505 1.329295 6.091228 -1.171456 -1.982849 -3.739454 0.270820 -3.956097 -0.970791 0.000077 -0.000022 0.000006 -0.003443 0.039844 -0.012385 0.688597 -3.672148 -10.624553 -0.695433 3.772560 -10.611674 -20.008937 -9.819805 13.206522 -49.244796 -10.643831 29.259940 179.455871 -74.394142 -179.279732 15.075951 -7.630781 -1.959083 -5.882102 9.861279 0.702590 -10.936861 -0.360574 7.156197 0.000000 8.774815 0.000000 -14.960233 17.434739 6.542718 -1.844031 2.498503 -2.507276 -10.163590 4.678941 4.621104 -20.975996 -0.000001 0.000001 -21.226254 2.451698 -3.593995 0.000000 -0.000006 0.000000 -1.362681 2.240797 -0.746323 -21.334892 0.584910 3.008319 -13.821196 -0.000001 0.000001 -23.887129 -0.249075 -0.839485 -59.937206 2.425164 -1.127652 -0.294025 1.679686 0.833255 -14.218195 0.093215 1.300579 -34.212002 -0.287561 0.967166 -20.033176 0.964536 1.212838 0.000000 0.000000 0.000000 -3.440387 0.788233 0.501655 -15.928172 -3.167306 2.999703 -6.338817 0.000000 0.000001 -18.123419 3.648181 -4.905662 -0.000004 0.000000 -0.000002 20.013557 6.607781 12.503599 52.650631 6.577454 20.784806 -178.014284 74.799369 -177.479776 -33.591251 8.773435 -2.662556 2.243540 -5.255033 -3.180156 14.282877 -0.826594 6.952496 0.000000 -12.690593 -0.000001 15.281982 -17.822076 2.843289 1.665665 -1.955920 -2.878297 4.727794 -4.170584 4.993919 11.020511 0.000001 -0.000000 12.109032 -3.735715 -2.866778 0.000000 0.000000 0.000000 1.291985 -1.928548 -1.498088 14.800115 0.567467 3.865604 14.242553 -1.341738 -6.660648 19.631935 0.143921 -0.648243 49.782514 -0.591203 -6.302296 0.353029 -1.511150 -0.031940 20.222769 3.684305 2.316629 18.787249 0.000001 -0.000001 10.751608 -0.479870 1.397903 0.000000 0.000000 0.000000 3.273804 0.305947 -0.580110 21.486790 11.830364 2.266131 8.162915 0.000000 0.000000 18.399052 -3.798986 -4.940567 0.000003 0.000000 -0.000001 5.812557 33.725983 3.571704 -0.023688 -0.596062 35.254776 -17.687002 15.523762 2.585563 1.845391 -1.902462 -14.519191 0.000000 0.000000 0.000002 -6.201277 7.035227 -22.206150 0.079352 0.289561 18.269913 14.595168 17.699402 7.448946 -1.354638 0.948900 -2.126538 0.000000 0.000000 -0.000001
0.000000 0.000000 0.000000 0.000000 0.000000 0.000000 1.257608 0.272624 1.716003 1.761072 -0.468760 -0.793152 0.229646 -0.548368 -7.210445 -0.584126 -1.644032 -7.180144 -1.172768 -4.258171 15.237807 2.743389 1.362735 6.124610 -1.228073 -2.108303 -3.732862 0.277593 -4.076430 -0.961569 0.000077 -0.000022 0.000006 -0.002052 0.024808 -0.007909 0.690888 -3.685200 -10.612761 -0.694782 3.755928 -10.601220 -19.957366 -9.824904 13.151509 -49.264570 -10.620210 29.122292 179.651191 -74.307981 -179.455870 14.938319 -7.659274 -1.824964 -5.882102 9.861279 0.702590 -10.936861 -0.360574 7.156197 0.000000 8.774815 0.000000 -14.978389 17.409008 6.515104 -1.844031 2.498503 -2.507276 -10.163590 4.678941 4.621104 -20.975996 -0.000001 0.000001 -21.226254 2.451698 -3.593995 0.000000 -0.000006 0.000000 -1.362681 2.240797 -0.746323 -21.334892 0.584910 3.008319 -13.821196 -0.000001 0.000001 -23.887129 -0.249075 -0.839485 -59.941170 2.416836 -1.150256 -0.294025 1.679686 0.833255 -14.218195 0.093215 1.300579 -34.212002 -0.287561 0.967166 -20.033176 0.964536 1.212838 0.000000 0.000000 0.000000 -3.440387 0.788233 0.501655 -15.928172 -3.167306 2.999703 -6.338817 0.000000 0.000001 -18.123419 3.648181 -4.905662 -0.000004 0.000000 -0.000002 19.964119 6.642421 12.523960 52.582656 6.666080 20.746045 -178.237695 74.816552 -177.700870 -33.675272 8.811128 -2.393541 2.243540 -5.255033 -3.180156 14.282877 -0.826594 6.952496 0.000000 -12.690593 -0.000001 15.290442 -17.826789 2.829345 1.665665 -1.955920 -2.878297 4.727794 -4.170584 4.993919 11.020511 0.000001 -0.000000 12.109032 -3.735715 -2.866778 0.000000 0.000000 0.000000 1.291985 -1.928548 -1.498088 14.800115 0.567467 3.865604 14.242553 -1.341738 -6.660648 19.631935 0.143921 -0.648243 49.726166 -0.609067 -6.290917 0.353029 -1.511150 -0.031940 20.222769 3.684305 2.316629 18.787249 0.000001 -0.000001 10.751608 -0.479870 1.397903 0.000000 0.000000 0.000000 3.273804 0.305947 -0.580110 21.486790 11.830364 2.266131 8.162915 0.000000 0.000000 18.399052 -3.798986 -4.940567 0.000003 0.000000 -0.000001 5.812557 33.725983 3.571704 -0.023688 -0.596062 35.254776 -17.687002 15.523762 2.585563 1.845391 -1.902462 -14.519191 0.000000 0.000000 0.000002 -6.201277 7.035227 -22.206150 0.079352 0.289561 18.269913 14.595168 17.699402 7.448946 -1.354638 0.948900 -2.126538 0.000000 0.000000 -0.000001
0.000000 0.000000 0.000000 0.000000 0.000000 0.000000 1.257608 0.267620 1.716003 1.761072 -0.468760 -0.793152 0.259014 -0.530553 -7.197399 -0.570638 -1.608163 -7.176481 -1.162936 -4.224607 15.206759 2.665764 1.437814 6.123009 -1.266646 -2.202501 -3.732227 0.287816 -4.158923 -0.971677 0.000077 -0.000022 0.000006 -0.001602 0.018173 -0.008031 0.688982 -3.689185 -10.604726 -0.691850 3.746804 -10.595863 -19.947193 -9.761808 13.093005 -49.238548 -10.571412 29.035281 179.588561 -74.202656 -179.411950 14.852812 -7.697232 -1.536791 -5.882102 9.861279 0.702590 -10.936861 -0.360574 7.156197 0.000000 8.774815 0.000000 -14.954332 17.375952 6.516974 -1.844031 2.498503 -2.507276 -10.163590 4.678941 4.621104 -20.975996 -0.000001 0.000001 -21.226254 2.451698 -3.593995 0.000000 -0.000006 0.000000 -1.362681 2.240797 -0.746323 -21.334892 0.584910 3.008319 -13.821196 -0.000001 0.000001 -23.887129 -0.249075 -0.839485 -59.942964 2.420200 -1.147206 -0.294025 1.679686 0.833255 -14.218195 0.093215 1.300579 -34.212002 -0.287561 0.967166 -20.033176 0.964536 1.212838 0.000000 0.000000 0.000000 -3.440387 0.788233 0.501655 -15.928172 -3.167306 2.999703 -6.338817 0.000000 0.000001 -18.123419 3.648181 -4.905662 -0.000004 0.000000 -0.000002 19.934654 6.733698 12.557342 52.530179 6.745674 20.711618 -178.642239 74.840677 -178.110932 -33.712434 8.776371 -2.092705 2.243540 -5.255033 -3.180156 14.282877 -0.826594 6.952496 0.000000 -12.690593 -0.000001 15.287321 -17.824806 2.824936 1.665665 -1.955920 -2.878297 4.727794 -4.170584 4.993919 11.020511 0.000001 -0.000000 12.109032 -3.735715 -2.866778 0.000000 0.000000 0.000000 1.291985 -1.928548 -1.498088 14.800115 0.567467 3.865604 14.242553 -1.341738 -6.660648 19.631935 0.143921 -0.648243 49.653420 -0.599850 -6.282285 0.353029 -1.511150 -0.031940 20.222769 3.684305 2.316629 18.787249 0.000001 -0.000001 10.751608 -0.479870 1.397903 0.000000 0.000000 0.000000 3.273804 0.305947 -0.580110 21.486790 11.830364 2.266131 8.162915 0.000000 0.000000 18.399052 -3.798986 -4.940567 0.000003 0.000000 -0.000001 5.812557 33.725983 3.571704 -0.023688 -0.596062 35.254776 -17.687002 15.523762 2.585563 1.845391 -1.902462 -14.519191 0.000000 0.000000 0.000002 -6.201277 7.035227 -22.206150 0.079352 0.289561 18.269913 14.595168 17.699402 7.448946 -1.354638 0.948900 -2.126538 0.000000 0.000000 -0.000001
