HIERARCHY
ROOT Root
{
  OFFSET 0.000000 0.000000 0.000000
  CHANNELS 6 Xposition Yposition Zposition Zrotation Yrotation Xrotation
  JOINT Hips
  {
    OFFSET 0.000000 100.000000 0.000000
    CHANNELS 6 Xposition Yposition Zposition Zrotation Yrotation Xrotation
    JOINT Spine1
    {
      OFFSET -0.013727 5.003763 -0.053727
      CHANNELS 3 Zrotation Yrotation Xrotation
      JOINT Spine2
      {
        OFFSET -0.000000 7.125301 -0.029825
        CHANNELS 3 Zrotation Yrotation Xrotation
        JOINT Chest
        {
          OFFSET -0.000001 7.550063 -0.815971
          CHANNELS 3 Zrotation Yrotation Xrotation
          JOINT Neck1
          {
            OFFSET -0.181677 26.311295 -0.553348
            CHANNELS 3 Zrotation Yrotation Xrotation
            JOINT Neck2
            {
              OFFSET -0.000003 7.709397 2.302585
              CHANNELS 3 Zrotation Yrotation Xrotation
              JOINT Head
              {
                OFFSET -0.000005 6.128916 1.953709
                CHANNELS 3 Zrotation Yrotation Xrotation
                JOINT HeadEnd
                {
                  OFFSET 0.003598 16.065403 -1.835379
                  CHANNELS 3 Zrotation Yrotation Xrotation
                }
                JOINT Jaw
                {
                  OFFSET 0.002637 0.475592 3.094941
                  CHANNELS 3 Zrotation Yrotation Xrotation
                }
                JOINT LeftEye
                {
                  OFFSET 3.206381 5.380205 7.586883
                  CHANNELS 3 Zrotation Yrotation Xrotation
                }
                JOINT RightEye
                {
                  OFFSET -3.222440 5.361869 7.558234
                  CHANNELS 3 Zrotation Yrotation Xrotation
                }
              }
            }
          }
          JOINT LeftShoulder
          {
            OFFSET 1.621652 23.237164 5.113413
            CHANNELS 3 Zrotation Yrotation Xrotation
            JOINT LeftArm
            {
              OFFSET 14.919846 0.000002 -5.502326
              CHANNELS 3 Zrotation Yrotation Xrotation
              JOINT LeftForeArm
              {
                OFFSET 28.739307 0.000000 -0.002588
                CHANNELS 3 Zrotation Yrotation Xrotation
                JOINT LeftHand
                {
                  OFFSET 27.093981 -0.000001 0.002609
                  CHANNELS 3 Zrotation Yrotation Xrotation
                  JOINT LeftHandThumb1
                  {
                    OFFSET 2.276482 -1.392045 3.191413
                    CHANNELS 3 Zrotation Yrotation Xrotation
                    JOINT LeftHandThumb2
                    {
                      OFFSET 4.012836 -1.828127 1.641654
                      CHANNELS 3 Zrotation Yrotation Xrotation
                      JOINT LeftHandThumb3
                      {
                        OFFSET 2.798515 0.000000 -0.000003
                        CHANNELS 3 Zrotation Yrotation Xrotation
                        JOINT LeftHandThumbEnd
                        {
                          OFFSET 3.180793 -0.000004 0.000004
                          CHANNELS 3 Zrotation Yrotation Xrotation
                        }
                      }
                    }
                  }
                  JOINT LeftHandIndex1
                  {
                    OFFSET 3.247555 -0.531998 2.296169
                    CHANNELS 3 Zrotation Yrotation Xrotation
                    JOINT LeftHandIndex2
                    {
                      OFFSET 6.364578 0.012060 0.178600
                      CHANNELS 3 Zrotation Yrotation Xrotation
                      JOINT LeftHandIndex3
                      {
                        OFFSET 3.662364 0.000000 0.000000
                        CHANNELS 3 Zrotation Yrotation Xrotation
                        JOINT LeftHandIndex4
                        {
                          OFFSET 2.329242 0.000004 0.000004
                          CHANNELS 3 Zrotation Yrotation Xrotation
                          JOINT LeftHandIndexEnd
                          {
                            OFFSET 2.759615 -0.180537 -0.113024
                            CHANNELS 3 Zrotation Yrotation Xrotation
                          }
                        }
                      }
                    }
                  }
                  JOINT LeftHandMiddle1
                  {
                    OFFSET 3.163495 0.240981 1.000332
                    CHANNELS 3 Zrotation Yrotation Xrotation
                    JOINT LeftHandMiddle2
                    {
                      OFFSET 6.190780 -0.259278 -1.002548
                      CHANNELS 3 Zrotation Yrotation Xrotation
                      JOINT LeftHandMiddle3
                      {
                        OFFSET 4.356520 -0.000004 -0.000001
                        CHANNELS 3 Zrotation Yrotation Xrotation
                        JOINT LeftHandMiddle4
                        {
                          OFFSET 2.996877 -0.000008 0.000000
                          CHANNELS 3 Zrotation Yrotation Xrotation
                          JOINT LeftHandMiddleEnd
                          {
                            OFFSET 2.304287 -0.294569 -0.031741
                            CHANNELS 3 Zrotation Yrotation Xrotation
                          }
                        }
                      }
                    }
                  }
                  JOINT LeftHandRing1
                  {
                    OFFSET 2.882643 -0.053652 -0.322543
                    CHANNELS 3 Zrotation Yrotation Xrotation
                    JOINT LeftHandRing2
                    {
                      OFFSET 5.854541 -0.486202 -1.373841
                      CHANNELS 3 Zrotation Yrotation Xrotation
                      JOINT LeftHandRing3
                      {
                        OFFSET 4.350578 0.000000 0.000003
                        CHANNELS 3 Zrotation Yrotation Xrotation
                        JOINT LeftHandRing4
                        {
                          OFFSET 2.651321 0.000007 0.000002
                          CHANNELS 3 Zrotation Yrotation Xrotation
                          JOINT LeftHandRingEnd
                          {
                            OFFSET 1.936105 0.077687 -0.000071
                            CHANNELS 3 Zrotation Yrotation Xrotation
                          }
                        }
                      }
                    }
                  }
                  JOINT LeftHandPinky1
                  {
                    OFFSET 2.865500 -0.310005 -1.600378
                    CHANNELS 3 Zrotation Yrotation Xrotation
                    JOINT LeftHandPinky2
                    {
                      OFFSET 5.087849 -1.331141 -1.771230
                      CHANNELS 3 Zrotation Yrotation Xrotation
                      JOINT LeftHandPinky3
                      {
                        OFFSET 3.070974 0.000004 0.000000
                        CHANNELS 3 Zrotation Yrotation Xrotation
                        JOINT LeftHandPinky4
                        {
                          OFFSET 1.549672 0.000000 0.000001
                          CHANNELS 3 Zrotation Yrotation Xrotation
                          JOINT LeftHandPinkyEnd
                          {
                            OFFSET 1.944893 -0.157802 0.057219
                            CHANNELS 3 Zrotation Yrotation Xrotation
                          }
                        }
                      }
                    }
                  }
                }
              }
            }
          }
          JOINT RightShoulder
          {
            OFFSET -1.380118 23.180309 5.214158
            CHANNELS 3 Zrotation Yrotation Xrotation
            JOINT RightArm
            {
              OFFSET -15.037196 0.000012 -5.545604
              CHANNELS 3 Zrotation Yrotation Xrotation
              JOINT RightForeArm
              {
                OFFSET -28.736639 0.000002 -0.002597
                CHANNELS 3 Zrotation Yrotation Xrotation
                JOINT RightHand
                {
                  OFFSET -27.133619 -0.000000 0.002613
                  CHANNELS 3 Zrotation Yrotation Xrotation
                  JOINT RightHandThumb1
                  {
                    OFFSET -2.274032 -1.383988 3.163127
                    CHANNELS 3 Zrotation Yrotation Xrotation
                    JOINT RightHandThumb2
                    {
                      OFFSET -4.011429 -1.827466 1.640914
                      CHANNELS 3 Zrotation Yrotation Xrotation
                      JOINT RightHandThumb3
                      {
                        OFFSET -2.794935 -0.000004 -0.000003
                        CHANNELS 3 Zrotation Yrotation Xrotation
                        JOINT RightHandThumbEnd
                        {
                          OFFSET -3.183852 0.000004 0.000001
                          CHANNELS 3 Zrotation Yrotation Xrotation
                        }
                      }
                    }
                  }
                  JOINT RightHandIndex1
                  {
                    OFFSET -3.253266 -0.520057 2.282866
                    CHANNELS 3 Zrotation Yrotation Xrotation
                    JOINT RightHandIndex2
                    {
                      OFFSET -6.341917 0.012471 0.178266
                      CHANNELS 3 Zrotation Yrotation Xrotation
                      JOINT RightHandIndex3
                      {
                        OFFSET -3.654871 -0.000008 -0.000000
                        CHANNELS 3 Zrotation Yrotation Xrotation
                        JOINT RightHandIndex4
                        {
                          OFFSET -2.327586 0.000000 0.000001
                          CHANNELS 3 Zrotation Yrotation Xrotation
                          JOINT RightHandIndexEnd
                          {
                            OFFSET -2.761790 -0.180656 -0.113078
                            CHANNELS 3 Zrotation Yrotation Xrotation
                          }
                        }
                      }
                    }
                  }
                  JOINT RightHandMiddle1
                  {
                    OFFSET -3.168106 0.246593 1.001030
                    CHANNELS 3 Zrotation Yrotation Xrotation
                    JOINT RightHandMiddle2
                    {
                      OFFSET -6.180828 -0.258836 -1.000895
                      CHANNELS 3 Zrotation Yrotation Xrotation
                      JOINT RightHandMiddle3
                      {
                        OFFSET -4.348901 0.000000 -0.000000
                        CHANNELS 3 Zrotation Yrotation Xrotation
                        JOINT RightHandMiddle4
                        {
                          OFFSET -3.000240 -0.000004 -0.000002
                          CHANNELS 3 Zrotation Yrotation Xrotation
                          JOINT RightHandMiddleEnd
                          {
                            OFFSET -2.302520 -0.294370 -0.031706
                            CHANNELS 3 Zrotation Yrotation Xrotation
                          }
                        }
                      }
                    }
                  }
                  JOINT RightHandRing1
                  {
                    OFFSET -2.885690 -0.067952 -0.308858
                    CHANNELS 3 Zrotation Yrotation Xrotation
                    JOINT RightHandRing2
                    {
                      OFFSET -5.854198 -0.486130 -1.373731
                      CHANNELS 3 Zrotation Yrotation Xrotation
                      JOINT RightHandRing3
                      {
                        OFFSET -4.338810 -0.000004 -0.000000
                        CHANNELS 3 Zrotation Yrotation Xrotation
                        JOINT RightHandRing4
                        {
                          OFFSET -2.654903 -0.000004 0.000004
                          CHANNELS 3 Zrotation Yrotation Xrotation
                          JOINT RightHandRingEnd
                          {
                            OFFSET -1.933568 0.077527 -0.000052
                            CHANNELS 3 Zrotation Yrotation Xrotation
                          }
                        }
                      }
                    }
                  }
                  JOINT RightHandPinky1
                  {
                    OFFSET -2.866425 -0.342796 -1.584145
                    CHANNELS 3 Zrotation Yrotation Xrotation
                    JOINT RightHandPinky2
                    {
                      OFFSET -5.091371 -1.332055 -1.772385
                      CHANNELS 3 Zrotation Yrotation Xrotation
                      JOINT RightHandPinky3
                      {
                        OFFSET -3.062664 -0.000004 0.000001
                        CHANNELS 3 Zrotation Yrotation Xrotation
                        JOINT RightHandPinky4
                        {
                          OFFSET -1.546529 0.000004 -0.000002
                          CHANNELS 3 Zrotation Yrotation Xrotation
                          JOINT RightHandPinkyEnd
                          {
                            OFFSET -1.945119 -0.157718 0.057211
                            CHANNELS 3 Zrotation Yrotation Xrotation
                          }
                        }
                      }
                    }
                  }
                }
              }
            }
          }
        }
      }
    }
    JOINT LeftLeg
    {
      OFFSET 10.043214 -8.434526 2.595655
      CHANNELS 3 Zrotation Yrotation Xrotation
      JOINT LeftShin
      {
        OFFSET -0.000001 -43.221752 -0.802913
        CHANNELS 3 Zrotation Yrotation Xrotation
        JOINT LeftFoot
        {
          OFFSET 0.000001 -42.155094 -3.481523
          CHANNELS 3 Zrotation Yrotation Xrotation
          JOINT LeftToeBase
          {
            OFFSET 0.000000 -5.059472 13.231529
            CHANNELS 3 Zrotation Yrotation Xrotation
            JOINT LeftToeEnd
            {
              OFFSET -0.009607 -1.647619 6.513017
              CHANNELS 3 Zrotation Yrotation Xrotation
            }
          }
        }
      }
    }
    JOINT RightLeg
    {
      OFFSET -10.047278 -8.295260 2.620317
      CHANNELS 3 Zrotation Yrotation Xrotation
      JOINT RightShin
      {
        OFFSET 0.000001 -43.362206 -0.805556
        CHANNELS 3 Zrotation Yrotation Xrotation
        JOINT RightFoot
        {
          OFFSET 0.000002 -42.117393 -3.478398
          CHANNELS 3 Zrotation Yrotation Xrotation
          JOINT RightToeBase
          {
            OFFSET -0.000000 -5.079609 13.284196
            CHANNELS 3 Zrotation Yrotation Xrotation
            JOINT RightToeEnd
            {
              OFFSET 0.009532 -1.634378 6.460591
              CHANNELS 3 Zrotation Yrotation Xrotation
            }
          }
        }
      }
    }
  }
}
MOTION
Frames: 35
Frame Time: 0.03333333
0.000000 0.000000 0.000000 0.000000 -0.000000 0.000000 3.628787 -1.455974 -0.562253 3.435620 -0.605982 -2.970959 0.923946 -0.589550 -5.224840 -0.452827 -0.877005 -6.935066 -1.955435 -3.878232 11.208540 4.924708 0.011046 4.848679 -4.062518 -11.897494 -3.105950 1.440639 -17.093046 -11.739698 0.000077 -0.000022 0.000006 0.003445 0.024993 0.067516 0.642955 -3.740711 -10.449020 -0.637059 3.798068 -10.463024 -9.425092 -8.863917 13.013308 -61.274475 -34.688099 22.137730 -0.381874 -21.817005 0.285752 3.037235 2.705284 -10.939469 -5.882102 9.861279 0.702590 -10.936861 -0.360574 7.156197 0.000000 8.774815 -0.000000 -15.746760 18.454576 6.610401 -1.844031 2.498503 -2.507276 -10.163590 4.678941 4.621104 -20.975996 -0.000001 0.000001 -21.226254 2.451698 -3.593995 0.000000 -0.000006 -0.000000 -1.362681 2.240797 -0.746323 -21.334892 0.584910 3.008319 -13.821196 -0.000001 0.000001 -23.887129 -0.249075 -0.839485 -60.685345 2.904317 -1.120413 -0.294025 1.679686 0.833255 -14.218195 0.093215 1.300579 -34.212002 -0.287561 0.967166 -20.033176 0.964536 1.212838 0.000000 -0.000000 0.000000 -3.440387 0.788233 0.501655 -15.928172 -3.167306 2.999703 -6.338817 -0.000000 0.000001 -18.123419 3.648181 -4.905662 -0.000004 0.000000 -0.000002 11.311841 6.451627 14.182357 55.243305 17.171499 -16.184126 0.252662 18.709435 0.039204 -13.250561 -5.874458 -12.355024 2.243540 -5.255033 -3.180156 14.282877 -0.826594 6.952496 -0.000000 -12.690593 -0.000001 16.098579 -17.520842 2.464353 1.665665 -1.955920 -2.878297 4.727794 -4.170584 4.993919 11.020511 0.000001 -0.000000 12.109032 -3.735715 -2.866778 0.000000 -0.000000 0.000000 1.291985 -1.928548 -1.498088 14.800115 0.567467 3.865604 14.242553 -1.341738 -6.660648 19.631935 0.143921 -0.648243 48.892544 -0.426434 -6.182127 0.353029 -1.511150 -0.031940 20.222769 3.684305 2.316629 18.787249 0.000001 -0.000001 10.751608 -0.479870 1.397903 0.000000 -0.000000 0.000000 3.273804 0.305947 -0.580110 21.486790 11.830364 2.266131 8.162915 0.000000 -0.000000 18.399052 -3.798986 -4.940567 0.000003 0.000000 -0.000001 -6.428422 -4.087231 -6.134227 0.055661 -1.129499 -11.608206 -31.736298 0.992253 14.366214 1.054061 -2.322686 -1.276073 0.000000 -0.000000 0.000002 -0.018667 -3.367571 -0.064486 -0.026169 -0.375620 18.514561 1.251795 -25.119818 -16.355671 -1.445397 1.066751 0.687285 0.000000 -0.000000 -0.000001
0.000000 0.000000 0.000000 0.000000 -0.000000 0.000000 3.628787 -1.464198 -0.562253 3.435620 -0.605982 -2.970959 0.946805 -0.568163 -5.231041 -0.435984 -0.800476 -6.944175 -1.896674 -3.799473 11.237310 4.822551 0.019209 5.033627 -4.018404 -11.766870 -3.112803 1.461775 -16.987526 -11.583557 0.000077 -0.000022 0.000006 0.004456 0.031944 0.068105 0.646956 -3.729389 -10.442964 -0.639100 3.800760 -10.461141 -9.550714 -8.651491 13.050558 -61.087341 -34.564030 21.858212 -0.447083 -22.006290 0.318283 3.119981 2.841680 -11.038506 -5.882102 9.861279 0.702590 -10.936861 -0.360574 7.156197 0.000000 8.774815 -0.000000 -15.772203 18.414238 6.600029 -1.844031 2.498503 -2.507276 -10.163590 4.678941 4.621104 -20.975996 -0.000001 0.000001 -21.226254 2.451698 -3.593995 0.000000 -0.000006 -0.000000 -1.362681 2.240797 -0.746323 -21.334892 0.584910 3.008319 -13.821196 -0.000001 0.000001 -23.887129 -0.249075 -0.839485 -60.679565 2.883365 -1.129231 -0.294025 1.679686 0.833255 -14.218195 0.093215 1.300579 -34.212002 -0.287561 0.967166 -20.033176 0.964536 1.212838 0.000000 -0.000000 0.000000 -3.440387 0.788233 0.501655 -15.928172 -3.167306 2.999703 -6.338817 -0.000000 0.000001 -18.123419 3.648181 -4.905662 -0.000004 0.000000 -0.000002 11.278834 6.612199 14.230862 55.236549 17.261333 -16.090672 0.277658 18.674835 0.038315 -13.179864 -5.804894 -12.485937 2.243540 -5.255033 -3.180156 14.282877 -0.826594 6.952496 -0.000000 -12.690593 -0.000001 16.070845 -17.484217 2.489556 1.665665 -1.955920 -2.878297 4.727794 -4.170584 4.993919 11.020511 0.000001 -0.000000 12.109032 -3.735715 -2.866778 0.000000 -0.000000 0.000000 1.291985 -1.928548 -1.498088 14.800115 0.567467 3.865604 14.242553 -1.341738 -6.660648 19.631935 0.143921 -0.648243 48.895870 -0.444434 -6.166004 0.353029 -1.511150 -0.031940 20.222769 3.684305 2.316629 18.787249 0.000001 -0.000001 10.751608 -0.479870 1.397903 0.000000 -0.000000 0.000000 3.273804 0.305947 -0.580110 21.486790 11.830364 2.266131 8.162915 0.000000 -0.000000 18.399052 -3.798986 -4.940567 0.000003 0.000000 -0.000001 -6.428422 -4.087231 -6.134227 0.055661 -1.129499 -11.608206 -31.736298 0.992253 14.366214 1.054061 -2.322686 -1.276073 0.000000 -0.000000 0.000002 -0.018667 -3.367571 -0.064486 -0.026169 -0.375620 18.514561 1.251795 -25.119818 -16.355671 -1.445397 1.066751 0.687285 0.000000 -0.000000 -0.000001
0.000000 0.000000 0.000000 0.000000 -0.000000 0.000000 3.628787 -1.468394 -0.562253 3.435620 -0.605982 -2.970959 0.950637 -0.554848 -5.229338 -0.420703 -0.762126 -6.946808 -1.866183 -3.748399 11.246952 4.782829 -0.002359 5.218401 -3.998613 -11.660736 -3.111796 1.479828 -16.947437 -11.465976 0.000077 -0.000022 0.000006 0.005472 0.038662 0.070782 0.649928 -3.719957 -10.435963 -0.640036 3.805199 -10.458827 -9.609799 -8.526379 13.101509 -60.976639 -34.464790 21.730488 -0.469915 -22.168936 0.332081 3.124503 2.976662 -11.095088 -5.882102 9.861279 0.702590 -10.936861 -0.360574 7.156197 0.000000 8.774815 -0.000000 -15.783613 18.376160 6.595641 -1.844031 2.498503 -2.507276 -10.163590 4.678941 4.621104 -20.975996 -0.000001 0.000001 -21.226254 2.451698 -3.593995 0.000000 -0.000006 -0.000000 -1.362681 2.240797 -0.746323 -21.334892 0.584910 3.008319 -13.821196 -0.000001 0.000001 -23.887129 -0.249075 -0.839485 -60.669048 2.854707 -1.133639 -0.294025 1.679686 0.833255 -14.218195 0.093215 1.300579 -34.212002 -0.287561 0.967166 -20.033176 0.964536 1.212838 0.000000 -0.000000 0.000000 -3.440387 0.788233 0.501655 -15.928172 -3.167306 2.999703 -6.338817 -0.000000 0.000001 -18.123419 3.648181 -4.905662 -0.000004 0.000000 -0.000002 11.250791 6.695116 14.257203 55.253090 17.287685 -15.901640 0.255831 18.705942 0.032944 -13.110932 -5.749991 -12.617056 2.243540 -5.255033 -3.180156 14.282877 -0.826594 6.952496 -0.000000 -12.690593 -0.000001 16.058949 -17.461866 2.488735 1.665665 -1.955920 -2.878297 4.727794 -4.170584 4.993919 11.020511 0.000001 -0.000000 12.109032 -3.735715 -2.866778 0.000000 -0.000000 0.000000 1.291985 -1.928548 -1.498088 14.800115 0.567467 3.865604 14.242553 -1.341738 -6.660648 19.631935 0.143921 -0.648243 48.908916 -0.464942 -6.177319 0.353029 -1.511150 -0.031940 20.222769 3.684305 2.316629 18.787249 0.000001 -0.000001 10.751608 -0.479870 1.397903 0.000000 -0.000000 0.000000 3.273804 0.305947 -0.580110 21.486790 11.830364 2.266131 8.162915 0.000000 -0.000000 18.399052 -3.798986 -4.940567 0.000003 0.000000 -0.000001 -6.428422 -4.087231 -6.134227 0.055661 -1.129499 -11.608206 -31.736298 0.992253 14.366214 1.054061 -2.322686 -1.276073 0.000000 -0.000000 0.000002 -0.018667 -3.367571 -0.064486 -0.026169 -0.375620 18.514561 1.251795 -25.119818 -16.355671 -1.445397 1.066751 0.687285 0.000000 -0.000000 -0.000001
0.000000 0.000000 0.000000 0.000000 -0.000000 0.000000 3.628787 -1.471828 -0.562253 3.435620 -0.605982 -2.970959 0.938548 -0.560622 -5.218692 -0.410297 -0.770969 -6.948534 -1.873622 -3.738192 11.237829 4.815903 -0.051821 5.400104 -4.004385 -11.638254 -3.103568 1.503464 -16.962502 -11.330503 0.000077 -0.000022 0.000006 0.007403 0.048214 0.073358 0.652955 -3.710042 -10.433194 -0.639199 3.814525 -10.458468 -9.602860 -8.506338 13.118640 -60.971561 -34.365437 21.807451 -0.442879 -22.298254 0.330202 3.061935 3.088282 -11.111812 -5.882102 9.861279 0.702590 -10.936861 -0.360574 7.156197 0.000000 8.774815 -0.000000 -15.782709 18.374451 6.588799 -1.844031 2.498503 -2.507276 -10.163590 4.678941 4.621104 -20.975996 -0.000001 0.000001 -21.226254 2.451698 -3.593995 0.000000 -0.000006 -0.000000 -1.362681 2.240797 -0.746323 -21.334892 0.584910 3.008319 -13.821196 -0.000001 0.000001 -23.887129 -0.249075 -0.839485 -60.652264 2.839933 -1.151958 -0.294025 1.679686 0.833255 -14.218195 0.093215 1.300579 -34.212002 -0.287561 0.967166 -20.033176 0.964536 1.212838 0.000000 -0.000000 0.000000 -3.440387 0.788233 0.501655 -15.928172 -3.167306 2.999703 -6.338817 -0.000000 0.000001 -18.123419 3.648181 -4.905662 -0.000004 0.000000 -0.000002 11.226251 6.683036 14.253042 55.303783 17.218510 -15.741650 0.217857 18.792841 0.027490 -13.039155 -5.696267 -12.610086 2.243540 -5.255033 -3.180156 14.282877 -0.826594 6.952496 -0.000000 -12.690593 -0.000001 16.069792 -17.466120 2.460442 1.665665 -1.955920 -2.878297 4.727794 -4.170584 4.993919 11.020511 0.000001 -0.000000 12.109032 -3.735715 -2.866778 0.000000 -0.000000 0.000000 1.291985 -1.928548 -1.498088 14.800115 0.567467 3.865604 14.242553 -1.341738 -6.660648 19.631935 0.143921 -0.648243 48.928864 -0.484486 -6.209222 0.353029 -1.511150 -0.031940 20.222769 3.684305 2.316629 18.787249 0.000001 -0.000001 10.751608 -0.479870 1.397903 0.000000 -0.000000 0.000000 3.273804 0.305947 -0.580110 21.486790 11.830364 2.266131 8.162915 0.000000 -0.000000 18.399052 -3.798986 -4.940567 0.000003 0.000000 -0.000001 -6.428422 -4.087231 -6.134227 0.055661 -1.129499 -11.608206 -31.736298 0.992253 14.366214 1.054061 -2.322686 -1.276073 0.000000 -0.000000 0.000002 -0.018667 -3.367571 -0.064486 -0.026169 -0.375620 18.514561 1.251795 -25.119818 -16.355671 -1.445397 1.066751 0.687285 0.000000 -0.000000 -0.000001
0.000000 0.000000 0.000000 0.000000 -0.000000 0.000000 3.628787 -1.474422 -0.562253 3.435620 -0.605982 -2.970959 0.916804 -0.579103 -5.206944 -0.407957 -0.812502 -6.954247 -1.906369 -3.764312 11.225633 4.920389 -0.116395 5.554125 -4.039128 -11.693469 -3.094012 1.518573 -17.033718 -11.191257 0.000077 -0.000022 0.000006 0.009103 0.055974 0.074018 0.653745 -3.704065 -10.432891 -0.636596 3.823704 -10.457920 -9.566339 -8.591896 13.132245 -61.047924 -34.299950 21.989239 -0.376494 -22.403370 0.313431 2.949176 3.161057 -11.092652 -5.882102 9.861279 0.702590 -10.936861 -0.360574 7.156197 0.000000 8.774815 -0.000000 -15.775082 18.375866 6.570256 -1.844031 2.498503 -2.507276 -10.163590 4.678941 4.621104 -20.975996 -0.000001 0.000001 -21.226254 2.451698 -3.593995 0.000000 -0.000006 -0.000000 -1.362681 2.240797 -0.746323 -21.334892 0.584910 3.008319 -13.821196 -0.000001 0.000001 -23.887129 -0.249075 -0.839485 -60.631229 2.835174 -1.165994 -0.294025 1.679686 0.833255 -14.218195 0.093215 1.300579 -34.212002 -0.287561 0.967166 -20.033176 0.964536 1.212838 0.000000 -0.000000 0.000000 -3.440387 0.788233 0.501655 -15.928172 -3.167306 2.999703 -6.338817 -0.000000 0.000001 -18.123419 3.648181 -4.905662 -0.000004 0.000000 -0.000002 11.215695 6.593109 14.234207 55.369598 17.049070 -15.704267 0.173993 18.908323 0.023761 -13.019329 -5.639571 -12.550401 2.243540 -5.255033 -3.180156 14.282877 -0.826594 6.952496 -0.000000 -12.690593 -0.000001 16.102571 -17.490234 2.424577 1.665665 -1.955920 -2.878297 4.727794 -4.170584 4.993919 11.020511 0.000001 -0.000000 12.109032 -3.735715 -2.866778 0.000000 -0.000000 0.000000 1.291985 -1.928548 -1.498088 14.800115 0.567467 3.865604 14.242553 -1.341738 -6.660648 19.631935 0.143921 -0.648243 48.951065 -0.500859 -6.242625 0.353029 -1.511150 -0.031940 20.222769 3.684305 2.316629 18.787249 0.000001 -0.000001 10.751608 -0.479870 1.397903 0.000000 -0.000000 0.000000 3.273804 0.305947 -0.580110 21.486790 11.830364 2.266131 8.162915 0.000000 -0.000000 18.399052 -3.798986 -4.940567 0.000003 0.000000 -0.000001 -6.428422 -4.087231 -6.134227 0.055661 -1.129499 -11.608206 -31.736298 0.992253 14.366214 1.054061 -2.322686 -1.276073 0.000000 -0.000000 0.000002 -0.018667 -3.367571 -0.064486 -0.026169 -0.375620 18.514561 1.251795 -25.119818 -16.355671 -1.445397 1.066751 0.687285 0.000000 -0.000000 -0.000001
0.000000 0.000000 0.000000 0.000000 -0.000000 0.000000 3.628787 -1.480578 -0.562253 3.435620 -0.605982 -2.970959 0.880560 -0.598131 -5.192694 -0.422201 -0.892960 -6.962748 -1.953524 -3.825508 11.213642 5.098757 -0.194686 5.659069 -4.091464 -11.833915 -3.093177 1.508636 -17.154518 -11.110080 0.000077 -0.000022 0.000006 0.010981 0.061536 0.073245 0.653314 -3.700029 -10.436107 -0.632387 3.830183 -10.459575 -9.514938 -8.765263 13.150070 -61.188942 -34.282200 22.156332 -0.299873 -22.420252 0.293264 2.804322 3.152929 -11.110868 -5.882102 9.861279 0.702590 -10.936861 -0.360574 7.156197 0.000000 8.774815 -0.000000 -15.742533 18.374426 6.559757 -1.844031 2.498503 -2.507276 -10.163590 4.678941 4.621104 -20.975996 -0.000001 0.000001 -21.226254 2.451698 -3.593995 0.000000 -0.000006 -0.000000 -1.362681 2.240797 -0.746323 -21.334892 0.584910 3.008319 -13.821196 -0.000001 0.000001 -23.887129 -0.249075 -0.839485 -60.574085 2.841206 -1.156780 -0.294025 1.679686 0.833255 -14.218195 0.093215 1.300579 -34.212002 -0.287561 0.967166 -20.033176 0.964536 1.212838 0.000000 -0.000000 0.000000 -3.440387 0.788233 0.501655 -15.928172 -3.167306 2.999703 -6.338817 -0.000000 0.000001 -18.123419 3.648181 -4.905662 -0.000004 0.000000 -0.000002 11.246299 6.432806 14.165585 55.423084 16.764965 -15.801136 0.146899 19.045176 0.030870 -13.071455 -5.584438 -12.534820 2.243540 -5.255033 -3.180156 14.282877 -0.826594 6.952496 -0.000000 -12.690593 -0.000001 16.149860 -17.526628 2.386592 1.665665 -1.955920 -2.878297 4.727794 -4.170584 4.993919 11.020511 0.000001 -0.000000 12.109032 -3.735715 -2.866778 0.000000 -0.000000 0.000000 1.291985 -1.928548 -1.498088 14.800115 0.567467 3.865604 14.242553 -1.341738 -6.660648 19.631935 0.143921 -0.648243 48.937656 -0.512799 -6.280212 0.353029 -1.511150 -0.031940 20.222769 3.684305 2.316629 18.787249 0.000001 -0.000001 10.751608 -0.479870 1.397903 0.000000 -0.000000 0.000000 3.273804 0.305947 -0.580110 21.486790 11.830364 2.266131 8.162915 0.000000 -0.000000 18.399052 -3.798986 -4.940567 0.000003 0.000000 -0.000001 -6.428422 -4.087231 -6.134227 0.055661 -1.129499 -11.608206 -31.736298 0.992253 14.366214 1.054061 -2.322686 -1.276073 0.000000 -0.000000 0.000002 -0.018667 -3.367571 -0.064486 -0.026169 -0.375620 18.514561 1.251795 -25.119818 -16.355671 -1.445397 1.066751 0.687285 0.000000 -0.000000 -0.000001
0.000000 0.000000 0.000000 0.000000 -0.000000 0.000000 3.628787 -1.495677 -0.562253 3.435620 -0.605982 -2.970959 0.849227 -0.616106 -5.183986 -0.444904 -0.976125 -6.970190 -2.000306 -3.906239 11.209962 5.314371 -0.271261 5.690746 -4.143930 -12.056138 -3.092765 1.500957 -17.278923 -11.061863 0.000077 -0.000022 0.000006 0.010317 0.056141 0.070798 0.650263 -3.706999 -10.445712 -0.630742 3.825346 -10.465613 -9.435736 -9.002898 13.134523 -61.396461 -34.286358 22.272917 -0.241613 -22.384821 0.279090 2.699083 3.079474 -11.206152 -5.882102 9.861279 0.702590 -10.936861 -0.360574 7.156197 0.000000 8.774815 -0.000000 -15.706039 18.380537 6.569142 -1.844031 2.498503 -2.507276 -10.163590 4.678941 4.621104 -20.975996 -0.000001 0.000001 -21.226254 2.451698 -3.593995 0.000000 -0.000006 -0.000000 -1.362681 2.240797 -0.746323 -21.334892 0.584910 3.008319 -13.821196 -0.000001 0.000001 -23.887129 -0.249075 -0.839485 -60.527382 2.853898 -1.127739 -0.294025 1.679686 0.833255 -14.218195 0.093215 1.300579 -34.212002 -0.287561 0.967166 -20.033176 0.964536 1.212838 0.000000 -0.000000 0.000000 -3.440387 0.788233 0.501655 -15.928172 -3.167306 2.999703 -6.338817 -0.000000 0.000001 -18.123419 3.648181 -4.905662 -0.000004 0.000000 -0.000002 11.288617 6.220346 14.047804 55.489948 16.429703 -15.984631 0.121025 19.166782 0.039361 -13.142442 -5.573838 -12.501106 2.243540 -5.255033 -3.180156 14.282877 -0.826594 6.952496 -0.000000 -12.690593 -0.000001 16.188543 -17.570927 2.358601 1.665665 -1.955920 -2.878297 4.727794 -4.170584 4.993919 11.020511 0.000001 -0.000000 12.109032 -3.735715 -2.866778 0.000000 -0.000000 0.000000 1.291985 -1.928548 -1.498088 14.800115 0.567467 3.865604 14.242553 -1.341738 -6.660648 19.631935 0.143921 -0.648243 48.919815 -0.519226 -6.299510 0.353029 -1.511150 -0.031940 20.222769 3.684305 2.316629 18.787249 0.000001 -0.000001 10.751608 -0.479870 1.397903 0.000000 -0.000000 0.000000 3.273804 0.305947 -0.580110 21.486790 11.830364 2.266131 8.162915 0.000000 -0.000000 18.399052 -3.798986 -4.940567 0.000003 0.000000 -0.000001 -6.428422 -4.087231 -6.134227 0.055661 -1.129499 -11.608206 -31.736298 0.992253 14.366214 1.054061 -2.322686 -1.276073 0.000000 -0.000000 0.000002 -0.018667 -3.367571 -0.064486 -0.026169 -0.375620 18.514561 1.251795 -25.119818 -16.355671 -1.445397 1.066751 0.687285 0.000000 -0.000000 -0.000001
0.000000 0.000000 0.000000 0.000000 -0.000000 0.000000 3.628787 -1.510226 -0.562253 3.435620 -0.605982 -2.970959 0.830356 -0.624708 -5.179107 -0.470741 -1.027929 -6.974479 -2.038526 -4.004625 11.224144 5.515242 -0.313546 5.658461 -4.197867 -12.289825 -3.085759 1.524274 -17.411100 -11.034475 0.000077 -0.000022 0.000006 0.007565 0.040553 0.070212 0.645630 -3.723169 -10.446186 -0.631755 3.810290 -10.465094 -9.351354 -9.245357 13.103415 -61.617752 -34.295017 22.296278 -0.204365 -22.346600 0.278273 2.624664 3.047957 -11.262735 -5.882102 9.861279 0.702590 -10.936861 -0.360574 7.156197 0.000000 8.774815 -0.000000 -15.690977 18.393366 6.588412 -1.844031 2.498503 -2.507276 -10.163590 4.678941 4.621104 -20.975996 -0.000001 0.000001 -21.226254 2.451698 -3.593995 0.000000 -0.000006 -0.000000 -1.362681 2.240797 -0.746323 -21.334892 0.584910 3.008319 -13.821196 -0.000001 0.000001 -23.887129 -0.249075 -0.839485 -60.531193 2.857766 -1.105410 -0.294025 1.679686 0.833255 -14.218195 0.093215 1.300579 -34.212002 -0.287561 0.967166 -20.033176 0.964536 1.212838 0.000000 -0.000000 0.000000 -3.440387 0.788233 0.501655 -15.928172 -3.167306 2.999703 -6.338817 -0.000000 0.000001 -18.123419 3.648181 -4.905662 -0.000004 0.000000 -0.000002 11.295158 6.023521 13.970170 55.573471 16.213255 -16.170849 0.074660 19.166584 0.039944 -13.194528 -5.588239 -12.543309 2.243540 -5.255033 -3.180156 14.282877 -0.826594 6.952496 -0.000000 -12.690593 -0.000001 16.187883 -17.619255 2.347245 1.665665 -1.955920 -2.878297 4.727794 -4.170584 4.993919 11.020511 0.000001 -0.000000 12.109032 -3.735715 -2.866778 0.000000 -0.000000 0.000000 1.291985 -1.928548 -1.498088 14.800115 0.567467 3.865604 14.242553 -1.341738 -6.660648 19.631935 0.143921 -0.648243 48.915836 -0.525024 -6.312747 0.353029 -1.511150 -0.031940 20.222769 3.684305 2.316629 18.787249 0.000001 -0.000001 10.751608 -0.479870 1.397903 0.000000 -0.000000 0.000000 3.273804 0.305947 -0.580110 21.486790 11.830364 2.266131 8.162915 0.000000 -0.000000 18.399052 -3.798986 -4.940567 0.000003 0.000000 -0.000001 -6.428422 -4.087231 -6.134227 0.055661 -1.129499 -11.608206 -31.736298 0.992253 14.366214 1.054061 -2.322686 -1.276073 0.000000 -0.000000 0.000002 -0.018667 -3.367571 -0.064486 -0.026169 -0.375620 18.514561 1.251795 -25.119818 -16.355671 -1.445397 1.066751 0.687285 0.000000 -0.000000 -0.000001
0.000000 0.000000 0.000000 0.000000 -0.000000 0.000000 3.628787 -1.518390 -0.562253 3.435620 -0.605982 -2.970959 0.816326 -0.614984 -5.158521 -0.486804 -1.034288 -6.973588 -2.036759 -4.052713 11.218701 5.692036 -0.353241 5.620845 -4.237573 -12.353685 -3.074432 1.499746 -17.612368 -11.060557 0.000077 -0.000022 0.000006 0.011408 0.055757 0.068552 0.644532 -3.708201 -10.427113 -0.623105 3.825387 -10.448773 -9.367723 -9.384323 13.230577 -61.746098 -34.381794 22.215330 -0.101301 -22.408264 0.236409 2.495708 3.077572 -11.243925 -5.882102 9.861279 0.702590 -10.936861 -0.360574 7.156197 0.000000 8.774815 -0.000000 -15.713291 18.383266 6.573242 -1.844031 2.498503 -2.507276 -10.163590 4.678941 4.621104 -20.975996 -0.000001 0.000001 -21.226254 2.451698 -3.593995 0.000000 -0.000006 -0.000000 -1.362681 2.240797 -0.746323 -21.334892 0.584910 3.008319 -13.821196 -0.000001 0.000001 -23.887129 -0.249075 -0.839485 -60.540230 2.866156 -1.121756 -0.294025 1.679686 0.833255 -14.218195 0.093215 1.300579 -34.212002 -0.287561 0.967166 -20.033176 0.964536 1.212838 0.000000 -0.000000 0.000000 -3.440387 0.788233 0.501655 -15.928172 -3.167306 2.999703 -6.338817 -0.000000 0.000001 -18.123419 3.648181 -4.905662 -0.000004 0.000000 -0.000002 11.341726 5.930782 14.020397 55.551453 16.125620 -16.327288 -0.046625 19.077702 0.019002 -13.292288 -5.665120 -12.451426 2.243540 -5.255033 -3.180156 14.282877 -0.826594 6.952496 -0.000000 -12.690593 -0.000001 16.168928 -17.656414 2.351981 1.665665 -1.955920 -2.878297 4.727794 -4.170584 4.993919 11.020511 0.000001 -0.000000 12.109032 -3.735715 -2.866778 0.000000 -0.000000 0.000000 1.291985 -1.928548 -1.498088 14.800115 0.567467 3.865604 14.242553 -1.341738 -6.660648 19.631935 0.143921 -0.648243 48.946327 -0.498969 -6.315919 0.353029 -1.511150 -0.031940 20.222769 3.684305 2.316629 18.787249 0.000001 -0.000001 10.751608 -0.479870 1.397903 0.000000 -0.000000 0.000000 3.273804 0.305947 -0.580110 21.486790 11.830364 2.266131 8.162915 0.000000 -0.000000 18.399052 -3.798986 -4.940567 0.000003 0.000000 -0.000001 -6.428422 -4.087231 -6.134227 0.055661 -1.129499 -11.608206 -31.736298 0.992253 14.366214 1.054061 -2.322686 -1.276073 0.000000 -0.000000 0.000002 -0.018667 -3.367571 -0.064486 -0.026169 -0.375620 18.514561 1.251795 -25.119818 -16.355671 -1.445397 1.066751 0.687285 0.000000 -0.000000 -0.000001
0.000000 0.000000 0.000000 0.000000 -0.000000 0.000000 3.628787 -1.532008 -0.562253 3.435620 -0.605982 -2.970959 0.832731 -0.599535 -5.229049 -0.506873 -1.095834 -6.975744 -2.142453 -4.130620 11.284725 5.903855 -0.419558 5.563226 -4.255813 -12.482981 -3.074781 1.512356 -17.620411 -11.091898 0.000077 -0.000022 0.000006 0.001214 0.005915 0.086892 0.631412 -3.759968 -10.414882 -0.630705 3.778825 -10.418813 -9.261282 -9.537024 13.187752 -61.858955 -34.437077 22.276203 -0.151686 -22.322803 0.277738 2.477285 2.953431 -11.255771 -5.882102 9.861279 0.702590 -10.936861 -0.360574 7.156197 0.000000 8.774815 -0.000000 -15.625444 18.512829 6.736152 -1.844031 2.498503 -2.507276 -10.163590 4.678941 4.621104 -20.975996 -0.000001 0.000001 -21.226254 2.451698 -3.593995 0.000000 -0.000006 -0.000000 -1.362681 2.240797 -0.746323 -21.334892 0.584910 3.008319 -13.821196 -0.000001 0.000001 -23.887129 -0.249075 -0.839485 -60.600616 2.930978 -1.141680 -0.294025 1.679686 0.833255 -14.218195 0.093215 1.300579 -34.212002 -0.287561 0.967166 -20.033176 0.964536 1.212838 0.000000 -0.000000 0.000000 -3.440387 0.788233 0.501655 -15.928172 -3.167306 2.999703 -6.338817 -0.000000 0.000001 -18.123419 3.648181 -4.905662 -0.000004 0.000000 -0.000002 11.213155 5.829947 13.851201 55.801029 15.996059 -16.768562 0.142659 18.848797 0.081976 -13.414397 -5.660769 -12.226691 2.243540 -5.255033 -3.180156 14.282877 -0.826594 6.952496 -0.000000 -12.690593 -0.000001 16.184717 -17.649405 2.330574 1.665665 -1.955920 -2.878297 4.727794 -4.170584 4.993919 11.020511 0.000001 -0.000000 12.109032 -3.735715 -2.866778 0.000000 -0.000000 0.000000 1.291985 -1.928548 -1.498088 14.800115 0.567467 3.865604 14.242553 -1.341738 -6.660648 19.631935 0.143921 -0.648243 48.783569 -0.482602 -6.269523 0.353029 -1.511150 -0.031940 20.222769 3.684305 2.316629 18.787249 0.000001 -0.000001 10.751608 -0.479870 1.397903 0.000000 -0.000000 0.000000 3.273804 0.305947 -0.580110 21.486790 11.830364 2.266131 8.162915 0.000000 -0.000000 18.399052 -3.798986 -4.940567 0.000003 0.000000 -0.000001 -6.428422 -4.087231 -6.134227 0.055661 -1.129499 -11.608206 -31.736298 0.992253 14.366214 1.054061 -2.322686 -1.276073 0.000000 -0.000000 0.000002 -0.018667 -3.367571 -0.064486 -0.026169 -0.375620 18.514561 1.251795 -25.119818 -16.355671 -1.445397 1.066751 0.687285 0.000000 -0.000000 -0.000001
0.000000 0.000000 0.000000 0.000000 -0.000000 0.000000 3.628787 -1.538486 -0.562253 3.435620 -0.605982 -2.970959 0.915990 -0.570645 -5.193179 -0.468954 -0.942549 -6.963533 -2.056489 -3.951755 11.298168 5.613124 -0.319187 5.646162 -4.243119 -12.433298 -3.063083 1.618086 -17.683262 -11.113366 0.000077 -0.000022 0.000006 -0.004641 -0.000489 0.073086 0.629856 -3.769320 -10.447713 -0.641255 3.777196 -10.468702 -9.464043 -9.242076 13.229763 -61.771629 -34.340469 21.952919 -0.197475 -22.587854 0.266999 2.594101 2.969536 -11.348064 -5.882102 9.861279 0.702590 -10.936861 -0.360574 7.156197 0.000000 8.774815 -0.000000 -15.720370 18.388649 6.695411 -1.844031 2.498503 -2.507276 -10.163590 4.678941 4.621104 -20.975996 -0.000001 0.000001 -21.226254 2.451698 -3.593995 0.000000 -0.000006 -0.000000 -1.362681 2.240797 -0.746323 -21.334892 0.584910 3.008319 -13.821196 -0.000001 0.000001 -23.887129 -0.249075 -0.839485 -60.654377 2.894388 -1.103699 -0.294025 1.679686 0.833255 -14.218195 0.093215 1.300579 -34.212002 -0.287561 0.967166 -20.033176 0.964536 1.212838 0.000000 -0.000000 0.000000 -3.440387 0.788233 0.501655 -15.928172 -3.167306 2.999703 -6.338817 -0.000000 0.000001 -18.123419 3.648181 -4.905662 -0.000004 0.000000 -0.000002 11.056795 6.117039 13.981336 55.754150 16.300137 -16.544678 0.073783 18.513353 0.070430 -13.430113 -5.761824 -12.275137 2.243540 -5.255033 -3.180156 14.282877 -0.826594 6.952496 -0.000000 -12.690593 -0.000001 16.156965 -17.663410 2.339782 1.665665 -1.955920 -2.878297 4.727794 -4.170584 4.993919 11.020511 0.000001 -0.000000 12.109032 -3.735715 -2.866778 0.000000 -0.000000 0.000000 1.291985 -1.928548 -1.498088 14.800115 0.567467 3.865604 14.242553 -1.341738 -6.660648 19.631935 0.143921 -0.648243 48.878021 -0.472349 -6.311416 0.353029 -1.511150 -0.031940 20.222769 3.684305 2.316629 18.787249 0.000001 -0.000001 10.751608 -0.479870 1.397903 0.000000 -0.000000 0.000000 3.273804 0.305947 -0.580110 21.486790 11.830364 2.266131 8.162915 0.000000 -0.000000 18.399052 -3.798986 -4.940567 0.000003 0.000000 -0.000001 -6.428422 -4.087231 -6.134227 0.055661 -1.129499 -11.608206 -31.736298 0.992253 14.366214 1.054061 -2.322686 -1.276073 0.000000 -0.000000 0.000002 -0.018667 -3.367571 -0.064486 -0.026169 -0.375620 18.514561 1.251795 -25.119818 -16.355671 -1.445397 1.066751 0.687285 0.000000 -0.000000 -0.000001
0.000000 0.000000 0.000000 0.000000 -0.000000 0.000000 3.628787 -1.547824 -0.562253 3.435620 -0.605982 -2.970959 0.980782 -0.525274 -5.210355 -0.440753 -0.847306 -6.955450 -2.041202 -3.830084 11.310966 5.371706 -0.266393 5.749118 -4.175090 -12.221622 -3.073300 1.612546 -17.595226 -11.120728 0.000077 -0.000022 0.000006 -0.004151 0.005426 0.067499 0.632504 -3.761688 -10.445587 -0.643079 3.781907 -10.467926 -9.610232 -8.917502 13.209849 -61.668938 -34.196762 21.882214 -0.219460 -22.791794 0.276817 2.654488 2.976495 -11.392564 -5.882102 9.861279 0.702590 -10.936861 -0.360574 7.156197 0.000000 8.774815 -0.000000 -15.732698 18.396275 6.702721 -1.844031 2.498503 -2.507276 -10.163590 4.678941 4.621104 -20.975996 -0.000001 0.000001 -21.226254 2.451698 -3.593995 0.000000 -0.000006 -0.000000 -1.362681 2.240797 -0.746323 -21.334892 0.584910 3.008319 -13.821196 -0.000001 0.000001 -23.887129 -0.249075 -0.839485 -60.724453 2.882511 -1.111042 -0.294025 1.679686 0.833255 -14.218195 0.093215 1.300579 -34.212002 -0.287561 0.967166 -20.033176 0.964536 1.212838 0.000000 -0.000000 0.000000 -3.440387 0.788233 0.501655 -15.928172 -3.167306 2.999703 -6.338817 -0.000000 0.000001 -18.123419 3.648181 -4.905662 -0.000004 0.000000 -0.000002 10.904011 6.335370 14.073460 55.763409 16.569817 -16.388199 0.122771 18.369942 0.080598 -13.384745 -5.739778 -12.251572 2.243540 -5.255033 -3.180156 14.282877 -0.826594 6.952496 -0.000000 -12.690593 -0.000001 16.150951 -17.645620 2.348829 1.665665 -1.955920 -2.878297 4.727794 -4.170584 4.993919 11.020511 0.000001 -0.000000 12.109032 -3.735715 -2.866778 0.000000 -0.000000 0.000000 1.291985 -1.928548 -1.498088 14.800115 0.567467 3.865604 14.242553 -1.341738 -6.660648 19.631935 0.143921 -0.648243 48.859127 -0.479540 -6.313039 0.353029 -1.511150 -0.031940 20.222769 3.684305 2.316629 18.787249 0.000001 -0.000001 10.751608 -0.479870 1.397903 0.000000 -0.000000 0.000000 3.273804 0.305947 -0.580110 21.486790 11.830364 2.266131 8.162915 0.000000 -0.000000 18.399052 -3.798986 -4.940567 0.000003 0.000000 -0.000001 -6.428422 -4.087231 -6.134227 0.055661 -1.129499 -11.608206 -31.736298 0.992253 14.366214 1.054061 -2.322686 -1.276073 0.000000 -0.000000 0.000002 -0.018667 -3.367571 -0.064486 -0.026169 -0.375620 18.514561 1.251795 -25.119818 -16.355671 -1.445397 1.066751 0.687285 0.000000 -0.000000 -0.000001
0.000000 0.000000 0.000000 0.000000 -0.000000 0.000000 3.628787 -1.554988 -0.562253 3.435620 -0.605982 -2.970959 1.046054 -0.488416 -5.215910 -0.406884 -0.767666 -6.949862 -2.037888 -3.713659 11.306490 5.094053 -0.200616 5.841237 -4.125898 -12.039600 -3.076111 1.597252 -17.489834 -11.083617 0.000077 -0.000022 0.000006 -0.002676 0.009732 0.065838 0.636911 -3.754534 -10.436999 -0.644649 3.783809 -10.464613 -9.772445 -8.598438 13.209828 -61.486614 -34.045044 21.717913 -0.298549 -22.980242 0.304146 2.721496 2.961095 -11.439045 -5.882102 9.861279 0.702590 -10.936861 -0.360574 7.156197 0.000000 8.774815 -0.000000 -15.740745 18.378090 6.685301 -1.844031 2.498503 -2.507276 -10.163590 4.678941 4.621104 -20.975996 -0.000001 0.000001 -21.226254 2.451698 -3.593995 0.000000 -0.000006 -0.000000 -1.362681 2.240797 -0.746323 -21.334892 0.584910 3.008319 -13.821196 -0.000001 0.000001 -23.887129 -0.249075 -0.839485 -60.744522 2.856390 -1.133465 -0.294025 1.679686 0.833255 -14.218195 0.093215 1.300579 -34.212002 -0.287561 0.967166 -20.033176 0.964536 1.212838 0.000000 -0.000000 0.000000 -3.440387 0.788233 0.501655 -15.928172 -3.167306 2.999703 -6.338817 -0.000000 0.000001 -18.123419 3.648181 -4.905662 -0.000004 0.000000 -0.000002 10.778674 6.519965 14.140526 55.741497 16.806644 -16.136599 0.179293 18.423635 0.096251 -13.296693 -5.700878 -12.191249 2.243540 -5.255033 -3.180156 14.282877 -0.826594 6.952496 -0.000000 -12.690593 -0.000001 16.147182 -17.620115 2.337913 1.665665 -1.955920 -2.878297 4.727794 -4.170584 4.993919 11.020511 0.000001 -0.000000 12.109032 -3.735715 -2.866778 0.000000 -0.000000 0.000000 1.291985 -1.928548 -1.498088 14.800115 0.567467 3.865604 14.242553 -1.341738 -6.660648 19.631935 0.143921 -0.648243 48.826340 -0.484115 -6.325135 0.353029 -1.511150 -0.031940 20.222769 3.684305 2.316629 18.787249 0.000001 -0.000001 10.751608 -0.479870 1.397903 0.000000 -0.000000 0.000000 3.273804 0.305947 -0.580110 21.486790 11.830364 2.266131 8.162915 0.000000 -0.000000 18.399052 -3.798986 -4.940567 0.000003 0.000000 -0.000001 -6.428422 -4.087231 -6.134227 0.055661 -1.129499 -11.608206 -31.736298 0.992253 14.366214 1.054061 -2.322686 -1.276073 0.000000 -0.000000 0.000002 -0.018667 -3.367571 -0.064486 -0.026169 -0.375620 18.514561 1.251795 -25.119818 -16.355671 -1.445397 1.066751 0.687285 0.000000 -0.000000 -0.000001
0.000000 0.000000 0.000000 0.000000 -0.000000 0.000000 3.628787 -1.556972 -0.562253 3.435620 -0.605982 -2.970959 1.108211 -0.464886 -5.223214 -0.374772 -0.695401 -6.945065 -2.040519 -3.618326 11.298406 4.813676 -0.108863 5.911484 -4.101551 -11.914113 -3.078928 1.582978 -17.401499 -11.029558 0.000077 -0.000022 0.000006 -0.000113 0.017994 0.064869 0.642855 -3.743264 -10.432305 -0.645563 3.789281 -10.465430 -9.923161 -8.320506 13.235110 -61.280983 -33.928738 21.518589 -0.374211 -23.132042 0.335473 2.719042 2.954041 -11.472440 -5.882102 9.861279 0.702590 -10.936861 -0.360574 7.156197 0.000000 8.774815 -0.000000 -15.757721 18.326366 6.636487 -1.844031 2.498503 -2.507276 -10.163590 4.678941 4.621104 -20.975996 -0.000001 0.000001 -21.226254 2.451698 -3.593995 0.000000 -0.000006 -0.000000 -1.362681 2.240797 -0.746323 -21.334892 0.584910 3.008319 -13.821196 -0.000001 0.000001 -23.887129 -0.249075 -0.839485 -60.749836 2.822639 -1.149910 -0.294025 1.679686 0.833255 -14.218195 0.093215 1.300579 -34.212002 -0.287561 0.967166 -20.033176 0.964536 1.212838 0.000000 -0.000000 0.000000 -3.440387 0.788233 0.501655 -15.928172 -3.167306 2.999703 -6.338817 -0.000000 0.000001 -18.123419 3.648181 -4.905662 -0.000004 0.000000 -0.000002 10.650556 6.664710 14.175418 55.723351 16.982683 -15.798069 0.205613 18.582487 0.094826 -13.210359 -5.667005 -12.187791 2.243540 -5.255033 -3.180156 14.282877 -0.826594 6.952496 -0.000000 -12.690593 -0.000001 16.141865 -17.605804 2.338014 1.665665 -1.955920 -2.878297 4.727794 -4.170584 4.993919 11.020511 0.000001 -0.000000 12.109032 -3.735715 -2.866778 0.000000 -0.000000 0.000000 1.291985 -1.928548 -1.498088 14.800115 0.567467 3.865604 14.242553 -1.341738 -6.660648 19.631935 0.143921 -0.648243 48.829441 -0.496988 -6.334750 0.353029 -1.511150 -0.031940 20.222769 3.684305 2.316629 18.787249 0.000001 -0.000001 10.751608 -0.479870 1.397903 0.000000 -0.000000 0.000000 3.273804 0.305947 -0.580110 21.486790 11.830364 2.266131 8.162915 0.000000 -0.000000 18.399052 -3.798986 -4.940567 0.000003 0.000000 -0.000001 -6.428422 -4.087231 -6.134227 0.055661 -1.129499 -11.608206 -31.736298 0.992253 14.366214 1.054061 -2.322686 -1.276073 0.000000 -0.000000 0.000002 -0.018667 -3.367571 -0.064486 -0.026169 -0.375620 18.514561 1.251795 -25.119818 -16.355671 -1.445397 1.066751 0.687285 0.000000 -0.000000 -0.000001
0.000000 0.000000 0.000000 0.000000 -0.000000 0.000000 3.628787 -1.560725 -0.562253 3.435620 -0.605982 -2.970959 1.156198 -0.456630 -5.237095 -0.352063 -0.655253 -6.943588 -2.057777 -3.551895 11.295467 4.569147 -0.022464 5.937517 -4.099747 -11.830319 -3.079664 1.571475 -17.360914 -10.967546 0.000077 -0.000022 0.000006 0.003855 0.032602 0.063081 0.650520 -3.726021 -10.431312 -0.645318 3.801151 -10.469743 -10.052549 -8.135226 13.293200 -61.084049 -33.871010 21.358212 -0.411976 -23.201954 0.353451 2.643775 2.957628 -11.527309 -5.882102 9.861279 0.702590 -10.936861 -0.360574 7.156197 0.000000 8.774815 -0.000000 -15.761008 18.274147 6.587901 -1.844031 2.498503 -2.507276 -10.163590 4.678941 4.621104 -20.975996 -0.000001 0.000001 -21.226254 2.451698 -3.593995 0.000000 -0.000006 -0.000000 -1.362681 2.240797 -0.746323 -21.334892 0.584910 3.008319 -13.821196 -0.000001 0.000001 -23.887129 -0.249075 -0.839485 -60.739841 2.812103 -1.166399 -0.294025 1.679686 0.833255 -14.218195 0.093215 1.300579 -34.212002 -0.287561 0.967166 -20.033176 0.964536 1.212838 0.000000 -0.000000 0.000000 -3.440387 0.788233 0.501655 -15.928172 -3.167306 2.999703 -6.338817 -0.000000 0.000001 -18.123419 3.648181 -4.905662 -0.000004 0.000000 -0.000002 10.554757 6.750543 14.192476 55.675972 17.081625 -15.423162 0.202373 18.789583 0.086783 -13.133740 -5.651688 -12.213639 2.243540 -5.255033 -3.180156 14.282877 -0.826594 6.952496 -0.000000 -12.690593 -0.000001 16.152878 -17.602852 2.337405 1.665665 -1.955920 -2.878297 4.727794 -4.170584 4.993919 11.020511 0.000001 -0.000000 12.109032 -3.735715 -2.866778 0.000000 -0.000000 0.000000 1.291985 -1.928548 -1.498088 14.800115 0.567467 3.865604 14.242553 -1.341738 -6.660648 19.631935 0.143921 -0.648243 48.834110 -0.515908 -6.356238 0.353029 -1.511150 -0.031940 20.222769 3.684305 2.316629 18.787249 0.000001 -0.000001 10.751608 -0.479870 1.397903 0.000000 -0.000000 0.000000 3.273804 0.305947 -0.580110 21.486790 11.830364 2.266131 8.162915 0.000000 -0.000000 18.399052 -3.798986 -4.940567 0.000003 0.000000 -0.000001 -6.428422 -4.087231 -6.134227 0.055661 -1.129499 -11.608206 -31.736298 0.992253 14.366214 1.054061 -2.322686 -1.276073 0.000000 -0.000000 0.000002 -0.018667 -3.367571 -0.064486 -0.026169 -0.375620 18.514561 1.251795 -25.119818 -16.355671 -1.445397 1.066751 0.687285 0.000000 -0.000000 -0.000001
0.000000 0.000000 0.000000 0.000000 -0.000000 0.000000 3.628787 -1.564220 -0.562253 3.435620 -0.605982 -2.970959 1.186975 -0.467280 -5.250338 -0.340232 -0.639640 -6.948652 -2.099940 -3.530346 11.302769 4.398512 0.046445 5.912690 -4.110076 -11.805692 -3.078616 1.565584 -17.360754 -10.915040 0.000077 -0.000022 0.000006 0.008760 0.047349 0.060231 0.657026 -3.710753 -10.432334 -0.642030 3.815086 -10.473327 -10.152389 -8.072783 13.349377 -60.898705 -33.867836 21.349995 -0.425208 -23.181616 0.358546 2.551827 2.966229 -11.602815 -5.882102 9.861279 0.702590 -10.936861 -0.360574 7.156197 0.000000 8.774815 -0.000000 -15.734393 18.253847 6.566326 -1.844031 2.498503 -2.507276 -10.163590 4.678941 4.621104 -20.975996 -0.000001 0.000001 -21.226254 2.451698 -3.593995 0.000000 -0.000006 -0.000000 -1.362681 2.240797 -0.746323 -21.334892 0.584910 3.008319 -13.821196 -0.000001 0.000001 -23.887129 -0.249075 -0.839485 -60.706257 2.816526 -1.185504 -0.294025 1.679686 0.833255 -14.218195 0.093215 1.300579 -34.212002 -0.287561 0.967166 -20.033176 0.964536 1.212838 0.000000 -0.000000 0.000000 -3.440387 0.788233 0.501655 -15.928172 -3.167306 2.999703 -6.338817 -0.000000 0.000001 -18.123419 3.648181 -4.905662 -0.000004 0.000000 -0.000002 10.503313 6.741556 14.208879 55.606831 17.120695 -15.110484 0.214259 18.991743 0.092478 -13.069156 -5.656520 -12.204378 2.243540 -5.255033 -3.180156 14.282877 -0.826594 6.952496 -0.000000 -12.690593 -0.000001 16.156975 -17.592739 2.337276 1.665665 -1.955920 -2.878297 4.727794 -4.170584 4.993919 11.020511 0.000001 -0.000000 12.109032 -3.735715 -2.866778 0.000000 -0.000000 0.000000 1.291985 -1.928548 -1.498088 14.800115 0.567467 3.865604 14.242553 -1.341738 -6.660648 19.631935 0.143921 -0.648243 48.823242 -0.524430 -6.359311 0.353029 -1.511150 -0.031940 20.222769 3.684305 2.316629 18.787249 0.000001 -0.000001 10.751608 -0.479870 1.397903 0.000000 -0.000000 0.000000 3.273804 0.305947 -0.580110 21.486790 11.830364 2.266131 8.162915 0.000000 -0.000000 18.399052 -3.798986 -4.940567 0.000003 0.000000 -0.000001 -6.428422 -4.087231 -6.134227 0.055661 -1.129499 -11.608206 -31.736298 0.992253 14.366214 1.054061 -2.322686 -1.276073 0.000000 -0.000000 0.000002 -0.018667 -3.367571 -0.064486 -0.026169 -0.375620 18.514561 1.251795 -25.119818 -16.355671 -1.445397 1.066751 0.687285 0.000000 -0.000000 -0.000001
0.000000 0.000000 0.000000 0.000000 -0.000000 0.000000 3.628787 -1.565929 -0.562253 3.435620 -0.605982 -2.970959 1.199399 -0.484338 -5.246805 -0.337037 -0.656624 -6.949529 -2.164904 -3.539807 11.298574 4.316744 0.084516 5.848349 -4.118348 -11.832664 -3.076674 1.564362 -17.378716 -10.875516 0.000077 -0.000022 0.000006 0.013302 0.062030 0.058607 0.661238 -3.697884 -10.434327 -0.637107 3.831198 -10.473137 -10.198744 -8.106507 13.426262 -60.750599 -33.952171 21.482922 -0.404505 -23.113586 0.346859 2.446141 2.977087 -11.677608 -5.882102 9.861279 0.702590 -10.936861 -0.360574 7.156197 0.000000 8.774815 -0.000000 -15.689315 18.259146 6.564526 -1.844031 2.498503 -2.507276 -10.163590 4.678941 4.621104 -20.975996 -0.000001 0.000001 -21.226254 2.451698 -3.593995 0.000000 -0.000006 -0.000000 -1.362681 2.240797 -0.746323 -21.334892 0.584910 3.008319 -13.821196 -0.000001 0.000001 -23.887129 -0.249075 -0.839485 -60.654308 2.828420 -1.197703 -0.294025 1.679686 0.833255 -14.218195 0.093215 1.300579 -34.212002 -0.287561 0.967166 -20.033176 0.964536 1.212838 0.000000 -0.000000 0.000000 -3.440387 0.788233 0.501655 -15.928172 -3.167306 2.999703 -6.338817 -0.000000 0.000001 -18.123419 3.648181 -4.905662 -0.000004 0.000000 -0.000002 10.485931 6.658182 14.223492 55.542553 17.085831 -14.882624 0.236170 19.157188 0.101703 -13.022042 -5.670333 -12.212631 2.243540 -5.255033 -3.180156 14.282877 -0.826594 6.952496 -0.000000 -12.690593 -0.000001 16.168188 -17.596149 2.334007 1.665665 -1.955920 -2.878297 4.727794 -4.170584 4.993919 11.020511 0.000001 -0.000000 12.109032 -3.735715 -2.866778 0.000000 -0.000000 0.000000 1.291985 -1.928548 -1.498088 14.800115 0.567467 3.865604 14.242553 -1.341738 -6.660648 19.631935 0.143921 -0.648243 48.825226 -0.527732 -6.353498 0.353029 -1.511150 -0.031940 20.222769 3.684305 2.316629 18.787249 0.000001 -0.000001 10.751608 -0.479870 1.397903 0.000000 -0.000000 0.000000 3.273804 0.305947 -0.580110 21.486790 11.830364 2.266131 8.162915 0.000000 -0.000000 18.399052 -3.798986 -4.940567 0.000003 0.000000 -0.000001 -6.428422 -4.087231 -6.134227 0.055661 -1.129499 -11.608206 -31.736298 0.992253 14.366214 1.054061 -2.322686 -1.276073 0.000000 -0.000000 0.000002 -0.018667 -3.367571 -0.064486 -0.026169 -0.375620 18.514561 1.251795 -25.119818 -16.355671 -1.445397 1.066751 0.687285 0.000000 -0.000000 -0.000001
0.000000 0.000000 0.000000 0.000000 -0.000000 0.000000 3.628787 -1.566241 -0.562253 3.435620 -0.605982 -2.970959 1.205288 -0.499543 -5.237679 -0.341333 -0.703593 -6.946640 -2.249481 -3.582174 11.292041 4.332168 0.078380 5.763056 -4.119246 -11.901648 -3.077801 1.551229 -17.407972 -10.876238 0.000077 -0.000022 0.000006 0.015506 0.066848 0.058114 0.660985 -3.694527 -10.436869 -0.632313 3.837193 -10.470392 -10.175056 -8.216011 13.512369 -60.673420 -34.102345 21.694809 -0.353684 -23.017416 0.317488 2.303964 2.990989 -11.772545 -5.882102 9.861279 0.702590 -10.936861 -0.360574 7.156197 0.000000 8.774815 -0.000000 -15.650957 18.284155 6.568469 -1.844031 2.498503 -2.507276 -10.163590 4.678941 4.621104 -20.975996 -0.000001 0.000001 -21.226254 2.451698 -3.593995 0.000000 -0.000006 -0.000000 -1.362681 2.240797 -0.746323 -21.334892 0.584910 3.008319 -13.821196 -0.000001 0.000001 -23.887129 -0.249075 -0.839485 -60.588978 2.836484 -1.194502 -0.294025 1.679686 0.833255 -14.218195 0.093215 1.300579 -34.212002 -0.287561 0.967166 -20.033176 0.964536 1.212838 0.000000 -0.000000 0.000000 -3.440387 0.788233 0.501655 -15.928172 -3.167306 2.999703 -6.338817 -0.000000 0.000001 -18.123419 3.648181 -4.905662 -0.000004 0.000000 -0.000002 10.514323 6.509760 14.229821 55.471592 16.984426 -14.796189 0.298141 19.301462 0.120212 -13.008193 -5.680022 -12.197189 2.243540 -5.255033 -3.180156 14.282877 -0.826594 6.952496 -0.000000 -12.690593 -0.000001 16.199207 -17.614187 2.323463 1.665665 -1.955920 -2.878297 4.727794 -4.170584 4.993919 11.020511 0.000001 -0.000000 12.109032 -3.735715 -2.866778 0.000000 -0.000000 0.000000 1.291985 -1.928548 -1.498088 14.800115 0.567467 3.865604 14.242553 -1.341738 -6.660648 19.631935 0.143921 -0.648243 48.852737 -0.527190 -6.345869 0.353029 -1.511150 -0.031940 20.222769 3.684305 2.316629 18.787249 0.000001 -0.000001 10.751608 -0.479870 1.397903 0.000000 -0.000000 0.000000 3.273804 0.305947 -0.580110 21.486790 11.830364 2.266131 8.162915 0.000000 -0.000000 18.399052 -3.798986 -4.940567 0.000003 0.000000 -0.000001 -6.428422 -4.087231 -6.134227 0.055661 -1.129499 -11.608206 -31.736298 0.992253 14.366214 1.054061 -2.322686 -1.276073 0.000000 -0.000000 0.000002 -0.018667 -3.367571 -0.064486 -0.026169 -0.375620 18.514561 1.251795 -25.119818 -16.355671 -1.445397 1.066751 0.687285 0.000000 -0.000000 -0.000001
0.000000 0.000000 0.000000 0.000000 -0.000000 0.000000 3.628787 -1.560802 -0.562253 3.435620 -0.605982 -2.970959 1.209048 -0.512585 -5.237041 -0.355647 -0.776676 -6.940726 -2.323639 -3.647832 11.288453 4.425428 0.063235 5.655745 -4.129816 -12.033985 -3.085880 1.545849 -17.427677 -10.914003 0.000077 -0.000022 0.000006 0.014941 0.057248 0.058252 0.656649 -3.706593 -10.444470 -0.629014 3.829564 -10.470608 -10.082711 -8.404683 13.568648 -60.679169 -34.286777 21.974277 -0.313638 -22.878197 0.288321 2.171237 2.972064 -11.935115 -5.882102 9.861279 0.702590 -10.936861 -0.360574 7.156197 0.000000 8.774815 -0.000000 -15.617812 18.322332 6.577144 -1.844031 2.498503 -2.507276 -10.163590 4.678941 4.621104 -20.975996 -0.000001 0.000001 -21.226254 2.451698 -3.593995 0.000000 -0.000006 -0.000000 -1.362681 2.240797 -0.746323 -21.334892 0.584910 3.008319 -13.821196 -0.000001 0.000001 -23.887129 -0.249075 -0.839485 -60.521824 2.849240 -1.190046 -0.294025 1.679686 0.833255 -14.218195 0.093215 1.300579 -34.212002 -0.287561 0.967166 -20.033176 0.964536 1.212838 0.000000 -0.000000 0.000000 -3.440387 0.788233 0.501655 -15.928172 -3.167306 2.999703 -6.338817 -0.000000 0.000001 -18.123419 3.648181 -4.905662 -0.000004 0.000000 -0.000002 10.561822 6.300551 14.190465 55.439854 16.802147 -14.850657 0.370900 19.449476 0.146970 -12.965481 -5.716764 -12.187431 2.243540 -5.255033 -3.180156 14.282877 -0.826594 6.952496 -0.000000 -12.690593 -0.000001 16.244030 -17.627911 2.302354 1.665665 -1.955920 -2.878297 4.727794 -4.170584 4.993919 11.020511 0.000001 -0.000000 12.109032 -3.735715 -2.866778 0.000000 -0.000000 0.000000 1.291985 -1.928548 -1.498088 14.800115 0.567467 3.865604 14.242553 -1.341738 -6.660648 19.631935 0.143921 -0.648243 48.883041 -0.520059 -6.345776 0.353029 -1.511150 -0.031940 20.222769 3.684305 2.316629 18.787249 0.000001 -0.000001 10.751608 -0.479870 1.397903 0.000000 -0.000000 0.000000 3.273804 0.305947 -0.580110 21.486790 11.830364 2.266131 8.162915 0.000000 -0.000000 18.399052 -3.798986 -4.940567 0.000003 0.000000 -0.000001 -6.428422 -4.087231 -6.134227 0.055661 -1.129499 -11.608206 -31.736298 0.992253 14.366214 1.054061 -2.322686 -1.276073 0.000000 -0.000000 0.000002 -0.018667 -3.367571 -0.064486 -0.026169 -0.375620 18.514561 1.251795 -25.119818 -16.355671 -1.445397 1.066751 0.687285 0.000000 -0.000000 -0.000001
0.000000 0.000000 0.000000 0.000000 -0.000000 0.000000 3.628787 -1.560939 -0.562253 3.435620 -0.605982 -2.970959 1.203435 -0.517387 -5.236834 -0.377363 -0.851861 -6.929116 -2.384120 -3.742148 11.287416 4.543631 0.059011 5.513752 -4.157609 -12.205497 -3.079338 1.564104 -17.472248 -10.977535 0.000077 -0.000022 0.000006 0.013831 0.043857 0.059922 0.653115 -3.720558 -10.440697 -0.627647 3.816929 -10.463150 -9.927500 -8.655705 13.576427 -60.788807 -34.425259 22.153381 -0.282019 -22.738548 0.263163 2.049221 2.955238 -12.071203 -5.882102 9.861279 0.702590 -10.936861 -0.360574 7.156197 0.000000 8.774815 -0.000000 -15.622574 18.331228 6.570223 -1.844031 2.498503 -2.507276 -10.163590 4.678941 4.621104 -20.975996 -0.000001 0.000001 -21.226254 2.451698 -3.593995 0.000000 -0.000006 -0.000000 -1.362681 2.240797 -0.746323 -21.334892 0.584910 3.008319 -13.821196 -0.000001 0.000001 -23.887129 -0.249075 -0.839485 -60.510464 2.850791 -1.177235 -0.294025 1.679686 0.833255 -14.218195 0.093215 1.300579 -34.212002 -0.287561 0.967166 -20.033176 0.964536 1.212838 0.000000 -0.000000 0.000000 -3.440387 0.788233 0.501655 -15.928172 -3.167306 2.999703 -6.338817 -0.000000 0.000001 -18.123419 3.648181 -4.905662 -0.000004 0.000000 -0.000002 10.592898 6.094139 14.172525 55.470516 16.659563 -14.937139 0.395953 19.529396 0.153540 -12.929462 -5.748036 -12.268037 2.243540 -5.255033 -3.180156 14.282877 -0.826594 6.952496 -0.000000 -12.690593 -0.000001 16.267262 -17.648722 2.289497 1.665665 -1.955920 -2.878297 4.727794 -4.170584 4.993919 11.020511 0.000001 -0.000000 12.109032 -3.735715 -2.866778 0.000000 -0.000000 0.000000 1.291985 -1.928548 -1.498088 14.800115 0.567467 3.865604 14.242553 -1.341738 -6.660648 19.631935 0.143921 -0.648243 48.917530 -0.510247 -6.347342 0.353029 -1.511150 -0.031940 20.222769 3.684305 2.316629 18.787249 0.000001 -0.000001 10.751608 -0.479870 1.397903 0.000000 -0.000000 0.000000 3.273804 0.305947 -0.580110 21.486790 11.830364 2.266131 8.162915 0.000000 -0.000000 18.399052 -3.798986 -4.940567 0.000003 0.000000 -0.000001 -6.428422 -4.087231 -6.134227 0.055661 -1.129499 -11.608206 -31.736298 0.992253 14.366214 1.054061 -2.322686 -1.276073 0.000000 -0.000000 0.000002 -0.018667 -3.367571 -0.064486 -0.026169 -0.375620 18.514561 1.251795 -25.119818 -16.355671 -1.445397 1.066751 0.687285 0.000000 -0.000000 -0.000001
0.000000 0.000000 0.000000 0.000000 -0.000000 0.000000 3.628787 -1.551944 -0.562253 3.435620 -0.605982 -2.970959 1.173144 -0.522351 -5.213377 -0.392329 -0.883512 -6.928072 -2.405407 -3.802135 11.277873 4.677967 0.048711 5.380212 -4.195546 -12.261749 -3.068482 1.515375 -17.546621 -11.077788 0.000077 -0.000022 0.000006 0.020082 0.065566 0.057682 0.651677 -3.698973 -10.418948 -0.613708 3.838022 -10.441384 -9.852749 -8.813516 13.726420 -60.843140 -34.619263 22.179035 -0.230360 -22.794819 0.218427 1.896412 3.018924 -12.164281 -5.882102 9.861279 0.702590 -10.936861 -0.360574 7.156197 0.000000 8.774815 -0.000000 -15.673763 18.309101 6.493557 -1.844031 2.498503 -2.507276 -10.163590 4.678941 4.621104 -20.975996 -0.000001 0.000001 -21.226254 2.451698 -3.593995 0.000000 -0.000006 -0.000000 -1.362681 2.240797 -0.746323 -21.334892 0.584910 3.008319 -13.821196 -0.000001 0.000001 -23.887129 -0.249075 -0.839485 -60.485668 2.860490 -1.205438 -0.294025 1.679686 0.833255 -14.218195 0.093215 1.300579 -34.212002 -0.287561 0.967166 -20.033176 0.964536 1.212838 0.000000 -0.000000 0.000000 -3.440387 0.788233 0.501655 -15.928172 -3.167306 2.999703 -6.338817 -0.000000 0.000001 -18.123419 3.648181 -4.905662 -0.000004 0.000000 -0.000002 10.706250 5.961373 14.266865 55.405708 16.608429 -15.004736 0.293877 19.538683 0.117794 -12.926472 -5.838455 -12.191238 2.243540 -5.255033 -3.180156 14.282877 -0.826594 6.952496 -0.000000 -12.690593 -0.000001 16.264221 -17.674356 2.306087 1.665665 -1.955920 -2.878297 4.727794 -4.170584 4.993919 11.020511 0.000001 -0.000000 12.109032 -3.735715 -2.866778 0.000000 -0.000000 0.000000 1.291985 -1.928548 -1.498088 14.800115 0.567467 3.865604 14.242553 -1.341738 -6.660648 19.631935 0.143921 -0.648243 48.953701 -0.478513 -6.348158 0.353029 -1.511150 -0.031940 20.222769 3.684305 2.316629 18.787249 0.000001 -0.000001 10.751608 -0.479870 1.397903 0.000000 -0.000000 0.000000 3.273804 0.305947 -0.580110 21.486790 11.830364 2.266131 8.162915 0.000000 -0.000000 18.399052 -3.798986 -4.940567 0.000003 0.000000 -0.000001 -6.428422 -4.087231 -6.134227 0.055661 -1.129499 -11.608206 -31.736298 0.992253 14.366214 1.054061 -2.322686 -1.276073 0.000000 -0.000000 0.000002 -0.018667 -3.367571 -0.064486 -0.026169 -0.375620 18.514561 1.251795 -25.119818 -16.355671 -1.445397 1.066751 0.687285 0.000000 -0.000000 -0.000001
0.000000 0.000000 0.000000 0.000000 -0.000000 0.000000 3.628787 -1.533977 -0.562253 3.435620 -0.605982 -2.970959 1.180782 -0.511990 -5.275735 -0.429799 -1.006007 -6.930960 -2.522932 -3.905999 11.338455 4.898651 -0.010487 5.235459 -4.228529 -12.375570 -3.052806 1.497784 -17.466509 -11.190419 0.000077 -0.000022 0.000006 0.014373 0.024616 0.075135 0.640624 -3.742099 -10.396856 -0.614277 3.799816 -10.396719 -9.641414 -9.007438 13.651518 -60.949295 -34.740078 22.268579 -0.398722 -22.679441 0.314983 1.923229 2.893626 -12.208752 -5.882102 9.861279 0.702590 -10.936861 -0.360574 7.156197 0.000000 8.774815 -0.000000 -15.598106 18.435795 6.613968 -1.844031 2.498503 -2.507276 -10.163590 4.678941 4.621104 -20.975996 -0.000001 0.000001 -21.226254 2.451698 -3.593995 0.000000 -0.000006 -0.000000 -1.362681 2.240797 -0.746323 -21.334892 0.584910 3.008319 -13.821196 -0.000001 0.000001 -23.887129 -0.249075 -0.839485 -60.503853 2.926558 -1.193596 -0.294025 1.679686 0.833255 -14.218195 0.093215 1.300579 -34.212002 -0.287561 0.967166 -20.033176 0.964536 1.212838 0.000000 -0.000000 0.000000 -3.440387 0.788233 0.501655 -15.928172 -3.167306 2.999703 -6.338817 -0.000000 0.000001 -18.123419 3.648181 -4.905662 -0.000004 0.000000 -0.000002 10.638947 5.788250 14.063053 55.713444 16.408451 -15.564425 0.476855 19.467451 0.179395 -13.013597 -5.798651 -12.111826 2.243540 -5.255033 -3.180156 14.282877 -0.826594 6.952496 -0.000000 -12.690593 -0.000001 16.282255 -17.668959 2.311402 1.665665 -1.955920 -2.878297 4.727794 -4.170584 4.993919 11.020511 0.000001 -0.000000 12.109032 -3.735715 -2.866778 0.000000 -0.000000 0.000000 1.291985 -1.928548 -1.498088 14.800115 0.567467 3.865604 14.242553 -1.341738 -6.660648 19.631935 0.143921 -0.648243 48.779377 -0.456211 -6.274765 0.353029 -1.511150 -0.031940 20.222769 3.684305 2.316629 18.787249 0.000001 -0.000001 10.751608 -0.479870 1.397903 0.000000 -0.000000 0.000000 3.273804 0.305947 -0.580110 21.486790 11.830364 2.266131 8.162915 0.000000 -0.000000 18.399052 -3.798986 -4.940567 0.000003 0.000000 -0.000001 -6.428422 -4.087231 -6.134227 0.055661 -1.129499 -11.608206 -31.736298 0.992253 14.366214 1.054061 -2.322686 -1.276073 0.000000 -0.000000 0.000002 -0.018667 -3.367571 -0.064486 -0.026169 -0.375620 18.514561 1.251795 -25.119818 -16.355671 -1.445397 1.066751 0.687285 0.000000 -0.000000 -0.000001
0.000000 0.000000 0.000000 0.000000 -0.000000 0.000000 3.628787 -1.534335 -0.562253 3.435620 -0.605982 -2.970959 1.210968 -0.525992 -5.229648 -0.414733 -0.888249 -6.926867 -2.389936 -3.762495 11.326676 4.633810 0.120564 5.206669 -4.249485 -12.324463 -3.043677 1.531060 -17.556572 -11.222474 0.000077 -0.000022 0.000006 0.006624 0.014067 0.067533 0.637975 -3.755231 -10.435569 -0.627453 3.792922 -10.456922 -9.736580 -8.733222 13.645019 -60.916492 -34.641293 22.196081 -0.413086 -22.972439 0.266129 2.111897 2.956235 -12.488335 -5.882102 9.861279 0.702590 -10.936861 -0.360574 7.156197 0.000000 8.774815 -0.000000 -15.710106 18.296377 6.543670 -1.844031 2.498503 -2.507276 -10.163590 4.678941 4.621104 -20.975996 -0.000001 0.000001 -21.226254 2.451698 -3.593995 0.000000 -0.000006 -0.000000 -1.362681 2.240797 -0.746323 -21.334892 0.584910 3.008319 -13.821196 -0.000001 0.000001 -23.887129 -0.249075 -0.839485 -60.605846 2.914618 -1.173703 -0.294025 1.679686 0.833255 -14.218195 0.093215 1.300579 -34.212002 -0.287561 0.967166 -20.033176 0.964536 1.212838 0.000000 -0.000000 0.000000 -3.440387 0.788233 0.501655 -15.928172 -3.167306 2.999703 -6.338817 -0.000000 0.000001 -18.123419 3.648181 -4.905662 -0.000004 0.000000 -0.000002 10.624444 6.060507 14.176895 55.637257 16.604685 -15.382078 0.337782 19.236906 0.132912 -13.037023 -5.951819 -12.315284 2.243540 -5.255033 -3.180156 14.282877 -0.826594 6.952496 -0.000000 -12.690593 -0.000001 16.223106 -17.678564 2.357725 1.665665 -1.955920 -2.878297 4.727794 -4.170584 4.993919 11.020511 0.000001 -0.000000 12.109032 -3.735715 -2.866778 0.000000 -0.000000 0.000000 1.291985 -1.928548 -1.498088 14.800115 0.567467 3.865604 14.242553 -1.341738 -6.660648 19.631935 0.143921 -0.648243 48.894920 -0.451939 -6.311598 0.353029 -1.511150 -0.031940 20.222769 3.684305 2.316629 18.787249 0.000001 -0.000001 10.751608 -0.479870 1.397903 0.000000 -0.000000 0.000000 3.273804 0.305947 -0.580110 21.486790 11.830364 2.266131 8.162915 0.000000 -0.000000 18.399052 -3.798986 -4.940567 0.000003 0.000000 -0.000001 -6.428422 -4.087231 -6.134227 0.055661 -1.129499 -11.608206 -31.736298 0.992253 14.366214 1.054061 -2.322686 -1.276073 0.000000 -0.000000 0.000002 -0.018667 -3.367571 -0.064486 -0.026169 -0.375620 18.514561 1.251795 -25.119818 -16.355671 -1.445397 1.066751 0.687285 0.000000 -0.000000 -0.000001
0.000000 0.000000 0.000000 0.000000 -0.000000 0.000000 3.628787 -1.534862 -0.562253 3.435620 -0.605982 -2.970959 1.214226 -0.515623 -5.271297 -0.402237 -0.841647 -6.928267 -2.331175 -3.709894 11.329599 4.483407 0.166821 5.194666 -4.182346 -12.122728 -3.064816 1.425689 -17.501289 -11.221523 0.000077 -0.000022 0.000006 0.008982 0.023059 0.062957 0.641641 -3.747127 -10.440990 -0.626530 3.803239 -10.463012 -9.805425 -8.488207 13.590104 -60.866516 -34.520226 22.389723 -0.374235 -23.132862 0.253589 2.199421 2.993129 -12.704129 -5.882102 9.861279 0.702590 -10.936861 -0.360574 7.156197 0.000000 8.774815 -0.000000 -15.713424 18.313681 6.562626 -1.844031 2.498503 -2.507276 -10.163590 4.678941 4.621104 -20.975996 -0.000001 0.000001 -21.226254 2.451698 -3.593995 0.000000 -0.000006 -0.000000 -1.362681 2.240797 -0.746323 -21.334892 0.584910 3.008319 -13.821196 -0.000001 0.000001 -23.887129 -0.249075 -0.839485 -60.698723 2.923213 -1.195095 -0.294025 1.679686 0.833255 -14.218195 0.093215 1.300579 -34.212002 -0.287561 0.967166 -20.033176 0.964536 1.212838 0.000000 -0.000000 0.000000 -3.440387 0.788233 0.501655 -15.928172 -3.167306 2.999703 -6.338817 -0.000000 0.000001 -18.123419 3.648181 -4.905662 -0.000004 0.000000 -0.000002 10.621222 6.225234 14.194033 55.662113 16.729248 -15.451075 0.360749 19.102793 0.139023 -13.121492 -5.973999 -12.232193 2.243540 -5.255033 -3.180156 14.282877 -0.826594 6.952496 -0.000000 -12.690593 -0.000001 16.179554 -17.631536 2.412579 1.665665 -1.955920 -2.878297 4.727794 -4.170584 4.993919 11.020511 0.000001 -0.000000 12.109032 -3.735715 -2.866778 0.000000 -0.000000 0.000000 1.291985 -1.928548 -1.498088 14.800115 0.567467 3.865604 14.242553 -1.341738 -6.660648 19.631935 0.143921 -0.648243 48.883404 -0.434452 -6.259085 0.353029 -1.511150 -0.031940 20.222769 3.684305 2.316629 18.787249 0.000001 -0.000001 10.751608 -0.479870 1.397903 0.000000 -0.000000 0.000000 3.273804 0.305947 -0.580110 21.486790 11.830364 2.266131 8.162915 0.000000 -0.000000 18.399052 -3.798986 -4.940567 0.000003 0.000000 -0.000001 -6.428422 -4.087231 -6.134227 0.055661 -1.129499 -11.608206 -31.736298 0.992253 14.366214 1.054061 -2.322686 -1.276073 0.000000 -0.000000 0.000002 -0.018667 -3.367571 -0.064486 -0.026169 -0.375620 18.514561 1.251795 -25.119818 -16.355671 -1.445397 1.066751 0.687285 0.000000 -0.000000 -0.000001
0.000000 0.000000 0.000000 0.000000 -0.000000 0.000000 3.628787 -1.539004 -0.562253 3.435620 -0.605982 -2.970959 1.216565 -0.492518 -5.301181 -0.381662 -0.795585 -6.931581 -2.282816 -3.683863 11.327957 4.309230 0.203792 5.183110 -4.122550 -11.969320 -3.071617 1.314071 -17.388142 -11.220355 0.000077 -0.000022 0.000006 0.011766 0.028327 0.061654 0.645542 -3.738294 -10.430221 -0.624895 3.805208 -10.456630 -9.855186 -8.235678 13.546630 -60.797119 -34.406910 22.545994 -0.375745 -23.293394 0.259126 2.293814 2.980771 -12.842939 -5.882102 9.861279 0.702590 -10.936861 -0.360574 7.156197 0.000000 8.774815 -0.000000 -15.727066 18.335396 6.571060 -1.844031 2.498503 -2.507276 -10.163590 4.678941 4.621104 -20.975996 -0.000001 0.000001 -21.226254 2.451698 -3.593995 0.000000 -0.000006 -0.000000 -1.362681 2.240797 -0.746323 -21.334892 0.584910 3.008319 -13.821196 -0.000001 0.000001 -23.887129 -0.249075 -0.839485 -60.732849 2.915813 -1.221747 -0.294025 1.679686 0.833255 -14.218195 0.093215 1.300579 -34.212002 -0.287561 0.967166 -20.033176 0.964536 1.212838 0.000000 -0.000000 0.000000 -3.440387 0.788233 0.501655 -15.928172 -3.167306 2.999703 -6.338817 -0.000000 0.000001 -18.123419 3.648181 -4.905662 -0.000004 0.000000 -0.000002 10.613634 6.365571 14.200265 55.698029 16.863291 -15.424797 0.403911 19.051311 0.150263 -13.165479 -5.949521 -12.179159 2.243540 -5.255033 -3.180156 14.282877 -0.826594 6.952496 -0.000000 -12.690593 -0.000001 16.134045 -17.594185 2.435092 1.665665 -1.955920 -2.878297 4.727794 -4.170584 4.993919 11.020511 0.000001 -0.000000 12.109032 -3.735715 -2.866778 0.000000 -0.000000 0.000000 1.291985 -1.928548 -1.498088 14.800115 0.567467 3.865604 14.242553 -1.341738 -6.660648 19.631935 0.143921 -0.648243 48.868549 -0.427186 -6.222153 0.353029 -1.511150 -0.031940 20.222769 3.684305 2.316629 18.787249 0.000001 -0.000001 10.751608 -0.479870 1.397903 0.000000 -0.000000 0.000000 3.273804 0.305947 -0.580110 21.486790 11.830364 2.266131 8.162915 0.000000 -0.000000 18.399052 -3.798986 -4.940567 0.000003 0.000000 -0.000001 -6.428422 -4.087231 -6.134227 0.055661 -1.129499 -11.608206 -31.736298 0.992253 14.366214 1.054061 -2.322686 -1.276073 0.000000 -0.000000 0.000002 -0.018667 -3.367571 -0.064486 -0.026169 -0.375620 18.514561 1.251795 -25.119818 -16.355671 -1.445397 1.066751 0.687285 0.000000 -0.000000 -0.000001
0.000000 0.000000 0.000000 0.000000 -0.000000 0.000000 3.628787 -1.536716 -0.562253 3.435620 -0.605982 -2.970959 1.229128 -0.476132 -5.310635 -0.361869 -0.745636 -6.933535 -2.221933 -3.663248 11.319093 4.125207 0.251534 5.167897 -4.086620 -11.859424 -3.066733 1.232869 -17.281069 -11.252820 0.000077 -0.000022 0.000006 0.013061 0.028423 0.064458 0.649005 -3.734128 -10.417258 -0.625634 3.801449 -10.447124 -9.900777 -8.018129 13.514532 -60.720978 -34.296612 22.632851 -0.386471 -23.480042 0.260645 2.377524 2.940622 -12.918661 -5.882102 9.861279 0.702590 -10.936861 -0.360574 7.156197 0.000000 8.774815 -0.000000 -15.744367 18.328552 6.556923 -1.844031 2.498503 -2.507276 -10.163590 4.678941 4.621104 -20.975996 -0.000001 0.000001 -21.226254 2.451698 -3.593995 0.000000 -0.000006 -0.000000 -1.362681 2.240797 -0.746323 -21.334892 0.584910 3.008319 -13.821196 -0.000001 0.000001 -23.887129 -0.249075 -0.839485 -60.727863 2.890520 -1.235896 -0.294025 1.679686 0.833255 -14.218195 0.093215 1.300579 -34.212002 -0.287561 0.967166 -20.033176 0.964536 1.212838 0.000000 -0.000000 0.000000 -3.440387 0.788233 0.501655 -15.928172 -3.167306 2.999703 -6.338817 -0.000000 0.000001 -18.123419 3.648181 -4.905662 -0.000004 0.000000 -0.000002 10.598471 6.476331 14.221493 55.728516 16.989634 -15.336589 0.430918 19.034706 0.146690 -13.171861 -5.906137 -12.352949 2.243540 -5.255033 -3.180156 14.282877 -0.826594 6.952496 -0.000000 -12.690593 -0.000001 16.098852 -17.562027 2.444785 1.665665 -1.955920 -2.878297 4.727794 -4.170584 4.993919 11.020511 0.000001 -0.000000 12.109032 -3.735715 -2.866778 0.000000 -0.000000 0.000000 1.291985 -1.928548 -1.498088 14.800115 0.567467 3.865604 14.242553 -1.341738 -6.660648 19.631935 0.143921 -0.648243 48.875984 -0.431056 -6.193820 0.353029 -1.511150 -0.031940 20.222769 3.684305 2.316629 18.787249 0.000001 -0.000001 10.751608 -0.479870 1.397903 0.000000 -0.000000 0.000000 3.273804 0.305947 -0.580110 21.486790 11.830364 2.266131 8.162915 0.000000 -0.000000 18.399052 -3.798986 -4.940567 0.000003 0.000000 -0.000001 -6.428422 -4.087231 -6.134227 0.055661 -1.129499 -11.608206 -31.736298 0.992253 14.366214 1.054061 -2.322686 -1.276073 0.000000 -0.000000 0.000002 -0.018667 -3.367571 -0.064486 -0.026169 -0.375620 18.514561 1.251795 -25.119818 -16.355671 -1.445397 1.066751 0.687285 0.000000 -0.000000 -0.000001
0.000000 0.000000 0.000000 0.000000 -0.000000 0.000000 3.628787 -1.538974 -0.562253 3.435620 -0.605982 -2.970959 1.246674 -0.469578 -5.299749 -0.346641 -0.723121 -6.932307 -2.159137 -3.644241 11.295796 3.976718 0.292369 5.162333 -4.083973 -11.797006 -3.063688 1.186367 -17.182863 -11.286880 0.000077 -0.000022 0.000006 0.014452 0.030881 0.065699 0.653570 -3.728730 -10.411095 -0.627138 3.800838 -10.443419 -9.943072 -7.882702 13.509795 -60.638371 -34.196655 22.651079 -0.406769 -23.672705 0.258268 2.454612 2.872759 -12.973230 -5.882102 9.861279 0.702590 -10.936861 -0.360574 7.156197 0.000000 8.774815 -0.000000 -15.755551 18.304726 6.535838 -1.844031 2.498503 -2.507276 -10.163590 4.678941 4.621104 -20.975996 -0.000001 0.000001 -21.226254 2.451698 -3.593995 0.000000 -0.000006 -0.000000 -1.362681 2.240797 -0.746323 -21.334892 0.584910 3.008319 -13.821196 -0.000001 0.000001 -23.887129 -0.249075 -0.839485 -60.684769 2.858739 -1.223182 -0.294025 1.679686 0.833255 -14.218195 0.093215 1.300579 -34.212002 -0.287561 0.967166 -20.033176 0.964536 1.212838 0.000000 -0.000000 0.000000 -3.440387 0.788233 0.501655 -15.928172 -3.167306 2.999703 -6.338817 -0.000000 0.000001 -18.123419 3.648181 -4.905662 -0.000004 0.000000 -0.000002 10.610179 6.532130 14.259854 55.712807 17.089418 -15.199656 0.428564 19.010719 0.135917 -13.131886 -5.850903 -12.625341 2.243540 -5.255033 -3.180156 14.282877 -0.826594 6.952496 -0.000000 -12.690593 -0.000001 16.085014 -17.538952 2.447339 1.665665 -1.955920 -2.878297 4.727794 -4.170584 4.993919 11.020511 0.000001 -0.000000 12.109032 -3.735715 -2.866778 0.000000 -0.000000 0.000000 1.291985 -1.928548 -1.498088 14.800115 0.567467 3.865604 14.242553 -1.341738 -6.660648 19.631935 0.143921 -0.648243 48.916908 -0.442574 -6.169199 0.353029 -1.511150 -0.031940 20.222769 3.684305 2.316629 18.787249 0.000001 -0.000001 10.751608 -0.479870 1.397903 0.000000 -0.000000 0.000000 3.273804 0.305947 -0.580110 21.486790 11.830364 2.266131 8.162915 0.000000 -0.000000 18.399052 -3.798986 -4.940567 0.000003 0.000000 -0.000001 -6.428422 -4.087231 -6.134227 0.055661 -1.129499 -11.608206 -31.736298 0.992253 14.366214 1.054061 -2.322686 -1.276073 0.000000 -0.000000 0.000002 -0.018667 -3.367571 -0.064486 -0.026169 -0.375620 18.514561 1.251795 -25.119818 -16.355671 -1.445397 1.066751 0.687285 0.000000 -0.000000 -0.000001
0.000000 0.000000 0.000000 0.000000 -0.000000 0.000000 3.628787 -1.548312 -0.562253 3.435620 -0.605982 -2.970959 1.264609 -0.483339 -5.281074 -0.339971 -0.739321 -6.929458 -2.110738 -3.640542 11.258740 3.896816 0.321800 5.153936 -4.101238 -11.789789 -3.063457 1.148499 -17.134020 -11.280720 0.000077 -0.000022 0.000006 0.014546 0.034606 0.067426 0.656221 -3.723734 -10.409091 -0.629234 3.803100 -10.443174 -9.947399 -7.851245 13.500886 -60.616489 -34.104271 22.680618 -0.402236 -23.809191 0.239799 2.486223 2.787867 -12.994224 -5.882102 9.861279 0.702590 -10.936861 -0.360574 7.156197 0.000000 8.774815 -0.000000 -15.756987 18.301809 6.517116 -1.844031 2.498503 -2.507276 -10.163590 4.678941 4.621104 -20.975996 -0.000001 0.000001 -21.226254 2.451698 -3.593995 0.000000 -0.000006 -0.000000 -1.362681 2.240797 -0.746323 -21.334892 0.584910 3.008319 -13.821196 -0.000001 0.000001 -23.887129 -0.249075 -0.839485 -60.648415 2.834531 -1.209683 -0.294025 1.679686 0.833255 -14.218195 0.093215 1.300579 -34.212002 -0.287561 0.967166 -20.033176 0.964536 1.212838 0.000000 -0.000000 0.000000 -3.440387 0.788233 0.501655 -15.928172 -3.167306 2.999703 -6.338817 -0.000000 0.000001 -18.123419 3.648181 -4.905662 -0.000004 0.000000 -0.000002 10.642222 6.512653 14.288104 55.691727 17.113827 -15.094327 0.398906 19.024504 0.120097 -13.098161 -5.813806 -12.922192 2.243540 -5.255033 -3.180156 14.282877 -0.826594 6.952496 -0.000000 -12.690593 -0.000001 16.097193 -17.518175 2.433479 1.665665 -1.955920 -2.878297 4.727794 -4.170584 4.993919 11.020511 0.000001 -0.000000 12.109032 -3.735715 -2.866778 0.000000 -0.000000 0.000000 1.291985 -1.928548 -1.498088 14.800115 0.567467 3.865604 14.242553 -1.341738 -6.660648 19.631935 0.143921 -0.648243 48.972469 -0.447586 -6.153900 0.353029 -1.511150 -0.031940 20.222769 3.684305 2.316629 18.787249 0.000001 -0.000001 10.751608 -0.479870 1.397903 0.000000 -0.000000 0.000000 3.273804 0.305947 -0.580110 21.486790 11.830364 2.266131 8.162915 0.000000 -0.000000 18.399052 -3.798986 -4.940567 0.000003 0.000000 -0.000001 -6.428422 -4.087231 -6.134227 0.055661 -1.129499 -11.608206 -31.736298 0.992253 14.366214 1.054061 -2.322686 -1.276073 0.000000 -0.000000 0.000002 -0.018667 -3.367571 -0.064486 -0.026169 -0.375620 18.514561 1.251795 -25.119818 -16.355671 -1.445397 1.066751 0.687285 0.000000 -0.000000 -0.000001
0.000000 0.000000 0.000000 0.000000 -0.000000 0.000000 3.628787 -1.557506 -0.562253 3.435620 -0.605982 -2.970959 1.274163 -0.508810 -5.273343 -0.339340 -0.779501 -6.930468 -2.101636 -3.687615 11.217259 3.903750 0.326669 5.129916 -4.132257 -11.856271 -3.056536 1.130108 -17.150768 -11.251590 0.000077 -0.000022 0.000006 0.014015 0.035976 0.068308 0.657123 -3.723605 -10.412325 -0.630952 3.805151 -10.445360 -9.910387 -7.933399 13.507521 -60.646458 -34.063396 22.812727 -0.345490 -23.831053 0.206508 2.501213 2.649233 -13.089867 -5.882102 9.861279 0.702590 -10.936861 -0.360574 7.156197 0.000000 8.774815 -0.000000 -15.769193 18.301905 6.486496 -1.844031 2.498503 -2.507276 -10.163590 4.678941 4.621104 -20.975996 -0.000001 0.000001 -21.226254 2.451698 -3.593995 0.000000 -0.000006 -0.000000 -1.362681 2.240797 -0.746323 -21.334892 0.584910 3.008319 -13.821196 -0.000001 0.000001 -23.887129 -0.249075 -0.839485 -60.628899 2.827614 -1.211283 -0.294025 1.679686 0.833255 -14.218195 0.093215 1.300579 -34.212002 -0.287561 0.967166 -20.033176 0.964536 1.212838 0.000000 -0.000000 0.000000 -3.440387 0.788233 0.501655 -15.928172 -3.167306 2.999703 -6.338817 -0.000000 0.000001 -18.123419 3.648181 -4.905662 -0.000004 0.000000 -0.000002 10.671120 6.416844 14.280138 55.719852 17.054348 -15.032697 0.330927 19.082582 0.097556 -13.117404 -5.852923 -13.208152 2.243540 -5.255033 -3.180156 14.282877 -0.826594 6.952496 -0.000000 -12.690593 -0.000001 16.126436 -17.500151 2.419743 1.665665 -1.955920 -2.878297 4.727794 -4.170584 4.993919 11.020511 0.000001 -0.000000 12.109032 -3.735715 -2.866778 0.000000 -0.000000 0.000000 1.291985 -1.928548 -1.498088 14.800115 0.567467 3.865604 14.242553 -1.341738 -6.660648 19.631935 0.143921 -0.648243 49.006042 -0.457808 -6.146576 0.353029 -1.511150 -0.031940 20.222769 3.684305 2.316629 18.787249 0.000001 -0.000001 10.751608 -0.479870 1.397903 0.000000 -0.000000 0.000000 3.273804 0.305947 -0.580110 21.486790 11.830364 2.266131 8.162915 0.000000 -0.000000 18.399052 -3.798986 -4.940567 0.000003 0.000000 -0.000001 -6.428422 -4.087231 -6.134227 0.055661 -1.129499 -11.608206 -31.736298 0.992253 14.366214 1.054061 -2.322686 -1.276073 0.000000 -0.000000 0.000002 -0.018667 -3.367571 -0.064486 -0.026169 -0.375620 18.514561 1.251795 -25.119818 -16.355671 -1.445397 1.066751 0.687285 0.000000 -0.000000 -0.000001
0.000000 0.000000 0.000000 0.000000 -0.000000 0.000000 3.628787 -1.559428 -0.562253 3.435620 -0.605982 -2.970959 1.261361 -0.535428 -5.263399 -0.344253 -0.836143 -6.940151 -2.114187 -3.773122 11.172271 3.994327 0.304154 5.093495 -4.163180 -11.961394 -3.045797 1.119697 -17.224453 -11.221477 0.000077 -0.000022 0.000006 0.015384 0.038694 0.068329 0.658931 -3.722904 -10.413595 -0.629814 3.809421 -10.444773 -9.814634 -8.102495 13.558579 -60.738258 -34.104401 22.993498 -0.243913 -23.748768 0.176210 2.480963 2.544326 -13.170808 -5.882102 9.861279 0.702590 -10.936861 -0.360574 7.156197 0.000000 8.774815 -0.000000 -15.782603 18.298119 6.446890 -1.844031 2.498503 -2.507276 -10.163590 4.678941 4.621104 -20.975996 -0.000001 0.000001 -21.226254 2.451698 -3.593995 0.000000 -0.000006 -0.000000 -1.362681 2.240797 -0.746323 -21.334892 0.584910 3.008319 -13.821196 -0.000001 0.000001 -23.887129 -0.249075 -0.839485 -60.608608 2.839855 -1.238987 -0.294025 1.679686 0.833255 -14.218195 0.093215 1.300579 -34.212002 -0.287561 0.967166 -20.033176 0.964536 1.212838 0.000000 -0.000000 0.000000 -3.440387 0.788233 0.501655 -15.928172 -3.167306 2.999703 -6.338817 -0.000000 0.000001 -18.123419 3.648181 -4.905662 -0.000004 0.000000 -0.000002 10.699015 6.267888 14.232169 55.757332 16.940760 -14.972661 0.239304 19.157536 0.068268 -13.156459 -5.953623 -13.439298 2.243540 -5.255033 -3.180156 14.282877 -0.826594 6.952496 -0.000000 -12.690593 -0.000001 16.138050 -17.486849 2.427925 1.665665 -1.955920 -2.878297 4.727794 -4.170584 4.993919 11.020511 0.000001 -0.000000 12.109032 -3.735715 -2.866778 0.000000 -0.000000 0.000000 1.291985 -1.928548 -1.498088 14.800115 0.567467 3.865604 14.242553 -1.341738 -6.660648 19.631935 0.143921 -0.648243 49.007732 -0.469290 -6.148249 0.353029 -1.511150 -0.031940 20.222769 3.684305 2.316629 18.787249 0.000001 -0.000001 10.751608 -0.479870 1.397903 0.000000 -0.000000 0.000000 3.273804 0.305947 -0.580110 21.486790 11.830364 2.266131 8.162915 0.000000 -0.000000 18.399052 -3.798986 -4.940567 0.000003 0.000000 -0.000001 -6.428422 -4.087231 -6.134227 0.055661 -1.129499 -11.608206 -31.736298 0.992253 14.366214 1.054061 -2.322686 -1.276073 0.000000 -0.000000 0.000002 -0.018667 -3.367571 -0.064486 -0.026169 -0.375620 18.514561 1.251795 -25.119818 -16.355671 -1.445397 1.066751 0.687285 0.000000 -0.000000 -0.000001
0.000000 0.000000 0.000000 0.000000 0.000000 0.000000 3.628787 -1.568603 -0.562253 3.435620 -0.605982 -2.970959 1.236646 -0.554370 -5.270671 -0.367200 -0.913151 -6.943558 -2.115638 -3.877084 11.093844 4.190338 0.267559 5.116093 -4.180643 -12.105514 -3.040053 1.147572 -17.311593 -11.172839 0.000077 -0.000022 0.000006 0.013955 0.029252 0.068308 0.656696 -3.734168 -10.416394 -0.630401 3.801063 -10.442779 -9.650940 -8.316417 13.492827 -60.959059 -34.138850 23.270491 -0.144248 -23.524565 0.164657 2.442194 2.622862 -13.217649 -5.882102 9.861279 0.702590 -10.936861 -0.360574 7.156197 0.000000 8.774815 0.000000 -15.731222 18.308666 6.483306 -1.844031 2.498503 -2.507276 -10.163590 4.678941 4.621104 -20.975996 -0.000001 0.000001 -21.226254 2.451698 -3.593995 0.000000 -0.000006 0.000000 -1.362681 2.240797 -0.746323 -21.334892 0.584910 3.008319 -13.821196 -0.000001 0.000001 -23.887129 -0.249075 -0.839485 -60.607685 2.881890 -1.241398 -0.294025 1.679686 0.833255 -14.218195 0.093215 1.300579 -34.212002 -0.287561 0.967166 -20.033176 0.964536 1.212838 0.000000 0.000000 0.000000 -3.440387 0.788233 0.501655 -15.928172 -3.167306 2.999703 -6.338817 0.000000 0.000001 -18.123419 3.648181 -4.905662 -0.000004 0.000000 -0.000002 10.737273 6.093475 14.108142 55.780851 16.740082 -15.162008 0.189937 19.284757 0.056289 -13.084377 -6.045844 -13.735270 2.243540 -5.255033 -3.180156 14.282877 -0.826594 6.952496 0.000000 -12.690593 -0.000001 16.129638 -17.481254 2.450247 1.665665 -1.955920 -2.878297 4.727794 -4.170584 4.993919 11.020511 0.000001 -0.000000 12.109032 -3.735715 -2.866778 0.000000 0.000000 0.000000 1.291985 -1.928548 -1.498088 14.800115 0.567467 3.865604 14.242553 -1.341738 -6.660648 19.631935 0.143921 -0.648243 48.957594 -0.474263 -6.156773 0.353029 -1.511150 -0.031940 20.222769 3.684305 2.316629 18.787249 0.000001 -0.000001 10.751608 -0.479870 1.397903 0.000000 0.000000 0.000000 3.273804 0.305947 -0.580110 21.486790 11.830364 2.266131 8.162915 0.000000 0.000000 18.399052 -3.798986 -4.940567 0.000003 0.000000 -0.000001 -6.428422 -4.087231 -6.134227 0.055661 -1.129499 -11.608206 -31.736298 0.992253 14.366214 1.054061 -2.322686 -1.276073 0.000000 0.000000 0.000002 -0.018667 -3.367571 -0.064486 -0.026169 -0.375620 18.514561 1.251795 -25.119818 -16.355671 -1.445397 1.066751 0.687285 0.000000 0.000000 -0.000001
0.000000 0.000000 0.000000 0.000000 0.000000 0.000000 3.628787 -1.582436 -0.562253 3.435620 -0.605982 -2.970959 1.223714 -0.556341 -5.290198 -0.382225 -0.923936 -6.941234 -2.092843 -3.908441 11.012631 4.291958 0.238381 5.200055 -4.155137 -12.116698 -3.044847 1.203264 -17.375543 -11.083260 0.000077 -0.000022 0.000006 0.013859 0.026435 0.067561 0.658057 -3.734795 -10.407814 -0.631883 3.796337 -10.433724 -9.554285 -8.374215 13.390296 -61.116973 -34.077699 23.369956 -0.090506 -23.393138 0.162850 2.429343 2.798010 -13.229740 -5.882102 9.861279 0.702590 -10.936861 -0.360574 7.156197 0.000000 8.774815 0.000000 -15.699785 18.311438 6.526186 -1.844031 2.498503 -2.507276 -10.163590 4.678941 4.621104 -20.975996 -0.000001 0.000001 -21.226254 2.451698 -3.593995 0.000000 -0.000006 0.000000 -1.362681 2.240797 -0.746323 -21.334892 0.584910 3.008319 -13.821196 -0.000001 0.000001 -23.887129 -0.249075 -0.839485 -60.624242 2.893491 -1.232400 -0.294025 1.679686 0.833255 -14.218195 0.093215 1.300579 -34.212002 -0.287561 0.967166 -20.033176 0.964536 1.212838 0.000000 0.000000 0.000000 -3.440387 0.788233 0.501655 -15.928172 -3.167306 2.999703 -6.338817 0.000000 0.000001 -18.123419 3.648181 -4.905662 -0.000004 0.000000 -0.000002 10.762916 6.061705 14.049741 55.748322 16.662893 -15.311361 0.181625 19.352175 0.051417 -12.894724 -6.054392 -13.949633 2.243540 -5.255033 -3.180156 14.282877 -0.826594 6.952496 0.000000 -12.690593 -0.000001 16.104956 -17.477523 2.470898 1.665665 -1.955920 -2.878297 4.727794 -4.170584 4.993919 11.020511 0.000001 -0.000000 12.109032 -3.735715 -2.866778 0.000000 0.000000 0.000000 1.291985 -1.928548 -1.498088 14.800115 0.567467 3.865604 14.242553 -1.341738 -6.660648 19.631935 0.143921 -0.648243 48.940727 -0.474593 -6.149372 0.353029 -1.511150 -0.031940 20.222769 3.684305 2.316629 18.787249 0.000001 -0.000001 10.751608 -0.479870 1.397903 0.000000 0.000000 0.000000 3.273804 0.305947 -0.580110 21.486790 11.830364 2.266131 8.162915 0.000000 0.000000 18.399052 -3.798986 -4.940567 0.000003 0.000000 -0.000001 -6.428422 -4.087231 -6.134227 0.055661 -1.129499 -11.608206 -31.736298 0.992253 14.366214 1.054061 -2.322686 -1.276073 0.000000 0.000000 0.000002 -0.018667 -3.367571 -0.064486 -0.026169 -0.375620 18.514561 1.251795 -25.119818 -16.355671 -1.445397 1.066751 0.687285 0.000000 0.000000 -0.000001
0.000000 0.000000 0.000000 0.000000 0.000000 0.000000 3.628787 -1.598030 -0.562253 3.435620 -0.605982 -2.970959 1.216991 -0.547623 -5.309412 -0.380378 -0.881670 -6.942211 -2.048647 -3.856526 10.927424 4.326065 0.206170 5.322250 -4.115437 -12.011722 -3.059272 1.243694 -17.407445 -10.969088 0.000077 -0.000022 0.000006 0.017352 0.043999 0.067011 0.662287 -3.714494 -10.397343 -0.629090 3.811117 -10.425392 -9.559250 -8.262835 13.334508 -61.125491 -33.957204 23.265615 -0.073864 -23.474207 0.154616 2.382033 2.982531 -13.261966 -5.882102 9.861279 0.702590 -10.936861 -0.360574 7.156197 0.000000 8.774815 0.000000 -15.701426 18.310332 6.539216 -1.844031 2.498503 -2.507276 -10.163590 4.678941 4.621104 -20.975996 -0.000001 0.000001 -21.226254 2.451698 -3.593995 0.000000 -0.000006 0.000000 -1.362681 2.240797 -0.746323 -21.334892 0.584910 3.008319 -13.821196 -0.000001 0.000001 -23.887129 -0.249075 -0.839485 -60.601960 2.884329 -1.239577 -0.294025 1.679686 0.833255 -14.218195 0.093215 1.300579 -34.212002 -0.287561 0.967166 -20.033176 0.964536 1.212838 0.000000 0.000000 0.000000 -3.440387 0.788233 0.501655 -15.928172 -3.167306 2.999703 -6.338817 0.000000 0.000001 -18.123419 3.648181 -4.905662 -0.000004 0.000000 -0.000002 10.809558 6.138465 14.068398 55.644158 16.654176 -15.311266 0.161361 19.454948 0.036286 -12.640715 -6.035931 -14.119634 2.243540 -5.255033 -3.180156 14.282877 -0.826594 6.952496 0.000000 -12.690593 -0.000001 16.064902 -17.454508 2.496973 1.665665 -1.955920 -2.878297 4.727794 -4.170584 4.993919 11.020511 0.000001 -0.000000 12.109032 -3.735715 -2.866778 0.000000 0.000000 0.000000 1.291985 -1.928548 -1.498088 14.800115 0.567467 3.865604 14.242553 -1.341738 -6.660648 19.631935 0.143921 -0.648243 48.939102 -0.462849 -6.134406 0.353029 -1.511150 -0.031940 20.222769 3.684305 2.316629 18.787249 0.000001 -0.000001 10.751608 -0.479870 1.397903 0.000000 0.000000 0.000000 3.273804 0.305947 -0.580110 21.486790 11.830364 2.266131 8.162915 0.000000 0.000000 18.399052 -3.798986 -4.940567 0.000003 0.000000 -0.000001 -6.428422 -4.087231 -6.134227 0.055661 -1.129499 -11.608206 -31.736298 0.992253 14.366214 1.054061 -2.322686 -1.276073 0.000000 0.000000 0.000002 -0.018667 -3.367571 -0.064486 -0.026169 -0.375620 18.514561 1.251795 -25.119818 -16.355671 -1.445397 1.066751 0.687285 0.000000 0.000000 -0.000001
0.000000 0.000000 0.000000 0.000000 0.000000 0.000000 3.628787 -1.610805 -0.562253 3.435620 -0.605982 -2.970959 1.239313 -0.525779 -5.368530 -0.377999 -0.839959 -6.948343 -2.052853 -3.801268 10.877072 4.331154 0.174184 5.462841 -4.062662 -11.904515 -3.073324 1.358582 -17.353716 -10.871546 0.000077 -0.000022 0.000006 0.013949 0.031360 0.074076 0.662339 -3.723650 -10.389118 -0.635823 3.795644 -10.412452 -9.523636 -8.103651 13.168676 -61.102544 -33.711273 23.060734 -0.162130 -23.635193 0.213311 2.396746 3.061691 -13.189906 -5.882102 9.861279 0.702590 -10.936861 -0.360574 7.156197 0.000000 8.774815 0.000000 -15.686351 18.358479 6.608754 -1.844031 2.498503 -2.507276 -10.163590 4.678941 4.621104 -20.975996 -0.000001 0.000001 -21.226254 2.451698 -3.593995 0.000000 -0.000006 0.000000 -1.362681 2.240797 -0.746323 -21.334892 0.584910 3.008319 -13.821196 -0.000001 0.000001 -23.887129 -0.249075 -0.839485 -60.627721 2.872352 -1.217836 -0.294025 1.679686 0.833255 -14.218195 0.093215 1.300579 -34.212002 -0.287561 0.967166 -20.033176 0.964536 1.212838 0.000000 0.000000 0.000000 -3.440387 0.788233 0.501655 -15.928172 -3.167306 2.999703 -6.338817 0.000000 0.000001 -18.123419 3.648181 -4.905662 -0.000004 0.000000 -0.000002 10.753709 6.249994 13.996148 55.674842 16.598501 -15.303249 0.259982 19.558432 0.065150 -12.413997 -5.966435 -14.360486 2.243540 -5.255033 -3.180156 14.282877 -0.826594 6.952496 0.000000 -12.690593 -0.000001 16.029811 -17.403370 2.516783 1.665665 -1.955920 -2.878297 4.727794 -4.170584 4.993919 11.020511 0.000001 -0.000000 12.109032 -3.735715 -2.866778 0.000000 0.000000 0.000000 1.291985 -1.928548 -1.498088 14.800115 0.567467 3.865604 14.242553 -1.341738 -6.660648 19.631935 0.143921 -0.648243 48.883353 -0.475043 -6.100144 0.353029 -1.511150 -0.031940 20.222769 3.684305 2.316629 18.787249 0.000001 -0.000001 10.751608 -0.479870 1.397903 0.000000 0.000000 0.000000 3.273804 0.305947 -0.580110 21.486790 11.830364 2.266131 8.162915 0.000000 0.000000 18.399052 -3.798986 -4.940567 0.000003 0.000000 -0.000001 -6.428422 -4.087231 -6.134227 0.055661 -1.129499 -11.608206 -31.736298 0.992253 14.366214 1.054061 -2.322686 -1.276073 0.000000 0.000000 0.000002 -0.018667 -3.367571 -0.064486 -0.026169 -0.375620 18.514561 1.251795 -25.119818 -16.355671 -1.445397 1.066751 0.687285 0.000000 0.000000 -0.000001
0.000000 0.000000 0.000000 0.000000 0.000000 0.000000 3.628787 -1.617406 -0.562253 3.435620 -0.605982 -2.970959 1.264021 -0.520791 -5.379287 -0.357127 -0.742406 -6.957171 -2.013941 -3.671378 10.797946 4.212279 0.183670 5.607061 -4.011654 -11.754342 -3.089265 1.515236 -17.349604 -10.712482 0.000077 -0.000022 0.000006 0.012285 0.036970 0.068999 0.668087 -3.716721 -10.403804 -0.644732 3.800521 -10.434667 -9.570372 -7.820902 13.068136 -61.016728 -33.408351 22.768774 -0.163020 -24.036639 0.209124 2.414056 3.204273 -13.134622 -5.882102 9.861279 0.702590 -10.936861 -0.360574 7.156197 0.000000 8.774815 0.000000 -15.757411 18.331267 6.570173 -1.844031 2.498503 -2.507276 -10.163590 4.678941 4.621104 -20.975996 -0.000001 0.000001 -21.226254 2.451698 -3.593995 0.000000 -0.000006 0.000000 -1.362681 2.240797 -0.746323 -21.334892 0.584910 3.008319 -13.821196 -0.000001 0.000001 -23.887129 -0.249075 -0.839485 -60.654404 2.839650 -1.198267 -0.294025 1.679686 0.833255 -14.218195 0.093215 1.300579 -34.212002 -0.287561 0.967166 -20.033176 0.964536 1.212838 0.000000 0.000000 0.000000 -3.440387 0.788233 0.501655 -15.928172 -3.167306 2.999703 -6.338817 0.000000 0.000001 -18.123419 3.648181 -4.905662 -0.000004 0.000000 -0.000002 10.706900 6.434818 14.030724 55.611008 16.624004 -14.846998 0.195571 19.690510 0.033858 -12.100378 -5.986837 -14.662959 2.243540 -5.255033 -3.180156 14.282877 -0.826594 6.952496 0.000000 -12.690593 -0.000001 16.021761 -17.380128 2.526333 1.665665 -1.955920 -2.878297 4.727794 -4.170584 4.993919 11.020511 0.000001 -0.000000 12.109032 -3.735715 -2.866778 0.000000 0.000000 0.000000 1.291985 -1.928548 -1.498088 14.800115 0.567467 3.865604 14.242553 -1.341738 -6.660648 19.631935 0.143921 -0.648243 48.950720 -0.496844 -6.120017 0.353029 -1.511150 -0.031940 20.222769 3.684305 2.316629 18.787249 0.000001 -0.000001 10.751608 -0.479870 1.397903 0.000000 0.000000 0.000000 3.273804 0.305947 -0.580110 21.486790 11.830364 2.266131 8.162915 0.000000 0.000000 18.399052 -3.798986 -4.940567 0.000003 0.000000 -0.000001 -6.428422 -4.087231 -6.134227 0.055661 -1.129499 -11.608206 -31.736298 0.992253 14.366214 1.054061 -2.322686 -1.276073 0.000000 0.000000 0.000002 -0.018667 -3.367571 -0.064486 -0.026169 -0.375620 18.514561 1.251795 -25.119818 -16.355671 -1.445397 1.066751 0.687285 0.000000 0.000000 -0.000001
