HIERARCHY
ROOT Root
{
  OFFSET 0.000000 0.000000 0.000000
  CHANNELS 6 Xposition Yposition Zposition Zrotation Yrotation Xrotation
  JOINT Hips
  {
    OFFSET 0.000000 100.000000 0.000000
    CHANNELS 6 Xposition Yposition Zposition Zrotation Yrotation Xrotation
    JOINT Spine1
    {
      OFFSET -0.013727 5.003763 -0.053727
      CHANNELS 3 Zrotation Yrotation Xrotation
      JOINT Spine2
      {
        OFFSET -0.000000 7.125301 -0.029825
        CHANNELS 3 Zrotation Yrotation Xrotation
        JOINT Chest
        {
          OFFSET -0.000001 7.550063 -0.815971
          CHANNELS 3 Zrotation Yrotation Xrotation
          JOINT Neck1
          {
            OFFSET -0.181677 26.311295 -0.553348
            CHANNELS 3 Zrotation Yrotation Xrotation
            JOINT Neck2
            {
              OFFSET -0.000003 7.709397 2.302585
              CHANNELS 3 Zrotation Yrotation Xrotation
              JOINT Head
              {
                OFFSET -0.000005 6.128916 1.953709
                CHANNELS 3 Zrotation Yrotation Xrotation
                JOINT HeadEnd
                {
                  OFFSET 0.003598 16.065403 -1.835379
                  CHANNELS 3 Zrotation Yrotation Xrotation
                }
                JOINT Jaw
                {
                  OFFSET 0.002637 0.475592 3.094941
                  CHANNELS 3 Zrotation Yrotation Xrotation
                }
                JOINT LeftEye
                {
                  OFFSET 3.206381 5.380205 7.586883
                  CHANNELS 3 Zrotation Yrotation Xrotation
                }
                JOINT RightEye
                {
                  OFFSET -3.222440 5.361869 7.558234
                  CHANNELS 3 Zrotation Yrotation Xrotation
                }
              }
            }
          }
          JOINT LeftShoulder
          {
            OFFSET 1.621652 23.237164 5.113413
            CHANNELS 3 Zrotation Yrotation Xrotation
            JOINT LeftArm
            {
              OFFSET 14.919846 0.000002 -5.502326
              CHANNELS 3 Zrotation Yrotation Xrotation
              JOINT LeftForeArm
              {
                OFFSET 28.739307 0.000000 -0.002588
                CHANNELS 3 Zrotation Yrotation Xrotation
                JOINT LeftHand
                {
                  OFFSET 27.093981 -0.000001 0.002609
                  CHANNELS 3 Zrotation Yrotation Xrotation
                  JOINT LeftHandThumb1
                  {
                    OFFSET 2.276482 -1.392045 3.191413
                    CHANNELS 3 Zrotation Yrotation Xrotation
                    JOINT LeftHandThumb2
                    {
                      OFFSET 4.012836 -1.828127 1.641654
                      CHANNELS 3 Zrotation Yrotation Xrotation
                      JOINT LeftHandThumb3
                      {
                        OFFSET 2.798515 0.000000 -0.000003
                        CHANNELS 3 Zrotation Yrotation Xrotation
                        JOINT LeftHandThumbEnd
                        {
                          OFFSET 3.180793 -0.000004 0.000004
                          CHANNELS 3 Zrotation Yrotation Xrotation
                        }
                      }
                    }
                  }
                  JOINT LeftHandIndex1
                  {
                    OFFSET 3.247555 -0.531998 2.296169
                    CHANNELS 3 Zrotation Yrotation Xrotation
                    JOINT LeftHandIndex2
                    {
                      OFFSET 6.364578 0.012060 0.178600
                      CHANNELS 3 Zrotation Yrotation Xrotation
                      JOINT LeftHandIndex3
                      {
                        OFFSET 3.662364 0.000000 0.000000
                        CHANNELS 3 Zrotation Yrotation Xrotation
                        JOINT LeftHandIndex4
                        {
                          OFFSET 2.329242 0.000004 0.000004
                          CHANNELS 3 Zrotation Yrotation Xrotation
                          JOINT LeftHandIndexEnd
                          {
                            OFFSET 2.759615 -0.180537 -0.113024
                            CHANNELS 3 Zrotation Yrotation Xrotation
                          }
                        }
                      }
                    }
                  }
                  JOINT LeftHandMiddle1
                  {
                    OFFSET 3.163495 0.240981 1.000332
                    CHANNELS 3 Zrotation Yrotation Xrotation
                    JOINT LeftHandMiddle2
                    {
                      OFFSET 6.190780 -0.259278 -1.002548
                      CHANNELS 3 Zrotation Yrotation Xrotation
                      JOINT LeftHandMiddle3
                      {
                        OFFSET 4.356520 -0.000004 -0.000001
                        CHANNELS 3 Zrotation Yrotation Xrotation
                        JOINT LeftHandMiddle4
                        {
                          OFFSET 2.996877 -0.000008 0.000000
                          CHANNELS 3 Zrotation Yrotation Xrotation
                          JOINT LeftHandMiddleEnd
                          {
                            OFFSET 2.304287 -0.294569 -0.031741
                            CHANNELS 3 Zrotation Yrotation Xrotation
                          }
                        }
                      }
                    }
                  }
                  JOINT LeftHandRing1
                  {
                    OFFSET 2.882643 -0.053652 -0.322543
                    CHANNELS 3 Zrotation Yrotation Xrotation
                    JOINT LeftHandRing2
                    {
                      OFFSET 5.854541 -0.486202 -1.373841
                      CHANNELS 3 Zrotation Yrotation Xrotation
                      JOINT LeftHandRing3
                      {
                        OFFSET 4.350578 0.000000 0.000003
                        CHANNELS 3 Zrotation Yrotation Xrotation
                        JOINT LeftHandRing4
                        {
                          OFFSET 2.651321 0.000007 0.000002
                          CHANNELS 3 Zrotation Yrotation Xrotation
                          JOINT LeftHandRingEnd
                          {
                            OFFSET 1.936105 0.077687 -0.000071
                            CHANNELS 3 Zrotation Yrotation Xrotation
                          }
                        }
                      }
                    }
                  }
                  JOINT LeftHandPinky1
                  {
                    OFFSET 2.865500 -0.310005 -1.600378
                    CHANNELS 3 Zrotation Yrotation Xrotation
                    JOINT LeftHandPinky2
                    {
                      OFFSET 5.087849 -1.331141 -1.771230
                      CHANNELS 3 Zrotation Yrotation Xrotation
                      JOINT LeftHandPinky3
                      {
                        OFFSET 3.070974 0.000004 0.000000
                        CHANNELS 3 Zrotation Yrotation Xrotation
                        JOINT LeftHandPinky4
                        {
                          OFFSET 1.549672 0.000000 0.000001
                          CHANNELS 3 Zrotation Yrotation Xrotation
                          JOINT LeftHandPinkyEnd
                          {
                            OFFSET 1.944893 -0.157802 0.057219
                            CHANNELS 3 Zrotation Yrotation Xrotation
                          }
                        }
                      }
                    }
                  }
                }
              }
            }
          }
          JOINT RightShoulder
          {
            OFFSET -1.380118 23.180309 5.214158
            CHANNELS 3 Zrotation Yrotation Xrotation
            JOINT RightArm
            {
              OFFSET -15.037196 0.000012 -5.545604
              CHANNELS 3 Zrotation Yrotation Xrotation
              JOINT RightForeArm
              {
                OFFSET -28.736639 0.000002 -0.002597
                CHANNELS 3 Zrotation Yrotation Xrotation
                JOINT RightHand
                {
                  OFFSET -27.133619 -0.000000 0.002613
                  CHANNELS 3 Zrotation Yrotation Xrotation
                  JOINT RightHandThumb1
                  {
                    OFFSET -2.274032 -1.383988 3.163127
                    CHANNELS 3 Zrotation Yrotation Xrotation
                    JOINT RightHandThumb2
                    {
                      OFFSET -4.011429 -1.827466 1.640914
                      CHANNELS 3 Zrotation Yrotation Xrotation
                      JOINT RightHandThumb3
                      {
                        OFFSET -2.794935 -0.000004 -0.000003
                        CHANNELS 3 Zrotation Yrotation Xrotation
                        JOINT RightHandThumbEnd
                        {
                          OFFSET -3.183852 0.000004 0.000001
                          CHANNELS 3 Zrotation Yrotation Xrotation
                        }
                      }
                    }
                  }
                  JOINT RightHandIndex1
                  {
                    OFFSET -3.253266 -0.520057 2.282866
                    CHANNELS 3 Zrotation Yrotation Xrotation
                    JOINT RightHandIndex2
                    {
                      OFFSET -6.341917 0.012471 0.178266
                      CHANNELS 3 Zrotation Yrotation Xrotation
                      JOINT RightHandIndex3
                      {
                        OFFSET -3.654871 -0.000008 -0.000000
                        CHANNELS 3 Zrotation Yrotation Xrotation
                        JOINT RightHandIndex4
                        {
                          OFFSET -2.327586 0.000000 0.000001
                          CHANNELS 3 Zrotation Yrotation Xrotation
                          JOINT RightHandIndexEnd
                          {
                            OFFSET -2.761790 -0.180656 -0.113078
                            CHANNELS 3 Zrotation Yrotation Xrotation
                          }
                        }
                      }
                    }
                  }
                  JOINT RightHandMiddle1
                  {
                    OFFSET -3.168106 0.246593 1.001030
                    CHANNELS 3 Zrotation Yrotation Xrotation
                    JOINT RightHandMiddle2
                    {
                      OFFSET -6.180828 -0.258836 -1.000895
                      CHANNELS 3 Zrotation Yrotation Xrotation
                      JOINT RightHandMiddle3
                      {
                        OFFSET -4.348901 0.000000 -0.000000
                        CHANNELS 3 Zrotation Yrotation Xrotation
                        JOINT RightHandMiddle4
                        {
                          OFFSET -3.000240 -0.000004 -0.000002
                          CHANNELS 3 Zrotation Yrotation Xrotation
                          JOINT RightHandMiddleEnd
                          {
                            OFFSET -2.302520 -0.294370 -0.031706
                            CHANNELS 3 Zrotation Yrotation Xrotation
                          }
                        }
                      }
                    }
                  }
                  JOINT RightHandRing1
                  {
                    OFFSET -2.885690 -0.067952 -0.308858
                    CHANNELS 3 Zrotation Yrotation Xrotation
                    JOINT RightHandRing2
                    {
                      OFFSET -5.854198 -0.486130 -1.373731
                      CHANNELS 3 Zrotation Yrotation Xrotation
                      JOINT RightHandRing3
                      {
                        OFFSET -4.338810 -0.000004 -0.000000
                        CHANNELS 3 Zrotation Yrotation Xrotation
                        JOINT RightHandRing4
                        {
                          OFFSET -2.654903 -0.000004 0.000004
                          CHANNELS 3 Zrotation Yrotation Xrotation
                          JOINT RightHandRingEnd
                          {
                            OFFSET -1.933568 0.077527 -0.000052
                            CHANNELS 3 Zrotation Yrotation Xrotation
                          }
                        }
                      }
                    }
                  }
                  JOINT RightHandPinky1
                  {
                    OFFSET -2.866425 -0.342796 -1.584145
                    CHANNELS 3 Zrotation Yrotation Xrotation
                    JOINT RightHandPinky2
                    {
                      OFFSET -5.091371 -1.332055 -1.772385
                      CHANNELS 3 Zrotation Yrotation Xrotation
                      JOINT RightHandPinky3
                      {
                        OFFSET -3.062664 -0.000004 0.000001
                        CHANNELS 3 Zrotation Yrotation Xrotation
                        JOINT RightHandPinky4
                        {
                          OFFSET -1.546529 0.000004 -0.000002
                          CHANNELS 3 Zrotation Yrotation Xrotation
                          JOINT RightHandPinkyEnd
                          {
                            OFFSET -1.945119 -0.157718 0.057211
                            CHANNELS 3 Zrotation Yrotation Xrotation
                          }
                        }
                      }
                    }
                  }
                }
              }
            }
          }
        }
      }
    }
    JOINT LeftLeg
    {
      OFFSET 10.043214 -8.434526 2.595655
      CHANNELS 3 Zrotation Yrotation Xrotation
      JOINT LeftShin
      {
        OFFSET -0.000001 -43.221752 -0.802913
        CHANNELS 3 Zrotation Yrotation Xrotation
        JOINT LeftFoot
        {
          OFFSET 0.000001 -42.155094 -3.481523
          CHANNELS 3 Zrotation Yrotation Xrotation
          JOINT LeftToeBase
          {
            OFFSET 0.000000 -5.059472 13.231529
            CHANNELS 3 Zrotation Yrotation Xrotation
            JOINT LeftToeEnd
            {
              OFFSET -0.009607 -1.647619 6.513017
              CHANNELS 3 Zrotation Yrotation Xrotation
            }
          }
        }
      }
    }
    JOINT RightLeg
    {
      OFFSET -10.047278 -8.295260 2.620317
      CHANNELS 3 Zrotation Yrotation Xrotation
      JOINT RightShin
      {
        OFFSET 0.000001 -43.362206 -0.805556
        CHANNELS 3 Zrotation Yrotation Xrotation
        JOINT RightFoot
        {
          OFFSET 0.000002 -42.117393 -3.478398
          CHANNELS 3 Zrotation Yrotation Xrotation
          JOINT RightToeBase
          {
            OFFSET -0.000000 -5.079609 13.284196
            CHANNELS 3 Zrotation Yrotation Xrotation
            JOINT RightToeEnd
            {
              OFFSET 0.009532 -1.634378 6.460591
              CHANNELS 3 Zrotation Yrotation Xrotation
            }
          }
        }
      }
    }
  }
}
MOTION
Frames: 30
Frame Time: 0.03333333
0.000000 0.000000 0.000000 0.000000 -0.000000 0.000000 -6.053204 -3.113376 9.359248 -2.809531 -0.666990 -0.052158 5.193272 -0.926584 -4.897109 -0.077239 -4.079935 -6.452083 0.232998 -8.615007 13.455338 9.829685 -0.943848 6.653997 -5.385001 -14.910902 -2.731783 0.819765 -18.652916 4.213664 0.000077 -0.000022 0.000006 0.015301 -0.010566 -0.090117 0.820194 -3.646960 -10.610078 -0.791314 3.631918 -10.503202 5.240293 -20.284153 4.475084 13.211295 -81.973511 -48.589108 -1.581227 -18.427441 -0.338449 41.901676 5.705995 -44.845730 -5.882102 9.861279 0.702590 -10.936861 -0.360574 7.156197 0.000000 8.774815 -0.000000 -14.733492 16.831758 6.878611 -1.844031 2.498503 -2.507276 -10.163590 4.678941 4.621104 -20.975996 -0.000001 0.000001 -21.226254 2.451698 -3.593995 0.000000 -0.000006 -0.000000 -1.362681 2.240797 -0.746323 -21.334892 0.584910 3.008319 -13.821196 -0.000001 0.000001 -23.887129 -0.249075 -0.839485 -61.179260 2.299281 -1.621872 -0.294025 1.679686 0.833255 -14.218195 0.093215 1.300579 -34.212002 -0.287561 0.967166 -20.033176 0.964536 1.212838 0.000000 -0.000000 0.000000 -3.440387 0.788233 0.501655 -15.928172 -3.167306 2.999703 -6.338817 -0.000000 0.000001 -18.123419 3.648181 -4.905662 -0.000004 0.000000 -0.000002 4.821503 13.354092 11.839865 13.937123 -19.300081 -33.705620 -0.382911 47.482849 1.038401 -54.550922 13.575191 -3.504530 2.243540 -5.255033 -3.180156 14.282877 -0.826594 6.952496 -0.000000 -12.690593 -0.000001 17.610836 -18.745329 2.376378 1.665665 -1.955920 -2.878297 4.727794 -4.170584 4.993919 11.020511 0.000001 -0.000000 12.109032 -3.735715 -2.866778 0.000000 -0.000000 0.000000 1.291985 -1.928548 -1.498088 14.800115 0.567467 3.865604 14.242553 -1.341738 -6.660648 19.631935 0.143921 -0.648243 52.144577 -0.619164 -7.106496 0.353029 -1.511150 -0.031940 20.222769 3.684305 2.316629 18.787249 0.000001 -0.000001 10.751608 -0.479870 1.397903 0.000000 -0.000000 0.000000 3.273804 0.305947 -0.580110 21.486790 11.830364 2.266131 8.162915 0.000000 -0.000000 18.399052 -3.798986 -4.940567 0.000003 0.000000 -0.000001 2.046574 4.621841 1.200066 0.023989 -0.278995 29.621250 12.467546 -24.481241 -20.143719 1.655200 -1.591503 -4.240312 0.000000 -0.000000 0.000002 4.853330 -8.628178 -16.750864 -0.163511 -0.493310 33.083500 2.792732 2.657240 -14.928055 -1.436178 0.826816 -0.025044 0.000000 -0.000000 -0.000001
0.000000 0.000000 0.000000 0.000000 -0.000000 0.000000 -6.053204 -3.119533 9.359248 -2.809531 -0.666990 -0.052158 5.226564 -0.943497 -4.916394 -0.061775 -4.108028 -6.445735 0.268956 -8.729914 13.474406 9.864701 -0.909542 6.666176 -5.433688 -14.903749 -2.737797 0.640398 -18.568476 4.512309 0.000077 -0.000022 0.000006 0.022854 -0.021764 -0.081914 0.820721 -3.654653 -10.580193 -0.777151 3.617797 -10.473948 5.270825 -20.322136 4.305406 11.930429 -82.104095 -47.304478 -1.587997 -18.078381 -0.323175 41.831314 5.810537 -44.438477 -5.882102 9.861279 0.702590 -10.936861 -0.360574 7.156197 0.000000 8.774815 -0.000000 -14.827735 16.751781 6.887543 -1.844031 2.498503 -2.507276 -10.163590 4.678941 4.621104 -20.975996 -0.000001 0.000001 -21.226254 2.451698 -3.593995 0.000000 -0.000006 -0.000000 -1.362681 2.240797 -0.746323 -21.334892 0.584910 3.008319 -13.821196 -0.000001 0.000001 -23.887129 -0.249075 -0.839485 -61.287910 2.254135 -1.543351 -0.294025 1.679686 0.833255 -14.218195 0.093215 1.300579 -34.212002 -0.287561 0.967166 -20.033176 0.964536 1.212838 0.000000 -0.000000 0.000000 -3.440387 0.788233 0.501655 -15.928172 -3.167306 2.999703 -6.338817 -0.000000 0.000001 -18.123419 3.648181 -4.905662 -0.000004 0.000000 -0.000002 4.814806 13.308333 11.876581 13.606962 -19.326954 -33.711693 0.118385 47.104576 1.452014 -54.614735 13.338139 -4.154219 2.243540 -5.255033 -3.180156 14.282877 -0.826594 6.952496 -0.000000 -12.690593 -0.000001 17.667776 -18.696548 2.316223 1.665665 -1.955920 -2.878297 4.727794 -4.170584 4.993919 11.020511 0.000001 -0.000000 12.109032 -3.735715 -2.866778 0.000000 -0.000000 0.000000 1.291985 -1.928548 -1.498088 14.800115 0.567467 3.865604 14.242553 -1.341738 -6.660648 19.631935 0.143921 -0.648243 52.128017 -0.586182 -7.054655 0.353029 -1.511150 -0.031940 20.222769 3.684305 2.316629 18.787249 0.000001 -0.000001 10.751608 -0.479870 1.397903 0.000000 -0.000000 0.000000 3.273804 0.305947 -0.580110 21.486790 11.830364 2.266131 8.162915 0.000000 -0.000000 18.399052 -3.798986 -4.940567 0.000003 0.000000 -0.000001 2.046574 4.621841 1.200066 0.023989 -0.278995 29.621250 12.467546 -24.481241 -20.143719 1.655200 -1.591503 -4.240312 0.000000 -0.000000 0.000002 4.853330 -8.628178 -16.750864 -0.163511 -0.493310 33.083500 2.792732 2.657240 -14.928055 -1.436178 0.826816 -0.025044 0.000000 -0.000000 -0.000001
0.000000 0.000000 0.000000 0.000000 -0.000000 0.000000 -6.053204 -3.111255 9.359248 -2.809531 -0.666990 -0.052158 5.259794 -0.963966 -4.888002 -0.034146 -4.018417 -6.422184 0.300493 -8.671583 13.431507 9.744164 -0.887958 6.689002 -5.328512 -14.775385 -2.684196 0.562983 -18.447830 4.631680 0.000077 -0.000022 0.000006 0.016665 -0.016616 -0.079739 0.817150 -3.655064 -10.608358 -0.786462 3.628793 -10.497472 5.257942 -20.301594 4.268750 11.653222 -82.035706 -47.175743 -1.602502 -17.760046 -0.334534 41.862206 5.610214 -44.048512 -5.882102 9.861279 0.702590 -10.936861 -0.360574 7.156197 0.000000 8.774815 -0.000000 -14.779800 16.815071 6.892843 -1.844031 2.498503 -2.507276 -10.163590 4.678941 4.621104 -20.975996 -0.000001 0.000001 -21.226254 2.451698 -3.593995 0.000000 -0.000006 -0.000000 -1.362681 2.240797 -0.746323 -21.334892 0.584910 3.008319 -13.821196 -0.000001 0.000001 -23.887129 -0.249075 -0.839485 -61.220406 2.233017 -1.528954 -0.294025 1.679686 0.833255 -14.218195 0.093215 1.300579 -34.212002 -0.287561 0.967166 -20.033176 0.964536 1.212838 0.000000 -0.000000 0.000000 -3.440387 0.788233 0.501655 -15.928172 -3.167306 2.999703 -6.338817 -0.000000 0.000001 -18.123419 3.648181 -4.905662 -0.000004 0.000000 -0.000002 4.600820 13.418766 11.714931 13.350094 -19.040325 -33.484253 0.388883 46.539566 1.409331 -54.468224 13.385122 -4.588154 2.243540 -5.255033 -3.180156 14.282877 -0.826594 6.952496 -0.000000 -12.690593 -0.000001 17.665037 -18.666595 2.271327 1.665665 -1.955920 -2.878297 4.727794 -4.170584 4.993919 11.020511 0.000001 -0.000000 12.109032 -3.735715 -2.866778 0.000000 -0.000000 0.000000 1.291985 -1.928548 -1.498088 14.800115 0.567467 3.865604 14.242553 -1.341738 -6.660648 19.631935 0.143921 -0.648243 52.190639 -0.562718 -7.081450 0.353029 -1.511150 -0.031940 20.222769 3.684305 2.316629 18.787249 0.000001 -0.000001 10.751608 -0.479870 1.397903 0.000000 -0.000000 0.000000 3.273804 0.305947 -0.580110 21.486790 11.830364 2.266131 8.162915 0.000000 -0.000000 18.399052 -3.798986 -4.940567 0.000003 0.000000 -0.000001 2.046574 4.621841 1.200066 0.023989 -0.278995 29.621250 12.467546 -24.481241 -20.143719 1.655200 -1.591503 -4.240312 0.000000 -0.000000 0.000002 4.853330 -8.628178 -16.750864 -0.163511 -0.493310 33.083500 2.792732 2.657240 -14.928055 -1.436178 0.826816 -0.025044 0.000000 -0.000000 -0.000001
0.000000 0.000000 0.000000 0.000000 -0.000000 0.000000 -6.053204 -3.103969 9.359248 -2.809531 -0.666990 -0.052158 5.271512 -0.959913 -4.890049 -0.015656 -3.964363 -6.406081 0.330921 -8.611048 13.409658 9.697153 -0.887753 6.601889 -5.311904 -14.556323 -2.668688 0.451484 -18.378584 4.760937 0.000077 -0.000022 0.000006 0.015296 -0.017220 -0.077082 0.817593 -3.659771 -10.610825 -0.789814 3.632360 -10.504220 5.214889 -20.226559 4.193573 11.008546 -81.999207 -46.622898 -1.600019 -17.515503 -0.357029 41.888084 5.504586 -43.499355 -5.882102 9.861279 0.702590 -10.936861 -0.360574 7.156197 0.000000 8.774815 -0.000000 -14.765868 16.866888 6.930268 -1.844031 2.498503 -2.507276 -10.163590 4.678941 4.621104 -20.975996 -0.000001 0.000001 -21.226254 2.451698 -3.593995 0.000000 -0.000006 -0.000000 -1.362681 2.240797 -0.746323 -21.334892 0.584910 3.008319 -13.821196 -0.000001 0.000001 -23.887129 -0.249075 -0.839485 -61.233276 2.260207 -1.506749 -0.294025 1.679686 0.833255 -14.218195 0.093215 1.300579 -34.212002 -0.287561 0.967166 -20.033176 0.964536 1.212838 0.000000 -0.000000 0.000000 -3.440387 0.788233 0.501655 -15.928172 -3.167306 2.999703 -6.338817 -0.000000 0.000001 -18.123419 3.648181 -4.905662 -0.000004 0.000000 -0.000002 4.479304 13.571231 11.706874 13.085659 -18.866659 -33.520672 0.738603 46.103626 1.525953 -54.288582 13.410429 -4.936188 2.243540 -5.255033 -3.180156 14.282877 -0.826594 6.952496 -0.000000 -12.690593 -0.000001 17.692741 -18.619194 2.234360 1.665665 -1.955920 -2.878297 4.727794 -4.170584 4.993919 11.020511 0.000001 -0.000000 12.109032 -3.735715 -2.866778 0.000000 -0.000000 0.000000 1.291985 -1.928548 -1.498088 14.800115 0.567467 3.865604 14.242553 -1.341738 -6.660648 19.631935 0.143921 -0.648243 52.215336 -0.565330 -7.076064 0.353029 -1.511150 -0.031940 20.222769 3.684305 2.316629 18.787249 0.000001 -0.000001 10.751608 -0.479870 1.397903 0.000000 -0.000000 0.000000 3.273804 0.305947 -0.580110 21.486790 11.830364 2.266131 8.162915 0.000000 -0.000000 18.399052 -3.798986 -4.940567 0.000003 0.000000 -0.000001 2.046574 4.621841 1.200066 0.023989 -0.278995 29.621250 12.467546 -24.481241 -20.143719 1.655200 -1.591503 -4.240312 0.000000 -0.000000 0.000002 4.853330 -8.628178 -16.750864 -0.163511 -0.493310 33.083500 2.792732 2.657240 -14.928055 -1.436178 0.826816 -0.025044 0.000000 -0.000000 -0.000001
0.000000 0.000000 0.000000 0.000000 -0.000000 0.000000 -6.053204 -3.108645 9.359248 -2.809531 -0.666990 -0.052158 5.285926 -0.948006 -4.888189 0.002627 -3.916425 -6.395410 0.363684 -8.520932 13.373676 9.667560 -0.884471 6.472932 -5.306355 -14.379639 -2.664983 0.364122 -18.331713 4.854527 0.000077 -0.000022 0.000006 0.015205 -0.021194 -0.076814 0.820564 -3.665820 -10.613976 -0.793195 3.630929 -10.511416 5.161466 -20.158600 4.126538 10.388944 -81.886330 -46.100727 -1.626440 -17.429150 -0.359219 41.957478 5.343390 -43.055592 -5.882102 9.861279 0.702590 -10.936861 -0.360574 7.156197 0.000000 8.774815 -0.000000 -14.742353 16.928892 6.958236 -1.844031 2.498503 -2.507276 -10.163590 4.678941 4.621104 -20.975996 -0.000001 0.000001 -21.226254 2.451698 -3.593995 0.000000 -0.000006 -0.000000 -1.362681 2.240797 -0.746323 -21.334892 0.584910 3.008319 -13.821196 -0.000001 0.000001 -23.887129 -0.249075 -0.839485 -61.192184 2.295002 -1.504632 -0.294025 1.679686 0.833255 -14.218195 0.093215 1.300579 -34.212002 -0.287561 0.967166 -20.033176 0.964536 1.212838 0.000000 -0.000000 0.000000 -3.440387 0.788233 0.501655 -15.928172 -3.167306 2.999703 -6.338817 -0.000000 0.000001 -18.123419 3.648181 -4.905662 -0.000004 0.000000 -0.000002 4.380084 13.694520 11.680734 12.841154 -18.741234 -33.548580 0.968095 45.845024 1.585962 -54.091183 13.482301 -5.126747 2.243540 -5.255033 -3.180156 14.282877 -0.826594 6.952496 -0.000000 -12.690593 -0.000001 17.731403 -18.591696 2.213665 1.665665 -1.955920 -2.878297 4.727794 -4.170584 4.993919 11.020511 0.000001 -0.000000 12.109032 -3.735715 -2.866778 0.000000 -0.000000 0.000000 1.291985 -1.928548 -1.498088 14.800115 0.567467 3.865604 14.242553 -1.341738 -6.660648 19.631935 0.143921 -0.648243 52.250393 -0.562455 -7.069095 0.353029 -1.511150 -0.031940 20.222769 3.684305 2.316629 18.787249 0.000001 -0.000001 10.751608 -0.479870 1.397903 0.000000 -0.000000 0.000000 3.273804 0.305947 -0.580110 21.486790 11.830364 2.266131 8.162915 0.000000 -0.000000 18.399052 -3.798986 -4.940567 0.000003 0.000000 -0.000001 2.046574 4.621841 1.200066 0.023989 -0.278995 29.621250 12.467546 -24.481241 -20.143719 1.655200 -1.591503 -4.240312 0.000000 -0.000000 0.000002 4.853330 -8.628178 -16.750864 -0.163511 -0.493310 33.083500 2.792732 2.657240 -14.928055 -1.436178 0.826816 -0.025044 0.000000 -0.000000 -0.000001
0.000000 0.000000 0.000000 0.000000 -0.000000 0.000000 -6.053204 -3.116878 9.359248 -2.809531 -0.666990 -0.052158 5.307148 -0.933171 -4.873403 0.019948 -3.888343 -6.393938 0.391507 -8.413918 13.339202 9.669467 -0.876075 6.306407 -5.308943 -14.255381 -2.678321 0.298317 -18.286224 4.933283 0.000077 -0.000022 0.000006 0.012698 -0.019523 -0.077698 0.821771 -3.664945 -10.615625 -0.799412 3.633388 -10.515026 5.084579 -20.068485 4.106694 9.775459 -81.732056 -45.601391 -1.656222 -17.511312 -0.343579 42.099434 5.118004 -42.730392 -5.882102 9.861279 0.702590 -10.936861 -0.360574 7.156197 0.000000 8.774815 -0.000000 -14.715095 16.990782 6.964274 -1.844031 2.498503 -2.507276 -10.163590 4.678941 4.621104 -20.975996 -0.000001 0.000001 -21.226254 2.451698 -3.593995 0.000000 -0.000006 -0.000000 -1.362681 2.240797 -0.746323 -21.334892 0.584910 3.008319 -13.821196 -0.000001 0.000001 -23.887129 -0.249075 -0.839485 -61.145329 2.324958 -1.509604 -0.294025 1.679686 0.833255 -14.218195 0.093215 1.300579 -34.212002 -0.287561 0.967166 -20.033176 0.964536 1.212838 0.000000 -0.000000 0.000000 -3.440387 0.788233 0.501655 -15.928172 -3.167306 2.999703 -6.338817 -0.000000 0.000001 -18.123419 3.648181 -4.905662 -0.000004 0.000000 -0.000002 4.342923 13.780373 11.686125 12.634730 -18.683918 -33.610001 1.026569 45.820602 1.541471 -53.892384 13.535452 -5.088098 2.243540 -5.255033 -3.180156 14.282877 -0.826594 6.952496 -0.000000 -12.690593 -0.000001 17.794626 -18.599884 2.214358 1.665665 -1.955920 -2.878297 4.727794 -4.170584 4.993919 11.020511 0.000001 -0.000000 12.109032 -3.735715 -2.866778 0.000000 -0.000000 0.000000 1.291985 -1.928548 -1.498088 14.800115 0.567467 3.865604 14.242553 -1.341738 -6.660648 19.631935 0.143921 -0.648243 52.362148 -0.536556 -7.067160 0.353029 -1.511150 -0.031940 20.222769 3.684305 2.316629 18.787249 0.000001 -0.000001 10.751608 -0.479870 1.397903 0.000000 -0.000000 0.000000 3.273804 0.305947 -0.580110 21.486790 11.830364 2.266131 8.162915 0.000000 -0.000000 18.399052 -3.798986 -4.940567 0.000003 0.000000 -0.000001 2.046574 4.621841 1.200066 0.023989 -0.278995 29.621250 12.467546 -24.481241 -20.143719 1.655200 -1.591503 -4.240312 0.000000 -0.000000 0.000002 4.853330 -8.628178 -16.750864 -0.163511 -0.493310 33.083500 2.792732 2.657240 -14.928055 -1.436178 0.826816 -0.025044 0.000000 -0.000000 -0.000001
0.000000 0.000000 0.000000 0.000000 -0.000000 0.000000 -6.053204 -3.129229 9.359248 -2.809531 -0.666990 -0.052158 5.345209 -0.924363 -4.866277 0.040649 -3.878600 -6.394952 0.423062 -8.332717 13.295815 9.721657 -0.864789 6.124556 -5.331434 -14.185696 -2.708318 0.258445 -18.251261 5.009464 0.000077 -0.000022 0.000006 0.011717 -0.017932 -0.082320 0.824133 -3.662940 -10.617260 -0.803533 3.634561 -10.519841 4.984462 -19.959497 4.116911 8.960800 -81.563828 -44.891129 -1.673779 -17.748758 -0.334028 42.245270 4.862933 -42.420380 -5.882102 9.861279 0.702590 -10.936861 -0.360574 7.156197 0.000000 8.774815 -0.000000 -14.696216 17.046759 6.975783 -1.844031 2.498503 -2.507276 -10.163590 4.678941 4.621104 -20.975996 -0.000001 0.000001 -21.226254 2.451698 -3.593995 0.000000 -0.000006 -0.000000 -1.362681 2.240797 -0.746323 -21.334892 0.584910 3.008319 -13.821196 -0.000001 0.000001 -23.887129 -0.249075 -0.839485 -61.130665 2.341357 -1.521600 -0.294025 1.679686 0.833255 -14.218195 0.093215 1.300579 -34.212002 -0.287561 0.967166 -20.033176 0.964536 1.212838 0.000000 -0.000000 0.000000 -3.440387 0.788233 0.501655 -15.928172 -3.167306 2.999703 -6.338817 -0.000000 0.000001 -18.123419 3.648181 -4.905662 -0.000004 0.000000 -0.000002 4.388367 13.798224 11.700802 12.429328 -18.725086 -33.606171 0.931071 46.056423 1.437140 -53.744221 13.574696 -4.802984 2.243540 -5.255033 -3.180156 14.282877 -0.826594 6.952496 -0.000000 -12.690593 -0.000001 17.838634 -18.630219 2.245378 1.665665 -1.955920 -2.878297 4.727794 -4.170584 4.993919 11.020511 0.000001 -0.000000 12.109032 -3.735715 -2.866778 0.000000 -0.000000 0.000000 1.291985 -1.928548 -1.498088 14.800115 0.567467 3.865604 14.242553 -1.341738 -6.660648 19.631935 0.143921 -0.648243 52.468021 -0.538267 -7.071180 0.353029 -1.511150 -0.031940 20.222769 3.684305 2.316629 18.787249 0.000001 -0.000001 10.751608 -0.479870 1.397903 0.000000 -0.000000 0.000000 3.273804 0.305947 -0.580110 21.486790 11.830364 2.266131 8.162915 0.000000 -0.000000 18.399052 -3.798986 -4.940567 0.000003 0.000000 -0.000001 2.046574 4.621841 1.200066 0.023989 -0.278995 29.621250 12.467546 -24.481241 -20.143719 1.655200 -1.591503 -4.240312 0.000000 -0.000000 0.000002 4.853330 -8.628178 -16.750864 -0.163511 -0.493310 33.083500 2.792732 2.657240 -14.928055 -1.436178 0.826816 -0.025044 0.000000 -0.000000 -0.000001
0.000000 0.000000 0.000000 0.000000 -0.000000 0.000000 -6.053204 -3.135150 9.359248 -2.809531 -0.666990 -0.052158 5.386604 -0.922488 -4.885090 0.061037 -3.897601 -6.396374 0.458763 -8.305926 13.255178 9.819971 -0.867948 5.953983 -5.362890 -14.138538 -2.745396 0.236978 -18.226789 5.072821 0.000077 -0.000022 0.000006 0.012919 -0.019056 -0.086935 0.827759 -3.664937 -10.624019 -0.804437 3.634112 -10.532171 4.860475 -19.848948 4.162493 8.025759 -81.375275 -43.962265 -1.673391 -18.099695 -0.327318 42.349567 4.632776 -42.077621 -5.882102 9.861279 0.702590 -10.936861 -0.360574 7.156197 0.000000 8.774815 -0.000000 -14.707517 17.075985 6.975488 -1.844031 2.498503 -2.507276 -10.163590 4.678941 4.621104 -20.975996 -0.000001 0.000001 -21.226254 2.451698 -3.593995 0.000000 -0.000006 -0.000000 -1.362681 2.240797 -0.746323 -21.334892 0.584910 3.008319 -13.821196 -0.000001 0.000001 -23.887129 -0.249075 -0.839485 -61.145924 2.334396 -1.543214 -0.294025 1.679686 0.833255 -14.218195 0.093215 1.300579 -34.212002 -0.287561 0.967166 -20.033176 0.964536 1.212838 0.000000 -0.000000 0.000000 -3.440387 0.788233 0.501655 -15.928172 -3.167306 2.999703 -6.338817 -0.000000 0.000001 -18.123419 3.648181 -4.905662 -0.000004 0.000000 -0.000002 4.499210 13.749545 11.743121 12.273349 -18.877485 -33.704624 0.801516 46.586060 1.356655 -53.578899 13.707074 -4.229870 2.243540 -5.255033 -3.180156 14.282877 -0.826594 6.952496 -0.000000 -12.690593 -0.000001 17.826511 -18.650471 2.273726 1.665665 -1.955920 -2.878297 4.727794 -4.170584 4.993919 11.020511 0.000001 -0.000000 12.109032 -3.735715 -2.866778 0.000000 -0.000000 0.000000 1.291985 -1.928548 -1.498088 14.800115 0.567467 3.865604 14.242553 -1.341738 -6.660648 19.631935 0.143921 -0.648243 52.469223 -0.588452 -7.073055 0.353029 -1.511150 -0.031940 20.222769 3.684305 2.316629 18.787249 0.000001 -0.000001 10.751608 -0.479870 1.397903 0.000000 -0.000000 0.000000 3.273804 0.305947 -0.580110 21.486790 11.830364 2.266131 8.162915 0.000000 -0.000000 18.399052 -3.798986 -4.940567 0.000003 0.000000 -0.000001 2.046574 4.621841 1.200066 0.023989 -0.278995 29.621250 12.467546 -24.481241 -20.143719 1.655200 -1.591503 -4.240312 0.000000 -0.000000 0.000002 4.853330 -8.628178 -16.750864 -0.163511 -0.493310 33.083500 2.792732 2.657240 -14.928055 -1.436178 0.826816 -0.025044 0.000000 -0.000000 -0.000001
0.000000 0.000000 0.000000 0.000000 -0.000000 0.000000 -6.053204 -3.134707 9.359248 -2.809531 -0.666990 -0.052158 5.441511 -0.915539 -4.926022 0.080799 -3.931129 -6.402374 0.499443 -8.339298 13.229117 9.944987 -0.879377 5.796426 -5.385241 -14.122285 -2.781390 0.222311 -18.174282 5.150240 0.000077 -0.000022 0.000006 0.013813 -0.017969 -0.092698 0.828981 -3.665227 -10.633636 -0.803540 3.636365 -10.546287 4.726838 -19.749622 4.247884 6.991753 -81.178307 -42.814117 -1.653525 -18.545891 -0.333738 42.465122 4.440376 -41.667545 -5.882102 9.861279 0.702590 -10.936861 -0.360574 7.156197 0.000000 8.774815 -0.000000 -14.761623 17.076387 6.948331 -1.844031 2.498503 -2.507276 -10.163590 4.678941 4.621104 -20.975996 -0.000001 0.000001 -21.226254 2.451698 -3.593995 0.000000 -0.000006 -0.000000 -1.362681 2.240797 -0.746323 -21.334892 0.584910 3.008319 -13.821196 -0.000001 0.000001 -23.887129 -0.249075 -0.839485 -61.189003 2.289898 -1.577087 -0.294025 1.679686 0.833255 -14.218195 0.093215 1.300579 -34.212002 -0.287561 0.967166 -20.033176 0.964536 1.212838 0.000000 -0.000000 0.000000 -3.440387 0.788233 0.501655 -15.928172 -3.167306 2.999703 -6.338817 -0.000000 0.000001 -18.123419 3.648181 -4.905662 -0.000004 0.000000 -0.000002 4.655027 13.635382 11.813295 12.227889 -19.117229 -34.000355 0.663210 47.400940 1.345348 -53.458252 13.930740 -3.512272 2.243540 -5.255033 -3.180156 14.282877 -0.826594 6.952496 -0.000000 -12.690593 -0.000001 17.762266 -18.651258 2.302870 1.665665 -1.955920 -2.878297 4.727794 -4.170584 4.993919 11.020511 0.000001 -0.000000 12.109032 -3.735715 -2.866778 0.000000 -0.000000 0.000000 1.291985 -1.928548 -1.498088 14.800115 0.567467 3.865604 14.242553 -1.341738 -6.660648 19.631935 0.143921 -0.648243 52.403023 -0.664325 -7.089029 0.353029 -1.511150 -0.031940 20.222769 3.684305 2.316629 18.787249 0.000001 -0.000001 10.751608 -0.479870 1.397903 0.000000 -0.000000 0.000000 3.273804 0.305947 -0.580110 21.486790 11.830364 2.266131 8.162915 0.000000 -0.000000 18.399052 -3.798986 -4.940567 0.000003 0.000000 -0.000001 2.046574 4.621841 1.200066 0.023989 -0.278995 29.621250 12.467546 -24.481241 -20.143719 1.655200 -1.591503 -4.240312 0.000000 -0.000000 0.000002 4.853330 -8.628178 -16.750864 -0.163511 -0.493310 33.083500 2.792732 2.657240 -14.928055 -1.436178 0.826816 -0.025044 0.000000 -0.000000 -0.000001
0.000000 0.000000 0.000000 0.000000 -0.000000 0.000000 -6.053204 -3.135505 9.359248 -2.809531 -0.666990 -0.052158 5.515398 -0.911526 -4.967406 0.092237 -3.964986 -6.418980 0.548760 -8.403119 13.202345 10.073430 -0.916376 5.648170 -5.375167 -14.116606 -2.808055 0.203733 -18.107044 5.231651 0.000077 -0.000022 0.000006 0.014031 -0.015738 -0.098275 0.828690 -3.663874 -10.641551 -0.802398 3.638759 -10.555396 4.609578 -19.672808 4.309252 5.535780 -81.041908 -41.144321 -1.588528 -18.994989 -0.346321 42.595356 4.264408 -41.205051 -5.882102 9.861279 0.702590 -10.936861 -0.360574 7.156197 0.000000 8.774815 -0.000000 -14.827487 17.061630 6.919449 -1.844031 2.498503 -2.507276 -10.163590 4.678941 4.621104 -20.975996 -0.000001 0.000001 -21.226254 2.451698 -3.593995 0.000000 -0.000006 -0.000000 -1.362681 2.240797 -0.746323 -21.334892 0.584910 3.008319 -13.821196 -0.000001 0.000001 -23.887129 -0.249075 -0.839485 -61.243221 2.229593 -1.595542 -0.294025 1.679686 0.833255 -14.218195 0.093215 1.300579 -34.212002 -0.287561 0.967166 -20.033176 0.964536 1.212838 0.000000 -0.000000 0.000000 -3.440387 0.788233 0.501655 -15.928172 -3.167306 2.999703 -6.338817 -0.000000 0.000001 -18.123419 3.648181 -4.905662 -0.000004 0.000000 -0.000002 4.816642 13.471952 11.827987 12.285473 -19.416714 -34.282951 0.516427 48.345329 1.349765 -53.344707 14.169086 -2.751768 2.243540 -5.255033 -3.180156 14.282877 -0.826594 6.952496 -0.000000 -12.690593 -0.000001 17.711481 -18.636940 2.320884 1.665665 -1.955920 -2.878297 4.727794 -4.170584 4.993919 11.020511 0.000001 -0.000000 12.109032 -3.735715 -2.866778 0.000000 -0.000000 0.000000 1.291985 -1.928548 -1.498088 14.800115 0.567467 3.865604 14.242553 -1.341738 -6.660648 19.631935 0.143921 -0.648243 52.287167 -0.723888 -7.103603 0.353029 -1.511150 -0.031940 20.222769 3.684305 2.316629 18.787249 0.000001 -0.000001 10.751608 -0.479870 1.397903 0.000000 -0.000000 0.000000 3.273804 0.305947 -0.580110 21.486790 11.830364 2.266131 8.162915 0.000000 -0.000000 18.399052 -3.798986 -4.940567 0.000003 0.000000 -0.000001 2.046574 4.621841 1.200066 0.023989 -0.278995 29.621250 12.467546 -24.481241 -20.143719 1.655200 -1.591503 -4.240312 0.000000 -0.000000 0.000002 4.853330 -8.628178 -16.750864 -0.163511 -0.493310 33.083500 2.792732 2.657240 -14.928055 -1.436178 0.826816 -0.025044 0.000000 -0.000000 -0.000001
0.000000 0.000000 0.000000 0.000000 -0.000000 0.000000 -6.053204 -3.142079 9.359248 -2.809531 -0.666990 -0.052158 5.584702 -0.902267 -4.988433 0.096517 -3.993908 -6.435661 0.606428 -8.469488 13.149741 10.193157 -0.963736 5.511407 -5.352586 -14.135411 -2.815711 0.186705 -18.042467 5.333965 0.000077 -0.000022 0.000006 0.015966 -0.019836 -0.100642 0.830921 -3.665700 -10.641859 -0.800448 3.631727 -10.553467 4.508614 -19.637251 4.345556 3.746837 -80.950523 -39.142536 -1.514043 -19.405090 -0.362698 42.776272 4.010713 -40.534355 -5.882102 9.861279 0.702590 -10.936861 -0.360574 7.156197 0.000000 8.774815 -0.000000 -14.857549 17.065996 6.920969 -1.844031 2.498503 -2.507276 -10.163590 4.678941 4.621104 -20.975996 -0.000001 0.000001 -21.226254 2.451698 -3.593995 0.000000 -0.000006 -0.000000 -1.362681 2.240797 -0.746323 -21.334892 0.584910 3.008319 -13.821196 -0.000001 0.000001 -23.887129 -0.249075 -0.839485 -61.281025 2.184451 -1.586103 -0.294025 1.679686 0.833255 -14.218195 0.093215 1.300579 -34.212002 -0.287561 0.967166 -20.033176 0.964536 1.212838 0.000000 -0.000000 0.000000 -3.440387 0.788233 0.501655 -15.928172 -3.167306 2.999703 -6.338817 -0.000000 0.000001 -18.123419 3.648181 -4.905662 -0.000004 0.000000 -0.000002 4.956792 13.275174 11.750942 12.399287 -19.711990 -34.395676 0.396783 49.228783 1.338581 -53.239082 14.345325 -1.954966 2.243540 -5.255033 -3.180156 14.282877 -0.826594 6.952496 -0.000000 -12.690593 -0.000001 17.693340 -18.624372 2.330357 1.665665 -1.955920 -2.878297 4.727794 -4.170584 4.993919 11.020511 0.000001 -0.000000 12.109032 -3.735715 -2.866778 0.000000 -0.000000 0.000000 1.291985 -1.928548 -1.498088 14.800115 0.567467 3.865604 14.242553 -1.341738 -6.660648 19.631935 0.143921 -0.648243 52.173630 -0.741622 -7.110026 0.353029 -1.511150 -0.031940 20.222769 3.684305 2.316629 18.787249 0.000001 -0.000001 10.751608 -0.479870 1.397903 0.000000 -0.000000 0.000000 3.273804 0.305947 -0.580110 21.486790 11.830364 2.266131 8.162915 0.000000 -0.000000 18.399052 -3.798986 -4.940567 0.000003 0.000000 -0.000001 2.046574 4.621841 1.200066 0.023989 -0.278995 29.621250 12.467546 -24.481241 -20.143719 1.655200 -1.591503 -4.240312 0.000000 -0.000000 0.000002 4.853330 -8.628178 -16.750864 -0.163511 -0.493310 33.083500 2.792732 2.657240 -14.928055 -1.436178 0.826816 -0.025044 0.000000 -0.000000 -0.000001
0.000000 0.000000 0.000000 0.000000 -0.000000 0.000000 -6.053204 -3.148241 9.359248 -2.809531 -0.666990 -0.052158 5.640048 -0.897768 -4.991620 0.095347 -4.013734 -6.445602 0.676161 -8.550240 13.077962 10.281340 -1.009328 5.361812 -5.320808 -14.169188 -2.805684 0.158457 -17.975613 5.465742 0.000077 -0.000022 0.000006 0.016824 -0.023517 -0.101521 0.832742 -3.665977 -10.639337 -0.800341 3.623989 -10.547285 4.425333 -19.655291 4.354030 1.803158 -80.879387 -36.955128 -1.442408 -19.775284 -0.398661 43.008507 3.720046 -39.632717 -5.882102 9.861279 0.702590 -10.936861 -0.360574 7.156197 0.000000 8.774815 -0.000000 -14.859960 17.074909 6.939235 -1.844031 2.498503 -2.507276 -10.163590 4.678941 4.621104 -20.975996 -0.000001 0.000001 -21.226254 2.451698 -3.593995 0.000000 -0.000006 -0.000000 -1.362681 2.240797 -0.746323 -21.334892 0.584910 3.008319 -13.821196 -0.000001 0.000001 -23.887129 -0.249075 -0.839485 -61.315723 2.160152 -1.565084 -0.294025 1.679686 0.833255 -14.218195 0.093215 1.300579 -34.212002 -0.287561 0.967166 -20.033176 0.964536 1.212838 0.000000 -0.000000 0.000000 -3.440387 0.788233 0.501655 -15.928172 -3.167306 2.999703 -6.338817 -0.000000 0.000001 -18.123419 3.648181 -4.905662 -0.000004 0.000000 -0.000002 5.064857 13.060395 11.604828 12.520269 -19.973761 -34.349232 0.368606 49.903591 1.362120 -53.218460 14.456720 -1.168235 2.243540 -5.255033 -3.180156 14.282877 -0.826594 6.952496 -0.000000 -12.690593 -0.000001 17.710087 -18.592031 2.317592 1.665665 -1.955920 -2.878297 4.727794 -4.170584 4.993919 11.020511 0.000001 -0.000000 12.109032 -3.735715 -2.866778 0.000000 -0.000000 0.000000 1.291985 -1.928548 -1.498088 14.800115 0.567467 3.865604 14.242553 -1.341738 -6.660648 19.631935 0.143921 -0.648243 52.082203 -0.718364 -7.083128 0.353029 -1.511150 -0.031940 20.222769 3.684305 2.316629 18.787249 0.000001 -0.000001 10.751608 -0.479870 1.397903 0.000000 -0.000000 0.000000 3.273804 0.305947 -0.580110 21.486790 11.830364 2.266131 8.162915 0.000000 -0.000000 18.399052 -3.798986 -4.940567 0.000003 0.000000 -0.000001 2.046574 4.621841 1.200066 0.023989 -0.278995 29.621250 12.467546 -24.481241 -20.143719 1.655200 -1.591503 -4.240312 0.000000 -0.000000 0.000002 4.853330 -8.628178 -16.750864 -0.163511 -0.493310 33.083500 2.792732 2.657240 -14.928055 -1.436178 0.826816 -0.025044 0.000000 -0.000000 -0.000001
0.000000 0.000000 0.000000 0.000000 -0.000000 0.000000 -6.053204 -3.147191 9.359248 -2.809531 -0.666990 -0.052158 5.671377 -0.890429 -4.991195 0.092408 -4.033048 -6.442636 0.746575 -8.634030 12.999173 10.338796 -1.024248 5.205146 -5.292593 -14.156850 -2.780590 0.105787 -17.931948 5.636607 0.000077 -0.000022 0.000006 0.015161 -0.025085 -0.100751 0.832842 -3.666552 -10.633559 -0.803724 3.621034 -10.540171 4.298072 -19.669891 4.355108 -0.065960 -80.878136 -34.874870 -1.384682 -20.062990 -0.453921 43.243313 3.233211 -38.338207 -5.882102 9.861279 0.702590 -10.936861 -0.360574 7.156197 0.000000 8.774815 -0.000000 -14.831999 17.113525 6.966198 -1.844031 2.498503 -2.507276 -10.163590 4.678941 4.621104 -20.975996 -0.000001 0.000001 -21.226254 2.451698 -3.593995 0.000000 -0.000006 -0.000000 -1.362681 2.240797 -0.746323 -21.334892 0.584910 3.008319 -13.821196 -0.000001 0.000001 -23.887129 -0.249075 -0.839485 -61.355331 2.171650 -1.543214 -0.294025 1.679686 0.833255 -14.218195 0.093215 1.300579 -34.212002 -0.287561 0.967166 -20.033176 0.964536 1.212838 0.000000 -0.000000 0.000000 -3.440387 0.788233 0.501655 -15.928172 -3.167306 2.999703 -6.338817 -0.000000 0.000001 -18.123419 3.648181 -4.905662 -0.000004 0.000000 -0.000002 5.174362 12.887815 11.468086 12.613783 -20.217926 -34.147526 0.332392 50.350452 1.397882 -53.339943 14.460844 -0.314868 2.243540 -5.255033 -3.180156 14.282877 -0.826594 6.952496 -0.000000 -12.690593 -0.000001 17.715359 -18.559422 2.316300 1.665665 -1.955920 -2.878297 4.727794 -4.170584 4.993919 11.020511 0.000001 -0.000000 12.109032 -3.735715 -2.866778 0.000000 -0.000000 0.000000 1.291985 -1.928548 -1.498088 14.800115 0.567467 3.865604 14.242553 -1.341738 -6.660648 19.631935 0.143921 -0.648243 52.021927 -0.676194 -7.034744 0.353029 -1.511150 -0.031940 20.222769 3.684305 2.316629 18.787249 0.000001 -0.000001 10.751608 -0.479870 1.397903 0.000000 -0.000000 0.000000 3.273804 0.305947 -0.580110 21.486790 11.830364 2.266131 8.162915 0.000000 -0.000000 18.399052 -3.798986 -4.940567 0.000003 0.000000 -0.000001 2.046574 4.621841 1.200066 0.023989 -0.278995 29.621250 12.467546 -24.481241 -20.143719 1.655200 -1.591503 -4.240312 0.000000 -0.000000 0.000002 4.853330 -8.628178 -16.750864 -0.163511 -0.493310 33.083500 2.792732 2.657240 -14.928055 -1.436178 0.826816 -0.025044 0.000000 -0.000000 -0.000001
0.000000 0.000000 0.000000 0.000000 -0.000000 0.000000 -6.053204 -3.149182 9.359248 -2.809531 -0.666990 -0.052158 5.690561 -0.886375 -5.054309 0.079416 -4.080731 -6.447339 0.782812 -8.772467 12.991642 10.360025 -1.035644 4.993852 -5.275622 -14.112700 -2.784026 0.026749 -17.920519 5.834146 0.000077 -0.000022 0.000006 0.015212 -0.025807 -0.097457 0.827948 -3.666469 -10.618458 -0.798869 3.619764 -10.525965 4.177727 -19.691750 4.250764 -2.259468 -80.961647 -32.370499 -1.362348 -20.258755 -0.471881 43.377033 2.810726 -36.964092 -5.882102 9.861279 0.702590 -10.936861 -0.360574 7.156197 0.000000 8.774815 -0.000000 -14.878942 17.081585 6.989005 -1.844031 2.498503 -2.507276 -10.163590 4.678941 4.621104 -20.975996 -0.000001 0.000001 -21.226254 2.451698 -3.593995 0.000000 -0.000006 -0.000000 -1.362681 2.240797 -0.746323 -21.334892 0.584910 3.008319 -13.821196 -0.000001 0.000001 -23.887129 -0.249075 -0.839485 -61.480167 2.159646 -1.488682 -0.294025 1.679686 0.833255 -14.218195 0.093215 1.300579 -34.212002 -0.287561 0.967166 -20.033176 0.964536 1.212838 0.000000 -0.000000 0.000000 -3.440387 0.788233 0.501655 -15.928172 -3.167306 2.999703 -6.338817 -0.000000 0.000001 -18.123419 3.648181 -4.905662 -0.000004 0.000000 -0.000002 5.308777 12.727520 11.409154 12.638167 -20.462408 -34.093735 0.677279 50.582642 1.809515 -53.769569 14.339745 0.342485 2.243540 -5.255033 -3.180156 14.282877 -0.826594 6.952496 -0.000000 -12.690593 -0.000001 17.807163 -18.508198 2.280666 1.665665 -1.955920 -2.878297 4.727794 -4.170584 4.993919 11.020511 0.000001 -0.000000 12.109032 -3.735715 -2.866778 0.000000 -0.000000 0.000000 1.291985 -1.928548 -1.498088 14.800115 0.567467 3.865604 14.242553 -1.341738 -6.660648 19.631935 0.143921 -0.648243 52.076096 -0.616993 -6.973945 0.353029 -1.511150 -0.031940 20.222769 3.684305 2.316629 18.787249 0.000001 -0.000001 10.751608 -0.479870 1.397903 0.000000 -0.000000 0.000000 3.273804 0.305947 -0.580110 21.486790 11.830364 2.266131 8.162915 0.000000 -0.000000 18.399052 -3.798986 -4.940567 0.000003 0.000000 -0.000001 2.046574 4.621841 1.200066 0.023989 -0.278995 29.621250 12.467546 -24.481241 -20.143719 1.655200 -1.591503 -4.240312 0.000000 -0.000000 0.000002 4.853330 -8.628178 -16.750864 -0.163511 -0.493310 33.083500 2.792732 2.657240 -14.928055 -1.436178 0.826816 -0.025044 0.000000 -0.000000 -0.000001
0.000000 0.000000 0.000000 0.000000 -0.000000 0.000000 -6.053204 -3.141503 9.359248 -2.809531 -0.666990 -0.052158 5.693292 -0.879403 -5.067718 0.093593 -4.026969 -6.433606 0.806719 -8.750247 12.944510 10.232021 -1.029590 4.908096 -5.146101 -14.028165 -2.729876 0.015405 -17.862368 6.000308 0.000077 -0.000022 0.000006 0.010271 -0.022305 -0.102956 0.829792 -3.663113 -10.641423 -0.811154 3.624312 -10.545291 4.045108 -19.671865 4.256376 -2.950117 -80.993309 -31.518780 -1.342644 -20.317909 -0.497636 43.579552 2.094481 -35.646618 -5.882102 9.861279 0.702590 -10.936861 -0.360574 7.156197 0.000000 8.774815 -0.000000 -14.810239 17.144794 6.989258 -1.844031 2.498503 -2.507276 -10.163590 4.678941 4.621104 -20.975996 -0.000001 0.000001 -21.226254 2.451698 -3.593995 0.000000 -0.000006 -0.000000 -1.362681 2.240797 -0.746323 -21.334892 0.584910 3.008319 -13.821196 -0.000001 0.000001 -23.887129 -0.249075 -0.839485 -61.440182 2.146602 -1.498293 -0.294025 1.679686 0.833255 -14.218195 0.093215 1.300579 -34.212002 -0.287561 0.967166 -20.033176 0.964536 1.212838 0.000000 -0.000000 0.000000 -3.440387 0.788233 0.501655 -15.928172 -3.167306 2.999703 -6.338817 -0.000000 0.000001 -18.123419 3.648181 -4.905662 -0.000004 0.000000 -0.000002 5.238261 12.740710 11.213890 12.653707 -20.416853 -33.616238 0.515311 50.398129 1.614429 -54.016190 14.257258 1.035785 2.243540 -5.255033 -3.180156 14.282877 -0.826594 6.952496 -0.000000 -12.690593 -0.000001 17.766310 -18.475389 2.303221 1.665665 -1.955920 -2.878297 4.727794 -4.170584 4.993919 11.020511 0.000001 -0.000000 12.109032 -3.735715 -2.866778 0.000000 -0.000000 0.000000 1.291985 -1.928548 -1.498088 14.800115 0.567467 3.865604 14.242553 -1.341738 -6.660648 19.631935 0.143921 -0.648243 52.154678 -0.574115 -6.983662 0.353029 -1.511150 -0.031940 20.222769 3.684305 2.316629 18.787249 0.000001 -0.000001 10.751608 -0.479870 1.397903 0.000000 -0.000000 0.000000 3.273804 0.305947 -0.580110 21.486790 11.830364 2.266131 8.162915 0.000000 -0.000000 18.399052 -3.798986 -4.940567 0.000003 0.000000 -0.000001 2.046574 4.621841 1.200066 0.023989 -0.278995 29.621250 12.467546 -24.481241 -20.143719 1.655200 -1.591503 -4.240312 0.000000 -0.000000 0.000002 4.853330 -8.628178 -16.750864 -0.163511 -0.493310 33.083500 2.792732 2.657240 -14.928055 -1.436178 0.826816 -0.025044 0.000000 -0.000000 -0.000001
0.000000 0.000000 0.000000 0.000000 -0.000000 0.000000 -6.053204 -3.134189 9.359248 -2.809531 -0.666990 -0.052158 5.684977 -0.862141 -5.106681 0.104216 -3.999777 -6.424372 0.812661 -8.743255 12.921645 10.146553 -1.008405 4.808654 -5.121506 -13.916313 -2.707870 -0.042287 -17.862202 6.188832 0.000077 -0.000022 0.000006 0.013542 -0.031488 -0.104414 0.833605 -3.672684 -10.637526 -0.808782 3.616671 -10.543906 3.867371 -19.610350 4.213805 -3.438027 -81.108528 -30.773079 -1.353670 -20.227028 -0.502198 43.682850 1.665006 -34.612103 -5.882102 9.861279 0.702590 -10.936861 -0.360574 7.156197 0.000000 8.774815 -0.000000 -14.746250 17.161858 7.056169 -1.844031 2.498503 -2.507276 -10.163590 4.678941 4.621104 -20.975996 -0.000001 0.000001 -21.226254 2.451698 -3.593995 0.000000 -0.000006 -0.000000 -1.362681 2.240797 -0.746323 -21.334892 0.584910 3.008319 -13.821196 -0.000001 0.000001 -23.887129 -0.249075 -0.839485 -61.486073 2.151150 -1.465206 -0.294025 1.679686 0.833255 -14.218195 0.093215 1.300579 -34.212002 -0.287561 0.967166 -20.033176 0.964536 1.212838 0.000000 -0.000000 0.000000 -3.440387 0.788233 0.501655 -15.928172 -3.167306 2.999703 -6.338817 -0.000000 0.000001 -18.123419 3.648181 -4.905662 -0.000004 0.000000 -0.000002 5.219748 12.812157 11.108585 12.511397 -20.393126 -33.286510 0.536362 50.082134 1.665730 -54.238575 14.091300 1.276959 2.243540 -5.255033 -3.180156 14.282877 -0.826594 6.952496 -0.000000 -12.690593 -0.000001 17.726524 -18.447536 2.316930 1.665665 -1.955920 -2.878297 4.727794 -4.170584 4.993919 11.020511 0.000001 -0.000000 12.109032 -3.735715 -2.866778 0.000000 -0.000000 0.000000 1.291985 -1.928548 -1.498088 14.800115 0.567467 3.865604 14.242553 -1.341738 -6.660648 19.631935 0.143921 -0.648243 52.183304 -0.569948 -6.979373 0.353029 -1.511150 -0.031940 20.222769 3.684305 2.316629 18.787249 0.000001 -0.000001 10.751608 -0.479870 1.397903 0.000000 -0.000000 0.000000 3.273804 0.305947 -0.580110 21.486790 11.830364 2.266131 8.162915 0.000000 -0.000000 18.399052 -3.798986 -4.940567 0.000003 0.000000 -0.000001 2.046574 4.621841 1.200066 0.023989 -0.278995 29.621250 12.467546 -24.481241 -20.143719 1.655200 -1.591503 -4.240312 0.000000 -0.000000 0.000002 4.853330 -8.628178 -16.750864 -0.163511 -0.493310 33.083500 2.792732 2.657240 -14.928055 -1.436178 0.826816 -0.025044 0.000000 -0.000000 -0.000001
0.000000 0.000000 0.000000 0.000000 -0.000000 0.000000 -6.053204 -3.126608 9.359248 -2.809531 -0.666990 -0.052158 5.671853 -0.839586 -5.126349 0.116467 -3.955136 -6.418743 0.800867 -8.718450 12.896755 10.050706 -0.972395 4.734799 -5.124616 -13.831731 -2.690093 -0.071690 -17.875122 6.378777 0.000077 -0.000022 0.000006 0.018930 -0.042547 -0.108825 0.839778 -3.683178 -10.632247 -0.804395 3.605962 -10.541866 3.719216 -19.575562 4.185531 -3.165773 -81.205719 -30.812132 -1.407178 -20.045603 -0.485319 43.686386 1.443893 -34.098152 -5.882102 9.861279 0.702590 -10.936861 -0.360574 7.156197 0.000000 8.774815 -0.000000 -14.715965 17.187197 7.129244 -1.844031 2.498503 -2.507276 -10.163590 4.678941 4.621104 -20.975996 -0.000001 0.000001 -21.226254 2.451698 -3.593995 0.000000 -0.000006 -0.000000 -1.362681 2.240797 -0.746323 -21.334892 0.584910 3.008319 -13.821196 -0.000001 0.000001 -23.887129 -0.249075 -0.839485 -61.519978 2.147318 -1.433646 -0.294025 1.679686 0.833255 -14.218195 0.093215 1.300579 -34.212002 -0.287561 0.967166 -20.033176 0.964536 1.212838 0.000000 -0.000000 0.000000 -3.440387 0.788233 0.501655 -15.928172 -3.167306 2.999703 -6.338817 -0.000000 0.000001 -18.123419 3.648181 -4.905662 -0.000004 0.000000 -0.000002 5.148404 12.924450 11.006719 12.319671 -20.307364 -32.962082 0.490508 49.625538 1.668812 -54.291912 13.891248 1.333530 2.243540 -5.255033 -3.180156 14.282877 -0.826594 6.952496 -0.000000 -12.690593 -0.000001 17.690891 -18.448826 2.341612 1.665665 -1.955920 -2.878297 4.727794 -4.170584 4.993919 11.020511 0.000001 -0.000000 12.109032 -3.735715 -2.866778 0.000000 -0.000000 0.000000 1.291985 -1.928548 -1.498088 14.800115 0.567467 3.865604 14.242553 -1.341738 -6.660648 19.631935 0.143921 -0.648243 52.213905 -0.587448 -6.983704 0.353029 -1.511150 -0.031940 20.222769 3.684305 2.316629 18.787249 0.000001 -0.000001 10.751608 -0.479870 1.397903 0.000000 -0.000000 0.000000 3.273804 0.305947 -0.580110 21.486790 11.830364 2.266131 8.162915 0.000000 -0.000000 18.399052 -3.798986 -4.940567 0.000003 0.000000 -0.000001 2.046574 4.621841 1.200066 0.023989 -0.278995 29.621250 12.467546 -24.481241 -20.143719 1.655200 -1.591503 -4.240312 0.000000 -0.000000 0.000002 4.853330 -8.628178 -16.750864 -0.163511 -0.493310 33.083500 2.792732 2.657240 -14.928055 -1.436178 0.826816 -0.025044 0.000000 -0.000000 -0.000001
0.000000 0.000000 0.000000 0.000000 -0.000000 0.000000 -6.053204 -3.114512 9.359248 -2.809531 -0.666990 -0.052158 5.661134 -0.816249 -5.122072 0.128120 -3.915417 -6.418702 0.764312 -8.662690 12.876938 9.961816 -0.934134 4.659091 -5.149666 -13.790572 -2.676135 -0.092596 -17.891544 6.528302 0.000077 -0.000022 0.000006 0.018465 -0.039272 -0.111807 0.841709 -3.682459 -10.631228 -0.807179 3.611899 -10.543803 3.598895 -19.580830 4.194120 -2.145550 -81.323250 -31.619053 -1.489980 -19.731314 -0.431561 43.580280 1.356358 -33.949356 -5.882102 9.861279 0.702590 -10.936861 -0.360574 7.156197 0.000000 8.774815 -0.000000 -14.700326 17.236740 7.173280 -1.844031 2.498503 -2.507276 -10.163590 4.678941 4.621104 -20.975996 -0.000001 0.000001 -21.226254 2.451698 -3.593995 0.000000 -0.000006 -0.000000 -1.362681 2.240797 -0.746323 -21.334892 0.584910 3.008319 -13.821196 -0.000001 0.000001 -23.887129 -0.249075 -0.839485 -61.516319 2.149498 -1.407817 -0.294025 1.679686 0.833255 -14.218195 0.093215 1.300579 -34.212002 -0.287561 0.967166 -20.033176 0.964536 1.212838 0.000000 -0.000000 0.000000 -3.440387 0.788233 0.501655 -15.928172 -3.167306 2.999703 -6.338817 -0.000000 0.000001 -18.123419 3.648181 -4.905662 -0.000004 0.000000 -0.000002 5.002211 13.071353 10.931597 12.185067 -20.175428 -32.689667 0.350867 49.035446 1.578550 -54.127045 13.599297 1.294100 2.243540 -5.255033 -3.180156 14.282877 -0.826594 6.952496 -0.000000 -12.690593 -0.000001 17.696188 -18.487045 2.347053 1.665665 -1.955920 -2.878297 4.727794 -4.170584 4.993919 11.020511 0.000001 -0.000000 12.109032 -3.735715 -2.866778 0.000000 -0.000000 0.000000 1.291985 -1.928548 -1.498088 14.800115 0.567467 3.865604 14.242553 -1.341738 -6.660648 19.631935 0.143921 -0.648243 52.283970 -0.581539 -7.016521 0.353029 -1.511150 -0.031940 20.222769 3.684305 2.316629 18.787249 0.000001 -0.000001 10.751608 -0.479870 1.397903 0.000000 -0.000000 0.000000 3.273804 0.305947 -0.580110 21.486790 11.830364 2.266131 8.162915 0.000000 -0.000000 18.399052 -3.798986 -4.940567 0.000003 0.000000 -0.000001 2.046574 4.621841 1.200066 0.023989 -0.278995 29.621250 12.467546 -24.481241 -20.143719 1.655200 -1.591503 -4.240312 0.000000 -0.000000 0.000002 4.853330 -8.628178 -16.750864 -0.163511 -0.493310 33.083500 2.792732 2.657240 -14.928055 -1.436178 0.826816 -0.025044 0.000000 -0.000000 -0.000001
0.000000 0.000000 0.000000 0.000000 -0.000000 0.000000 -6.053204 -3.099879 9.359248 -2.809531 -0.666990 -0.052158 5.645786 -0.804431 -5.104531 0.134338 -3.894021 -6.415087 0.712545 -8.596195 12.853043 9.890454 -0.903486 4.568497 -5.184378 -13.787914 -2.670386 -0.104538 -17.912006 6.637316 0.000077 -0.000022 0.000006 0.014342 -0.026652 -0.112575 0.838160 -3.675889 -10.637139 -0.811626 3.630204 -10.551438 3.478463 -19.640709 4.253210 -0.429988 -81.467010 -33.076206 -1.559425 -19.270910 -0.379284 43.313931 1.316128 -33.956669 -5.882102 9.861279 0.702590 -10.936861 -0.360574 7.156197 0.000000 8.774815 -0.000000 -14.687880 17.287357 7.187763 -1.844031 2.498503 -2.507276 -10.163590 4.678941 4.621104 -20.975996 -0.000001 0.000001 -21.226254 2.451698 -3.593995 0.000000 -0.000006 -0.000000 -1.362681 2.240797 -0.746323 -21.334892 0.584910 3.008319 -13.821196 -0.000001 0.000001 -23.887129 -0.249075 -0.839485 -61.437649 2.167804 -1.388138 -0.294025 1.679686 0.833255 -14.218195 0.093215 1.300579 -34.212002 -0.287561 0.967166 -20.033176 0.964536 1.212838 0.000000 -0.000000 0.000000 -3.440387 0.788233 0.501655 -15.928172 -3.167306 2.999703 -6.338817 -0.000000 0.000001 -18.123419 3.648181 -4.905662 -0.000004 0.000000 -0.000002 4.817666 13.225347 10.853644 12.104551 -20.061020 -32.373596 0.134285 48.361271 1.407788 -53.826454 13.238604 1.277922 2.243540 -5.255033 -3.180156 14.282877 -0.826594 6.952496 -0.000000 -12.690593 -0.000001 17.731880 -18.524542 2.336441 1.665665 -1.955920 -2.878297 4.727794 -4.170584 4.993919 11.020511 0.000001 -0.000000 12.109032 -3.735715 -2.866778 0.000000 -0.000000 0.000000 1.291985 -1.928548 -1.498088 14.800115 0.567467 3.865604 14.242553 -1.341738 -6.660648 19.631935 0.143921 -0.648243 52.379482 -0.574864 -7.048050 0.353029 -1.511150 -0.031940 20.222769 3.684305 2.316629 18.787249 0.000001 -0.000001 10.751608 -0.479870 1.397903 0.000000 -0.000000 0.000000 3.273804 0.305947 -0.580110 21.486790 11.830364 2.266131 8.162915 0.000000 -0.000000 18.399052 -3.798986 -4.940567 0.000003 0.000000 -0.000001 2.046574 4.621841 1.200066 0.023989 -0.278995 29.621250 12.467546 -24.481241 -20.143719 1.655200 -1.591503 -4.240312 0.000000 -0.000000 0.000002 4.853330 -8.628178 -16.750864 -0.163511 -0.493310 33.083500 2.792732 2.657240 -14.928055 -1.436178 0.826816 -0.025044 0.000000 -0.000000 -0.000001
0.000000 0.000000 0.000000 0.000000 -0.000000 0.000000 -6.053204 -3.090274 9.359248 -2.809531 -0.666990 -0.052158 5.628960 -0.802632 -5.094803 0.138238 -3.904459 -6.409153 0.659150 -8.538264 12.818308 9.820411 -0.882023 4.474845 -5.228239 -13.831817 -2.669030 -0.109483 -17.946289 6.741894 0.000077 -0.000022 0.000006 0.010104 -0.014320 -0.113295 0.833104 -3.669956 -10.651199 -0.814903 3.648651 -10.566535 3.351088 -19.747868 4.321654 1.478662 -81.602089 -34.702019 -1.617344 -18.771605 -0.346899 42.946163 1.297248 -33.907513 -5.882102 9.861279 0.702590 -10.936861 -0.360574 7.156197 0.000000 8.774815 -0.000000 -14.710293 17.312605 7.176575 -1.844031 2.498503 -2.507276 -10.163590 4.678941 4.621104 -20.975996 -0.000001 0.000001 -21.226254 2.451698 -3.593995 0.000000 -0.000006 -0.000000 -1.362681 2.240797 -0.746323 -21.334892 0.584910 3.008319 -13.821196 -0.000001 0.000001 -23.887129 -0.249075 -0.839485 -61.370434 2.189657 -1.377815 -0.294025 1.679686 0.833255 -14.218195 0.093215 1.300579 -34.212002 -0.287561 0.967166 -20.033176 0.964536 1.212838 0.000000 -0.000000 0.000000 -3.440387 0.788233 0.501655 -15.928172 -3.167306 2.999703 -6.338817 -0.000000 0.000001 -18.123419 3.648181 -4.905662 -0.000004 0.000000 -0.000002 4.629952 13.372446 10.752032 12.048358 -20.021782 -31.994738 -0.088624 47.716373 1.223948 -53.362083 12.819446 1.437405 2.243540 -5.255033 -3.180156 14.282877 -0.826594 6.952496 -0.000000 -12.690593 -0.000001 17.801506 -18.586981 2.308045 1.665665 -1.955920 -2.878297 4.727794 -4.170584 4.993919 11.020511 0.000001 -0.000000 12.109032 -3.735715 -2.866778 0.000000 -0.000000 0.000000 1.291985 -1.928548 -1.498088 14.800115 0.567467 3.865604 14.242553 -1.341738 -6.660648 19.631935 0.143921 -0.648243 52.478416 -0.587673 -7.090408 0.353029 -1.511150 -0.031940 20.222769 3.684305 2.316629 18.787249 0.000001 -0.000001 10.751608 -0.479870 1.397903 0.000000 -0.000000 0.000000 3.273804 0.305947 -0.580110 21.486790 11.830364 2.266131 8.162915 0.000000 -0.000000 18.399052 -3.798986 -4.940567 0.000003 0.000000 -0.000001 2.046574 4.621841 1.200066 0.023989 -0.278995 29.621250 12.467546 -24.481241 -20.143719 1.655200 -1.591503 -4.240312 0.000000 -0.000000 0.000002 4.853330 -8.628178 -16.750864 -0.163511 -0.493310 33.083500 2.792732 2.657240 -14.928055 -1.436178 0.826816 -0.025044 0.000000 -0.000000 -0.000001
0.000000 0.000000 0.000000 0.000000 -0.000000 0.000000 -6.053204 -3.082980 9.359248 -2.809531 -0.666990 -0.052158 5.624935 -0.814895 -5.102569 0.136358 -3.936329 -6.402897 0.618205 -8.521791 12.781199 9.744518 -0.836947 4.382691 -5.284056 -13.931921 -2.669432 -0.106203 -17.966345 6.893511 0.000077 -0.000022 0.000006 0.009578 -0.009431 -0.114842 0.828701 -3.669181 -10.667266 -0.811395 3.657125 -10.579164 3.205576 -19.887554 4.403511 3.498300 -81.721581 -36.365379 -1.643492 -18.349529 -0.334177 42.614872 1.334125 -33.850346 -5.882102 9.861279 0.702590 -10.936861 -0.360574 7.156197 0.000000 8.774815 -0.000000 -14.754558 17.305332 7.154521 -1.844031 2.498503 -2.507276 -10.163590 4.678941 4.621104 -20.975996 -0.000001 0.000001 -21.226254 2.451698 -3.593995 0.000000 -0.000006 -0.000000 -1.362681 2.240797 -0.746323 -21.334892 0.584910 3.008319 -13.821196 -0.000001 0.000001 -23.887129 -0.249075 -0.839485 -61.338371 2.195749 -1.365177 -0.294025 1.679686 0.833255 -14.218195 0.093215 1.300579 -34.212002 -0.287561 0.967166 -20.033176 0.964536 1.212838 0.000000 -0.000000 0.000000 -3.440387 0.788233 0.501655 -15.928172 -3.167306 2.999703 -6.338817 -0.000000 0.000001 -18.123419 3.648181 -4.905662 -0.000004 0.000000 -0.000002 4.482815 13.484189 10.651552 12.015251 -20.073904 -31.664536 -0.269553 47.220543 1.079141 -52.900349 12.394038 1.651504 2.243540 -5.255033 -3.180156 14.282877 -0.826594 6.952496 -0.000000 -12.690593 -0.000001 17.868227 -18.652987 2.260475 1.665665 -1.955920 -2.878297 4.727794 -4.170584 4.993919 11.020511 0.000001 -0.000000 12.109032 -3.735715 -2.866778 0.000000 -0.000000 0.000000 1.291985 -1.928548 -1.498088 14.800115 0.567467 3.865604 14.242553 -1.341738 -6.660648 19.631935 0.143921 -0.648243 52.545387 -0.594646 -7.143802 0.353029 -1.511150 -0.031940 20.222769 3.684305 2.316629 18.787249 0.000001 -0.000001 10.751608 -0.479870 1.397903 0.000000 -0.000000 0.000000 3.273804 0.305947 -0.580110 21.486790 11.830364 2.266131 8.162915 0.000000 -0.000000 18.399052 -3.798986 -4.940567 0.000003 0.000000 -0.000001 2.046574 4.621841 1.200066 0.023989 -0.278995 29.621250 12.467546 -24.481241 -20.143719 1.655200 -1.591503 -4.240312 0.000000 -0.000000 0.000002 4.853330 -8.628178 -16.750864 -0.163511 -0.493310 33.083500 2.792732 2.657240 -14.928055 -1.436178 0.826816 -0.025044 0.000000 -0.000000 -0.000001
0.000000 0.000000 0.000000 0.000000 -0.000000 0.000000 -6.053204 -3.074336 9.359248 -2.809531 -0.666990 -0.052158 5.623929 -0.831428 -5.111679 0.130586 -3.973454 -6.390588 0.597166 -8.542781 12.739462 9.657121 -0.782032 4.315636 -5.316803 -14.012916 -2.665776 -0.116060 -17.955824 7.068609 0.000077 -0.000022 0.000006 0.011510 -0.011108 -0.112756 0.827942 -3.672253 -10.676359 -0.806730 3.656521 -10.582123 3.067843 -20.018995 4.468181 5.433194 -81.780762 -37.919559 -1.655753 -18.094391 -0.343700 42.326836 1.375959 -33.741379 -5.882102 9.861279 0.702590 -10.936861 -0.360574 7.156197 0.000000 8.774815 -0.000000 -14.808048 17.275972 7.123643 -1.844031 2.498503 -2.507276 -10.163590 4.678941 4.621104 -20.975996 -0.000001 0.000001 -21.226254 2.451698 -3.593995 0.000000 -0.000006 -0.000000 -1.362681 2.240797 -0.746323 -21.334892 0.584910 3.008319 -13.821196 -0.000001 0.000001 -23.887129 -0.249075 -0.839485 -61.324192 2.189492 -1.366915 -0.294025 1.679686 0.833255 -14.218195 0.093215 1.300579 -34.212002 -0.287561 0.967166 -20.033176 0.964536 1.212838 0.000000 -0.000000 0.000000 -3.440387 0.788233 0.501655 -15.928172 -3.167306 2.999703 -6.338817 -0.000000 0.000001 -18.123419 3.648181 -4.905662 -0.000004 0.000000 -0.000002 4.394069 13.542190 10.568075 11.988411 -20.152552 -31.444296 -0.405533 46.929611 0.971447 -52.457813 12.034508 1.894639 2.243540 -5.255033 -3.180156 14.282877 -0.826594 6.952496 -0.000000 -12.690593 -0.000001 17.923134 -18.692114 2.214041 1.665665 -1.955920 -2.878297 4.727794 -4.170584 4.993919 11.020511 0.000001 -0.000000 12.109032 -3.735715 -2.866778 0.000000 -0.000000 0.000000 1.291985 -1.928548 -1.498088 14.800115 0.567467 3.865604 14.242553 -1.341738 -6.660648 19.631935 0.143921 -0.648243 52.537739 -0.602053 -7.183067 0.353029 -1.511150 -0.031940 20.222769 3.684305 2.316629 18.787249 0.000001 -0.000001 10.751608 -0.479870 1.397903 0.000000 -0.000000 0.000000 3.273804 0.305947 -0.580110 21.486790 11.830364 2.266131 8.162915 0.000000 -0.000000 18.399052 -3.798986 -4.940567 0.000003 0.000000 -0.000001 2.046574 4.621841 1.200066 0.023989 -0.278995 29.621250 12.467546 -24.481241 -20.143719 1.655200 -1.591503 -4.240312 0.000000 -0.000000 0.000002 4.853330 -8.628178 -16.750864 -0.163511 -0.493310 33.083500 2.792732 2.657240 -14.928055 -1.436178 0.826816 -0.025044 0.000000 -0.000000 -0.000001
0.000000 0.000000 0.000000 0.000000 -0.000000 0.000000 -6.053204 -3.069140 9.359248 -2.809531 -0.666990 -0.052158 5.605131 -0.847192 -5.112000 0.120722 -4.004434 -6.375070 0.593397 -8.589789 12.692122 9.564178 -0.726136 4.281140 -5.323706 -14.068724 -2.660182 -0.145737 -17.933441 7.244247 0.000077 -0.000022 0.000006 0.013376 -0.012099 -0.108687 0.828948 -3.672207 -10.678802 -0.804012 3.654133 -10.578590 2.997109 -20.148783 4.471005 7.010681 -81.802429 -39.148930 -1.651581 -17.956450 -0.363428 42.061733 1.399391 -33.588787 -5.882102 9.861279 0.702590 -10.936861 -0.360574 7.156197 0.000000 8.774815 -0.000000 -14.840838 17.228098 7.095928 -1.844031 2.498503 -2.507276 -10.163590 4.678941 4.621104 -20.975996 -0.000001 0.000001 -21.226254 2.451698 -3.593995 0.000000 -0.000006 -0.000000 -1.362681 2.240797 -0.746323 -21.334892 0.584910 3.008319 -13.821196 -0.000001 0.000001 -23.887129 -0.249075 -0.839485 -61.306488 2.186527 -1.359597 -0.294025 1.679686 0.833255 -14.218195 0.093215 1.300579 -34.212002 -0.287561 0.967166 -20.033176 0.964536 1.212838 0.000000 -0.000000 0.000000 -3.440387 0.788233 0.501655 -15.928172 -3.167306 2.999703 -6.338817 -0.000000 0.000001 -18.123419 3.648181 -4.905662 -0.000004 0.000000 -0.000002 4.367828 13.525832 10.486991 11.969698 -20.223536 -31.249069 -0.546173 46.852448 0.895871 -52.061729 11.693720 2.181326 2.243540 -5.255033 -3.180156 14.282877 -0.826594 6.952496 -0.000000 -12.690593 -0.000001 17.937290 -18.689671 2.174151 1.665665 -1.955920 -2.878297 4.727794 -4.170584 4.993919 11.020511 0.000001 -0.000000 12.109032 -3.735715 -2.866778 0.000000 -0.000000 0.000000 1.291985 -1.928548 -1.498088 14.800115 0.567467 3.865604 14.242553 -1.341738 -6.660648 19.631935 0.143921 -0.648243 52.418545 -0.607540 -7.190917 0.353029 -1.511150 -0.031940 20.222769 3.684305 2.316629 18.787249 0.000001 -0.000001 10.751608 -0.479870 1.397903 0.000000 -0.000000 0.000000 3.273804 0.305947 -0.580110 21.486790 11.830364 2.266131 8.162915 0.000000 -0.000000 18.399052 -3.798986 -4.940567 0.000003 0.000000 -0.000001 2.046574 4.621841 1.200066 0.023989 -0.278995 29.621250 12.467546 -24.481241 -20.143719 1.655200 -1.591503 -4.240312 0.000000 -0.000000 0.000002 4.853330 -8.628178 -16.750864 -0.163511 -0.493310 33.083500 2.792732 2.657240 -14.928055 -1.436178 0.826816 -0.025044 0.000000 -0.000000 -0.000001
0.000000 0.000000 0.000000 0.000000 -0.000000 0.000000 -6.053204 -3.057864 9.359248 -2.809531 -0.666990 -0.052158 5.575947 -0.848515 -5.105601 0.107107 -4.040106 -6.359423 0.608754 -8.647226 12.631064 9.464526 -0.669592 4.268177 -5.311356 -14.103139 -2.660977 -0.212405 -17.894493 7.425483 0.000077 -0.000022 0.000006 0.016808 -0.016358 -0.108853 0.831922 -3.672298 -10.676503 -0.800107 3.645321 -10.571246 3.010404 -20.270697 4.406888 8.082470 -81.788597 -39.965267 -1.647883 -17.899401 -0.376813 41.832397 1.402116 -33.474167 -5.882102 9.861279 0.702590 -10.936861 -0.360574 7.156197 0.000000 8.774815 -0.000000 -14.858223 17.181921 7.086447 -1.844031 2.498503 -2.507276 -10.163590 4.678941 4.621104 -20.975996 -0.000001 0.000001 -21.226254 2.451698 -3.593995 0.000000 -0.000006 -0.000000 -1.362681 2.240797 -0.746323 -21.334892 0.584910 3.008319 -13.821196 -0.000001 0.000001 -23.887129 -0.249075 -0.839485 -61.268982 2.172406 -1.346210 -0.294025 1.679686 0.833255 -14.218195 0.093215 1.300579 -34.212002 -0.287561 0.967166 -20.033176 0.964536 1.212838 0.000000 -0.000000 0.000000 -3.440387 0.788233 0.501655 -15.928172 -3.167306 2.999703 -6.338817 -0.000000 0.000001 -18.123419 3.648181 -4.905662 -0.000004 0.000000 -0.000002 4.353625 13.469639 10.416587 12.042203 -20.257286 -31.111839 -0.726480 46.958279 0.848181 -51.703995 11.356670 2.471690 2.243540 -5.255033 -3.180156 14.282877 -0.826594 6.952496 -0.000000 -12.690593 -0.000001 17.934128 -18.661619 2.147720 1.665665 -1.955920 -2.878297 4.727794 -4.170584 4.993919 11.020511 0.000001 -0.000000 12.109032 -3.735715 -2.866778 0.000000 -0.000000 0.000000 1.291985 -1.928548 -1.498088 14.800115 0.567467 3.865604 14.242553 -1.341738 -6.660648 19.631935 0.143921 -0.648243 52.228424 -0.616061 -7.176844 0.353029 -1.511150 -0.031940 20.222769 3.684305 2.316629 18.787249 0.000001 -0.000001 10.751608 -0.479870 1.397903 0.000000 -0.000000 0.000000 3.273804 0.305947 -0.580110 21.486790 11.830364 2.266131 8.162915 0.000000 -0.000000 18.399052 -3.798986 -4.940567 0.000003 0.000000 -0.000001 2.046574 4.621841 1.200066 0.023989 -0.278995 29.621250 12.467546 -24.481241 -20.143719 1.655200 -1.591503 -4.240312 0.000000 -0.000000 0.000002 4.853330 -8.628178 -16.750864 -0.163511 -0.493310 33.083500 2.792732 2.657240 -14.928055 -1.436178 0.826816 -0.025044 0.000000 -0.000000 -0.000001
0.000000 0.000000 0.000000 0.000000 -0.000000 0.000000 -6.053204 -3.041125 9.359248 -2.809531 -0.666990 -0.052158 5.544925 -0.843278 -5.094178 0.089917 -4.064283 -6.348507 0.641903 -8.690197 12.571216 9.344164 -0.616391 4.247523 -5.293344 -14.051078 -2.666026 -0.310501 -17.865416 7.649961 0.000077 -0.000022 0.000006 0.017136 -0.016167 -0.113045 0.831795 -3.668988 -10.670528 -0.799341 3.642033 -10.563097 3.063552 -20.350145 4.337857 9.010394 -81.767776 -40.912277 -1.671365 -17.896996 -0.384790 41.627300 1.247757 -33.244492 -5.882102 9.861279 0.702590 -10.936861 -0.360574 7.156197 0.000000 8.774815 -0.000000 -14.854356 17.164907 7.079697 -1.844031 2.498503 -2.507276 -10.163590 4.678941 4.621104 -20.975996 -0.000001 0.000001 -21.226254 2.451698 -3.593995 0.000000 -0.000006 -0.000000 -1.362681 2.240797 -0.746323 -21.334892 0.584910 3.008319 -13.821196 -0.000001 0.000001 -23.887129 -0.249075 -0.839485 -61.214172 2.164807 -1.343779 -0.294025 1.679686 0.833255 -14.218195 0.093215 1.300579 -34.212002 -0.287561 0.967166 -20.033176 0.964536 1.212838 0.000000 -0.000000 0.000000 -3.440387 0.788233 0.501655 -15.928172 -3.167306 2.999703 -6.338817 -0.000000 0.000001 -18.123419 3.648181 -4.905662 -0.000004 0.000000 -0.000002 4.361227 13.427923 10.382458 12.196558 -20.284937 -30.983753 -1.035376 47.154659 0.732633 -51.398582 11.023078 2.760027 2.243540 -5.255033 -3.180156 14.282877 -0.826594 6.952496 -0.000000 -12.690593 -0.000001 17.924984 -18.645792 2.159596 1.665665 -1.955920 -2.878297 4.727794 -4.170584 4.993919 11.020511 0.000001 -0.000000 12.109032 -3.735715 -2.866778 0.000000 -0.000000 0.000000 1.291985 -1.928548 -1.498088 14.800115 0.567467 3.865604 14.242553 -1.341738 -6.660648 19.631935 0.143921 -0.648243 52.070194 -0.611447 -7.141731 0.353029 -1.511150 -0.031940 20.222769 3.684305 2.316629 18.787249 0.000001 -0.000001 10.751608 -0.479870 1.397903 0.000000 -0.000000 0.000000 3.273804 0.305947 -0.580110 21.486790 11.830364 2.266131 8.162915 0.000000 -0.000000 18.399052 -3.798986 -4.940567 0.000003 0.000000 -0.000001 2.046574 4.621841 1.200066 0.023989 -0.278995 29.621250 12.467546 -24.481241 -20.143719 1.655200 -1.591503 -4.240312 0.000000 -0.000000 0.000002 4.853330 -8.628178 -16.750864 -0.163511 -0.493310 33.083500 2.792732 2.657240 -14.928055 -1.436178 0.826816 -0.025044 0.000000 -0.000000 -0.000001
0.000000 0.000000 0.000000 0.000000 0.000000 0.000000 -6.053204 -3.002696 9.359248 -2.809531 -0.666990 -0.052158 5.493812 -0.847721 -5.106337 0.071104 -4.089793 -6.346476 0.656431 -8.731735 12.573018 9.047417 -0.519365 4.057789 -5.267932 -13.851417 -2.683855 -0.489513 -17.767554 7.962964 0.000077 -0.000022 0.000006 0.015959 -0.007440 -0.121264 0.828177 -3.657690 -10.651633 -0.798345 3.648552 -10.547114 3.164995 -20.444516 4.192167 10.792053 -81.649314 -42.936579 -1.753298 -17.815022 -0.344366 41.198795 0.990024 -32.593109 -5.882102 9.861279 0.702590 -10.936861 -0.360574 7.156197 0.000000 8.774815 0.000000 -14.877094 17.152038 7.109666 -1.844031 2.498503 -2.507276 -10.163590 4.678941 4.621104 -20.975996 -0.000001 0.000001 -21.226254 2.451698 -3.593995 0.000000 -0.000006 0.000000 -1.362681 2.240797 -0.746323 -21.334892 0.584910 3.008319 -13.821196 -0.000001 0.000001 -23.887129 -0.249075 -0.839485 -61.239709 2.158272 -1.302826 -0.294025 1.679686 0.833255 -14.218195 0.093215 1.300579 -34.212002 -0.287561 0.967166 -20.033176 0.964536 1.212838 0.000000 0.000000 0.000000 -3.440387 0.788233 0.501655 -15.928172 -3.167306 2.999703 -6.338817 0.000000 0.000001 -18.123419 3.648181 -4.905662 -0.000004 0.000000 -0.000002 4.396383 13.464291 10.385169 12.479617 -20.331314 -31.078612 -1.122267 47.384362 0.823575 -51.002712 10.509464 3.164575 2.243540 -5.255033 -3.180156 14.282877 -0.826594 6.952496 0.000000 -12.690593 -0.000001 17.945766 -18.652709 2.138933 1.665665 -1.955920 -2.878297 4.727794 -4.170584 4.993919 11.020511 0.000001 -0.000000 12.109032 -3.735715 -2.866778 0.000000 0.000000 0.000000 1.291985 -1.928548 -1.498088 14.800115 0.567467 3.865604 14.242553 -1.341738 -6.660648 19.631935 0.143921 -0.648243 52.011190 -0.553588 -7.114232 0.353029 -1.511150 -0.031940 20.222769 3.684305 2.316629 18.787249 0.000001 -0.000001 10.751608 -0.479870 1.397903 0.000000 0.000000 0.000000 3.273804 0.305947 -0.580110 21.486790 11.830364 2.266131 8.162915 0.000000 0.000000 18.399052 -3.798986 -4.940567 0.000003 0.000000 -0.000001 2.046574 4.621841 1.200066 0.023989 -0.278995 29.621250 12.467546 -24.481241 -20.143719 1.655200 -1.591503 -4.240312 0.000000 0.000000 0.000002 4.853330 -8.628178 -16.750864 -0.163511 -0.493310 33.083500 2.792732 2.657240 -14.928055 -1.436178 0.826816 -0.025044 0.000000 0.000000 -0.000001
0.000000 0.000000 0.000000 0.000000 0.000000 0.000000 -6.053204 -2.943586 9.359248 -2.809531 -0.666990 -0.052158 5.445729 -0.847110 -5.060032 0.081904 -4.039663 -6.323611 0.666927 -8.640232 12.526400 8.678689 -0.368734 3.929120 -5.172299 -13.664944 -2.649059 -0.592763 -17.592150 8.105367 0.000077 -0.000022 0.000006 0.010370 0.001866 -0.128097 0.829979 -3.646418 -10.663383 -0.811632 3.656324 -10.555934 3.260311 -20.508543 4.169254 13.263818 -81.352970 -45.791511 -1.813594 -17.608136 -0.307076 40.726846 0.600405 -32.082146 -5.882102 9.861279 0.702590 -10.936861 -0.360574 7.156197 0.000000 8.774815 0.000000 -14.853195 17.227436 7.118059 -1.844031 2.498503 -2.507276 -10.163590 4.678941 4.621104 -20.975996 -0.000001 0.000001 -21.226254 2.451698 -3.593995 0.000000 -0.000006 0.000000 -1.362681 2.240797 -0.746323 -21.334892 0.584910 3.008319 -13.821196 -0.000001 0.000001 -23.887129 -0.249075 -0.839485 -61.198979 2.132052 -1.308283 -0.294025 1.679686 0.833255 -14.218195 0.093215 1.300579 -34.212002 -0.287561 0.967166 -20.033176 0.964536 1.212838 0.000000 0.000000 0.000000 -3.440387 0.788233 0.501655 -15.928172 -3.167306 2.999703 -6.338817 0.000000 0.000001 -18.123419 3.648181 -4.905662 -0.000004 0.000000 -0.000002 4.276234 13.649953 10.330090 12.819643 -20.217042 -30.937490 -1.366051 47.353371 0.582504 -50.364096 10.175097 3.772793 2.243540 -5.255033 -3.180156 14.282877 -0.826594 6.952496 0.000000 -12.690593 -0.000001 17.888391 -18.705101 2.126725 1.665665 -1.955920 -2.878297 4.727794 -4.170584 4.993919 11.020511 0.000001 -0.000000 12.109032 -3.735715 -2.866778 0.000000 0.000000 0.000000 1.291985 -1.928548 -1.498088 14.800115 0.567467 3.865604 14.242553 -1.341738 -6.660648 19.631935 0.143921 -0.648243 52.008691 -0.478011 -7.167630 0.353029 -1.511150 -0.031940 20.222769 3.684305 2.316629 18.787249 0.000001 -0.000001 10.751608 -0.479870 1.397903 0.000000 0.000000 0.000000 3.273804 0.305947 -0.580110 21.486790 11.830364 2.266131 8.162915 0.000000 0.000000 18.399052 -3.798986 -4.940567 0.000003 0.000000 -0.000001 2.046574 4.621841 1.200066 0.023989 -0.278995 29.621250 12.467546 -24.481241 -20.143719 1.655200 -1.591503 -4.240312 0.000000 0.000000 0.000002 4.853330 -8.628178 -16.750864 -0.163511 -0.493310 33.083500 2.792732 2.657240 -14.928055 -1.436178 0.826816 -0.025044 0.000000 0.000000 -0.000001
0.000000 0.000000 0.000000 0.000000 0.000000 0.000000 -6.053204 -2.889487 9.359248 -2.809531 -0.666990 -0.052158 5.407064 -0.843273 -5.032286 0.092191 -4.025983 -6.310253 0.662004 -8.591982 12.512366 8.375966 -0.219793 3.703427 -5.152196 -13.454246 -2.650915 -0.672833 -17.479639 8.134445 0.000077 -0.000022 0.000006 0.006629 0.013411 -0.130165 0.829059 -3.634018 -10.650657 -0.818208 3.667317 -10.548163 3.329255 -20.577154 4.155068 16.069102 -81.075646 -48.758151 -1.849385 -17.220089 -0.283579 40.085299 0.406301 -31.371187 -5.882102 9.861279 0.702590 -10.936861 -0.360574 7.156197 0.000000 8.774815 0.000000 -14.886458 17.289294 7.146541 -1.844031 2.498503 -2.507276 -10.163590 4.678941 4.621104 -20.975996 -0.000001 0.000001 -21.226254 2.451698 -3.593995 0.000000 -0.000006 0.000000 -1.362681 2.240797 -0.746323 -21.334892 0.584910 3.008319 -13.821196 -0.000001 0.000001 -23.887129 -0.249075 -0.839485 -61.241978 2.164147 -1.301970 -0.294025 1.679686 0.833255 -14.218195 0.093215 1.300579 -34.212002 -0.287561 0.967166 -20.033176 0.964536 1.212838 0.000000 0.000000 0.000000 -3.440387 0.788233 0.501655 -15.928172 -3.167306 2.999703 -6.338817 0.000000 0.000001 -18.123419 3.648181 -4.905662 -0.000004 0.000000 -0.000002 4.239542 13.845435 10.397205 13.000813 -20.190512 -30.734534 -1.430663 47.211753 0.525847 -49.653690 9.797265 4.283279 2.243540 -5.255033 -3.180156 14.282877 -0.826594 6.952496 0.000000 -12.690593 -0.000001 17.907362 -18.774864 2.097707 1.665665 -1.955920 -2.878297 4.727794 -4.170584 4.993919 11.020511 0.000001 -0.000000 12.109032 -3.735715 -2.866778 0.000000 0.000000 0.000000 1.291985 -1.928548 -1.498088 14.800115 0.567467 3.865604 14.242553 -1.341738 -6.660648 19.631935 0.143921 -0.648243 52.056807 -0.433275 -7.205955 0.353029 -1.511150 -0.031940 20.222769 3.684305 2.316629 18.787249 0.000001 -0.000001 10.751608 -0.479870 1.397903 0.000000 0.000000 0.000000 3.273804 0.305947 -0.580110 21.486790 11.830364 2.266131 8.162915 0.000000 0.000000 18.399052 -3.798986 -4.940567 0.000003 0.000000 -0.000001 2.046574 4.621841 1.200066 0.023989 -0.278995 29.621250 12.467546 -24.481241 -20.143719 1.655200 -1.591503 -4.240312 0.000000 0.000000 0.000002 4.853330 -8.628178 -16.750864 -0.163511 -0.493310 33.083500 2.792732 2.657240 -14.928055 -1.436178 0.826816 -0.025044 0.000000 0.000000 -0.000001
0.000000 0.000000 0.000000 0.000000 0.000000 0.000000 -6.053204 -2.839536 9.359248 -2.809531 -0.666990 -0.052158 5.386108 -0.845241 -4.993430 0.105780 -4.030648 -6.292429 0.642356 -8.551661 12.494506 8.127270 -0.069410 3.444500 -5.137938 -13.294833 -2.667005 -0.688642 -17.388478 8.063962 0.000077 -0.000022 0.000006 0.002078 0.027934 -0.127165 0.825298 -3.619230 -10.636749 -0.823319 3.681291 -10.538390 3.455538 -20.682112 4.152555 19.258463 -80.767900 -52.013478 -1.914059 -16.655645 -0.249977 39.307575 0.273998 -30.704660 -5.882102 9.861279 0.702590 -10.936861 -0.360574 7.156197 0.000000 8.774815 0.000000 -14.957179 17.337996 7.147971 -1.844031 2.498503 -2.507276 -10.163590 4.678941 4.621104 -20.975996 -0.000001 0.000001 -21.226254 2.451698 -3.593995 0.000000 -0.000006 0.000000 -1.362681 2.240797 -0.746323 -21.334892 0.584910 3.008319 -13.821196 -0.000001 0.000001 -23.887129 -0.249075 -0.839485 -61.226425 2.201420 -1.290317 -0.294025 1.679686 0.833255 -14.218195 0.093215 1.300579 -34.212002 -0.287561 0.967166 -20.033176 0.964536 1.212838 0.000000 0.000000 0.000000 -3.440387 0.788233 0.501655 -15.928172 -3.167306 2.999703 -6.338817 0.000000 0.000001 -18.123419 3.648181 -4.905662 -0.000004 0.000000 -0.000002 4.199542 14.026489 10.480197 13.063276 -20.204984 -30.310960 -1.443814 46.897961 0.487706 -48.822478 9.395451 4.724486 2.243540 -5.255033 -3.180156 14.282877 -0.826594 6.952496 0.000000 -12.690593 -0.000001 18.012257 -18.854197 2.051204 1.665665 -1.955920 -2.878297 4.727794 -4.170584 4.993919 11.020511 0.000001 -0.000000 12.109032 -3.735715 -2.866778 0.000000 0.000000 0.000000 1.291985 -1.928548 -1.498088 14.800115 0.567467 3.865604 14.242553 -1.341738 -6.660648 19.631935 0.143921 -0.648243 52.174911 -0.389937 -7.234530 0.353029 -1.511150 -0.031940 20.222769 3.684305 2.316629 18.787249 0.000001 -0.000001 10.751608 -0.479870 1.397903 0.000000 0.000000 0.000000 3.273804 0.305947 -0.580110 21.486790 11.830364 2.266131 8.162915 0.000000 0.000000 18.399052 -3.798986 -4.940567 0.000003 0.000000 -0.000001 2.046574 4.621841 1.200066 0.023989 -0.278995 29.621250 12.467546 -24.481241 -20.143719 1.655200 -1.591503 -4.240312 0.000000 0.000000 0.000002 4.853330 -8.628178 -16.750864 -0.163511 -0.493310 33.083500 2.792732 2.657240 -14.928055 -1.436178 0.826816 -0.025044 0.000000 0.000000 -0.000001
0.000000 0.000000 0.000000 0.000000 0.000000 0.000000 -6.053204 -2.782653 9.359248 -2.809531 -0.666990 -0.052158 5.388265 -0.852214 -4.948291 0.122975 -4.048044 -6.281730 0.610780 -8.527249 12.481820 7.942669 0.071564 3.172979 -5.120404 -13.224037 -2.693174 -0.650115 -17.306054 7.888845 0.000077 -0.000022 0.000006 -0.001473 0.040256 -0.122040 0.820146 -3.606911 -10.627536 -0.824809 3.692780 -10.532790 3.638685 -20.801422 4.145762 22.313249 -80.476719 -55.080767 -2.009382 -16.004267 -0.208508 38.477355 0.089200 -30.023795 -5.882102 9.861279 0.702590 -10.936861 -0.360574 7.156197 0.000000 8.774815 0.000000 -15.049783 17.368534 7.125876 -1.844031 2.498503 -2.507276 -10.163590 4.678941 4.621104 -20.975996 -0.000001 0.000001 -21.226254 2.451698 -3.593995 0.000000 -0.000006 0.000000 -1.362681 2.240797 -0.746323 -21.334892 0.584910 3.008319 -13.821196 -0.000001 0.000001 -23.887129 -0.249075 -0.839485 -61.173599 2.227716 -1.261081 -0.294025 1.679686 0.833255 -14.218195 0.093215 1.300579 -34.212002 -0.287561 0.967166 -20.033176 0.964536 1.212838 0.000000 0.000000 0.000000 -3.440387 0.788233 0.501655 -15.928172 -3.167306 2.999703 -6.338817 0.000000 0.000001 -18.123419 3.648181 -4.905662 -0.000004 0.000000 -0.000002 4.215986 14.136279 10.583011 12.920984 -20.277972 -29.668139 -1.401690 46.438906 0.472537 -48.005909 8.977932 5.101296 2.243540 -5.255033 -3.180156 14.282877 -0.826594 6.952496 0.000000 -12.690593 -0.000001 18.184195 -18.925910 1.983085 1.665665 -1.955920 -2.878297 4.727794 -4.170584 4.993919 11.020511 0.000001 -0.000000 12.109032 -3.735715 -2.866778 0.000000 0.000000 0.000000 1.291985 -1.928548 -1.498088 14.800115 0.567467 3.865604 14.242553 -1.341738 -6.660648 19.631935 0.143921 -0.648243 52.318857 -0.348556 -7.253036 0.353029 -1.511150 -0.031940 20.222769 3.684305 2.316629 18.787249 0.000001 -0.000001 10.751608 -0.479870 1.397903 0.000000 0.000000 0.000000 3.273804 0.305947 -0.580110 21.486790 11.830364 2.266131 8.162915 0.000000 0.000000 18.399052 -3.798986 -4.940567 0.000003 0.000000 -0.000001 2.046574 4.621841 1.200066 0.023989 -0.278995 29.621250 12.467546 -24.481241 -20.143719 1.655200 -1.591503 -4.240312 0.000000 0.000000 0.000002 4.853330 -8.628178 -16.750864 -0.163511 -0.493310 33.083500 2.792732 2.657240 -14.928055 -1.436178 0.826816 -0.025044 0.000000 0.000000 -0.000001
