HIERARCHY
ROOT Root
{
  OFFSET 0.000000 0.000000 0.000000
  CHANNELS 6 Xposition Yposition Zposition Zrotation Yrotation Xrotation
  JOINT Hips
  {
    OFFSET 0.000000 100.000000 0.000000
    CHANNELS 6 Xposition Yposition Zposition Zrotation Yrotation Xrotation
    JOINT Spine1
    {
      OFFSET -0.013727 5.003763 -0.053727
      CHANNELS 3 Zrotation Yrotation Xrotation
      JOINT Spine2
      {
        OFFSET -0.000000 7.125301 -0.029825
        CHANNELS 3 Zrotation Yrotation Xrotation
        JOINT Chest
        {
          OFFSET -0.000001 7.550063 -0.815971
          CHANNELS 3 Zrotation Yrotation Xrotation
          JOINT Neck1
          {
            OFFSET -0.181677 26.311295 -0.553348
            CHANNELS 3 Zrotation Yrotation Xrotation
            JOINT Neck2
            {
              OFFSET -0.000003 7.709397 2.302585
              CHANNELS 3 Zrotation Yrotation Xrotation
              JOINT Head
              {
                OFFSET -0.000005 6.128916 1.953709
                CHANNELS 3 Zrotation Yrotation Xrotation
                JOINT HeadEnd
                {
                  OFFSET 0.003598 16.065403 -1.835379
                  CHANNELS 3 Zrotation Yrotation Xrotation
                }
                JOINT Jaw
                {
                  OFFSET 0.002637 0.475592 3.094941
                  CHANNELS 3 Zrotation Yrotation Xrotation
                }
                JOINT LeftEye
                {
                  OFFSET 3.206381 5.380205 7.586883
                  CHANNELS 3 Zrotation Yrotation Xrotation
                }
                JOINT RightEye
                {
                  OFFSET -3.222440 5.361869 7.558234
                  CHANNELS 3 Zrotation Yrotation Xrotation
                }
              }
            }
          }
          JOINT LeftShoulder
          {
            OFFSET 1.621652 23.237164 5.113413
            CHANNELS 3 Zrotation Yrotation Xrotation
            JOINT LeftArm
            {
              OFFSET 14.919846 0.000002 -5.502326
              CHANNELS 3 Zrotation Yrotation Xrotation
              JOINT LeftForeArm
              {
                OFFSET 28.739307 0.000000 -0.002588
                CHANNELS 3 Zrotation Yrotation Xrotation
                JOINT LeftHand
                {
                  OFFSET 27.093981 -0.000001 0.002609
                  CHANNELS 3 Zrotation Yrotation Xrotation
                  JOINT LeftHandThumb1
                  {
                    OFFSET 2.276482 -1.392045 3.191413
                    CHANNELS 3 Zrotation Yrotation Xrotation
                    JOINT LeftHandThumb2
                    {
                      OFFSET 4.012836 -1.828127 1.641654
                      CHANNELS 3 Zrotation Yrotation Xrotation
                      JOINT LeftHandThumb3
                      {
                        OFFSET 2.798515 0.000000 -0.000003
                        CHANNELS 3 Zrotation Yrotation Xrotation
                        JOINT LeftHandThumbEnd
                        {
                          OFFSET 3.180793 -0.000004 0.000004
                          CHANNELS 3 Zrotation Yrotation Xrotation
                        }
                      }
                    }
                  }
                  JOINT LeftHandIndex1
                  {
                    OFFSET 3.247555 -0.531998 2.296169
                    CHANNELS 3 Zrotation Yrotation Xrotation
                    JOINT LeftHandIndex2
                    {
                      OFFSET 6.364578 0.012060 0.178600
                      CHANNELS 3 Zrotation Yrotation Xrotation
                      JOINT LeftHandIndex3
                      {
                        OFFSET 3.662364 0.000000 0.000000
                        CHANNELS 3 Zrotation Yrotation Xrotation
                        JOINT LeftHandIndex4
                        {
                          OFFSET 2.329242 0.000004 0.000004
                          CHANNELS 3 Zrotation Yrotation Xrotation
                          JOINT LeftHandIndexEnd
                          {
                            OFFSET 2.759615 -0.180537 -0.113024
                            CHANNELS 3 Zrotation Yrotation Xrotation
                          }
                        }
                      }
                    }
                  }
                  JOINT LeftHandMiddle1
                  {
                    OFFSET 3.163495 0.240981 1.000332
                    CHANNELS 3 Zrotation Yrotation Xrotation
                    JOINT LeftHandMiddle2
                    {
                      OFFSET 6.190780 -0.259278 -1.002548
                      CHANNELS 3 Zrotation Yrotation Xrotation
                      JOINT LeftHandMiddle3
                      {
                        OFFSET 4.356520 -0.000004 -0.000001
                        CHANNELS 3 Zrotation Yrotation Xrotation
                        JOINT LeftHandMiddle4
                        {
                          OFFSET 2.996877 -0.000008 0.000000
                          CHANNELS 3 Zrotation Yrotation Xrotation
                          JOINT LeftHandMiddleEnd
                          {
                            OFFSET 2.304287 -0.294569 -0.031741
                            CHANNELS 3 Zrotation Yrotation Xrotation
                          }
                        }
                      }
                    }
                  }
                  JOINT LeftHandRing1
                  {
                    OFFSET 2.882643 -0.053652 -0.322543
                    CHANNELS 3 Zrotation Yrotation Xrotation
                    JOINT LeftHandRing2
                    {
                      OFFSET 5.854541 -0.486202 -1.373841
                      CHANNELS 3 Zrotation Yrotation Xrotation
                      JOINT LeftHandRing3
                      {
                        OFFSET 4.350578 0.000000 0.000003
                        CHANNELS 3 Zrotation Yrotation Xrotation
                        JOINT LeftHandRing4
                        {
                          OFFSET 2.651321 0.000007 0.000002
                          CHANNELS 3 Zrotation Yrotation Xrotation
                          JOINT LeftHandRingEnd
                          {
                            OFFSET 1.936105 0.077687 -0.000071
                            CHANNELS 3 Zrotation Yrotation Xrotation
                          }
                        }
                      }
                    }
                  }
                  JOINT LeftHandPinky1
                  {
                    OFFSET 2.865500 -0.310005 -1.600378
                    CHANNELS 3 Zrotation Yrotation Xrotation
                    JOINT LeftHandPinky2
                    {
                      OFFSET 5.087849 -1.331141 -1.771230
                      CHANNELS 3 Zrotation Yrotation Xrotation
                      JOINT LeftHandPinky3
                      {
                        OFFSET 3.070974 0.000004 0.000000
                        CHANNELS 3 Zrotation Yrotation Xrotation
                        JOINT LeftHandPinky4
                        {
                          OFFSET 1.549672 0.000000 0.000001
                          CHANNELS 3 Zrotation Yrotation Xrotation
                          JOINT LeftHandPinkyEnd
                          {
                            OFFSET 1.944893 -0.157802 0.057219
                            CHANNELS 3 Zrotation Yrotation Xrotation
                          }
                        }
                      }
                    }
                  }
                }
              }
            }
          }
          JOINT RightShoulder
          {
            OFFSET -1.380118 23.180309 5.214158
            CHANNELS 3 Zrotation Yrotation Xrotation
            JOINT RightArm
            {
              OFFSET -15.037196 0.000012 -5.545604
              CHANNELS 3 Zrotation Yrotation Xrotation
              JOINT RightForeArm
              {
                OFFSET -28.736639 0.000002 -0.002597
                CHANNELS 3 Zrotation Yrotation Xrotation
                JOINT RightHand
                {
                  OFFSET -27.133619 -0.000000 0.002613
                  CHANNELS 3 Zrotation Yrotation Xrotation
                  JOINT RightHandThumb1
                  {
                    OFFSET -2.274032 -1.383988 3.163127
                    CHANNELS 3 Zrotation Yrotation Xrotation
                    JOINT RightHandThumb2
                    {
                      OFFSET -4.011429 -1.827466 1.640914
                      CHANNELS 3 Zrotation Yrotation Xrotation
                      JOINT RightHandThumb3
                      {
                        OFFSET -2.794935 -0.000004 -0.000003
                        CHANNELS 3 Zrotation Yrotation Xrotation
                        JOINT RightHandThumbEnd
                        {
                          OFFSET -3.183852 0.000004 0.000001
                          CHANNELS 3 Zrotation Yrotation Xrotation
                        }
                      }
                    }
                  }
                  JOINT RightHandIndex1
                  {
                    OFFSET -3.253266 -0.520057 2.282866
                    CHANNELS 3 Zrotation Yrotation Xrotation
                    JOINT RightHandIndex2
                    {
                      OFFSET -6.341917 0.012471 0.178266
                      CHANNELS 3 Zrotation Yrotation Xrotation
                      JOINT RightHandIndex3
                      {
                        OFFSET -3.654871 -0.000008 -0.000000
                        CHANNELS 3 Zrotation Yrotation Xrotation
                        JOINT RightHandIndex4
                        {
                          OFFSET -2.327586 0.000000 0.000001
                          CHANNELS 3 Zrotation Yrotation Xrotation
                          JOINT RightHandIndexEnd
                          {
                            OFFSET -2.761790 -0.180656 -0.113078
                            CHANNELS 3 Zrotation Yrotation Xrotation
                          }
                        }
                      }
                    }
                  }
                  JOINT RightHandMiddle1
                  {
                    OFFSET -3.168106 0.246593 1.001030
                    CHANNELS 3 Zrotation Yrotation Xrotation
                    JOINT RightHandMiddle2
                    {
                      OFFSET -6.180828 -0.258836 -1.000895
                      CHANNELS 3 Zrotation Yrotation Xrotation
                      JOINT RightHandMiddle3
                      {
                        OFFSET -4.348901 0.000000 -0.000000
                        CHANNELS 3 Zrotation Yrotation Xrotation
                        JOINT RightHandMiddle4
                        {
                          OFFSET -3.000240 -0.000004 -0.000002
                          CHANNELS 3 Zrotation Yrotation Xrotation
                          JOINT RightHandMiddleEnd
                          {
                            OFFSET -2.302520 -0.294370 -0.031706
                            CHANNELS 3 Zrotation Yrotation Xrotation
                          }
                        }
                      }
                    }
                  }
                  JOINT RightHandRing1
                  {
                    OFFSET -2.885690 -0.067952 -0.308858
                    CHANNELS 3 Zrotation Yrotation Xrotation
                    JOINT RightHandRing2
                    {
                      OFFSET -5.854198 -0.486130 -1.373731
                      CHANNELS 3 Zrotation Yrotation Xrotation
                      JOINT RightHandRing3
                      {
                        OFFSET -4.338810 -0.000004 -0.000000
                        CHANNELS 3 Zrotation Yrotation Xrotation
                        JOINT RightHandRing4
                        {
                          OFFSET -2.654903 -0.000004 0.000004
                          CHANNELS 3 Zrotation Yrotation Xrotation
                          JOINT RightHandRingEnd
                          {
                            OFFSET -1.933568 0.077527 -0.000052
                            CHANNELS 3 Zrotation Yrotation Xrotation
                          }
                        }
                      }
                    }
                  }
                  JOINT RightHandPinky1
                  {
                    OFFSET -2.866425 -0.342796 -1.584145
                    CHANNELS 3 Zrotation Yrotation Xrotation
                    JOINT RightHandPinky2
                    {
                      OFFSET -5.091371 -1.332055 -1.772385
                      CHANNELS 3 Zrotation Yrotation Xrotation
                      JOINT RightHandPinky3
                      {
                        OFFSET -3.062664 -0.000004 0.000001
                        CHANNELS 3 Zrotation Yrotation Xrotation
                        JOINT RightHandPinky4
                        {
                          OFFSET -1.546529 0.000004 -0.000002
                          CHANNELS 3 Zrotation Yrotation Xrotation
                          JOINT RightHandPinkyEnd
                          {
                            OFFSET -1.945119 -0.157718 0.057211
                            CHANNELS 3 Zrotation Yrotation Xrotation
                          }
                        }
                      }
                    }
                  }
                }
              }
            }
          }
        }
      }
    }
    JOINT LeftLeg
    {
      OFFSET 10.043214 -8.434526 2.595655
      CHANNELS 3 Zrotation Yrotation Xrotation
      JOINT LeftShin
      {
        OFFSET -0.000001 -43.221752 -0.802913
        CHANNELS 3 Zrotation Yrotation Xrotation
        JOINT LeftFoot
        {
          OFFSET 0.000001 -42.155094 -3.481523
          CHANNELS 3 Zrotation Yrotation Xrotation
          JOINT LeftToeBase
          {
            OFFSET 0.000000 -5.059472 13.231529
            CHANNELS 3 Zrotation Yrotation Xrotation
            JOINT LeftToeEnd
            {
              OFFSET -0.009607 -1.647619 6.513017
              CHANNELS 3 Zrotation Yrotation Xrotation
            }
          }
        }
      }
    }
    JOINT RightLeg
    {
      OFFSET -10.047278 -8.295260 2.620317
      CHANNELS 3 Zrotation Yrotation Xrotation
      JOINT RightShin
      {
        OFFSET 0.000001 -43.362206 -0.805556
        CHANNELS 3 Zrotation Yrotation Xrotation
        JOINT RightFoot
        {
          OFFSET 0.000002 -42.117393 -3.478398
          CHANNELS 3 Zrotation Yrotation Xrotation
          JOINT RightToeBase
          {
            OFFSET -0.000000 -5.079609 13.284196
            CHANNELS 3 Zrotation Yrotation Xrotation
            JOINT RightToeEnd
            {
              OFFSET 0.009532 -1.634378 6.460591
              CHANNELS 3 Zrotation Yrotation Xrotation
            }
          }
        }
      }
    }
  }
}
MOTION
Frames: 32
Frame Time: 0.03333333
0.000000 0.000000 0.000000 0.000000 -0.000000 0.000000 -2.620826 -1.830974 0.807477 -2.714596 -1.504962 3.204647 -4.165537 -0.532702 6.336388 -0.953239 -3.734766 -3.570171 -3.572910 -6.206081 12.586709 9.439629 -4.516212 22.639765 -4.098324 -13.182903 -3.406375 2.904390 -17.572975 -14.782780 0.000077 -0.000022 0.000006 -0.032795 0.148830 -0.033488 0.543832 -3.580114 -10.706731 -0.614686 3.870576 -10.687689 25.107191 -33.682064 -6.638883 93.432640 -81.362595 -130.136719 0.458823 -31.919302 -0.019200 12.957671 10.185837 -65.185471 -5.882102 9.861279 0.702590 -10.936861 -0.360574 7.156197 0.000000 8.774815 -0.000000 -15.419971 18.091612 6.505845 -1.844031 2.498503 -2.507276 -10.163590 4.678941 4.621104 -20.975996 -0.000001 0.000001 -21.226254 2.451698 -3.593995 0.000000 -0.000006 -0.000000 -1.362681 2.240797 -0.746323 -21.334892 0.584910 3.008319 -13.821196 -0.000001 0.000001 -23.887129 -0.249075 -0.839485 -61.071056 2.786516 -1.416881 -0.294025 1.679686 0.833255 -14.218195 0.093215 1.300579 -34.212002 -0.287561 0.967166 -20.033176 0.964536 1.212838 0.000000 -0.000000 0.000000 -3.440387 0.788233 0.501655 -15.928172 -3.167306 2.999703 -6.338817 -0.000000 0.000001 -18.123419 3.648181 -4.905662 -0.000004 0.000000 -0.000002 -0.958751 16.208967 8.220658 25.671722 20.353577 -41.917500 174.323380 81.966843 174.459229 -31.369276 -37.758438 -55.344067 2.243540 -5.255033 -3.180156 14.282877 -0.826594 6.952496 -0.000000 -12.690593 -0.000001 16.393026 -17.406328 2.351967 1.665665 -1.955920 -2.878297 4.727794 -4.170584 4.993919 11.020511 0.000001 -0.000000 12.109032 -3.735715 -2.866778 0.000000 -0.000000 0.000000 1.291985 -1.928548 -1.498088 14.800115 0.567467 3.865604 14.242553 -1.341738 -6.660648 19.631935 0.143921 -0.648243 49.573589 -0.543410 -5.802657 0.353029 -1.511150 -0.031940 20.222769 3.684305 2.316629 18.787249 0.000001 -0.000001 10.751608 -0.479870 1.397903 0.000000 -0.000000 0.000000 3.273804 0.305947 -0.580110 21.486790 11.830364 2.266131 8.162915 0.000000 -0.000000 18.399052 -3.798986 -4.940567 0.000003 0.000000 -0.000001 8.515899 4.552834 -18.226231 -0.120337 -0.344266 28.045792 -2.926119 -11.427235 -10.273812 1.656527 -2.115021 -4.546751 0.000000 -0.000000 0.000002 4.479563 -24.392954 -16.430004 0.066342 -0.100800 22.147503 1.478706 -2.071534 -9.353160 -1.422789 0.911171 -1.316291 0.000000 -0.000000 -0.000001
0.000000 0.000000 0.000000 0.000000 -0.000000 0.000000 -2.620826 -1.862041 0.807477 -2.714596 -1.504962 3.204647 -4.161631 -0.534187 6.353880 -0.939972 -3.747272 -3.562057 -3.573055 -6.181081 12.594347 9.404250 -4.495804 22.708000 -4.139657 -13.233969 -3.401273 2.892572 -17.648575 -14.789497 0.000077 -0.000022 0.000006 -0.032849 0.156708 -0.035284 0.541777 -3.573190 -10.705884 -0.612645 3.879844 -10.696168 25.077627 -33.695602 -6.620657 92.832535 -81.448273 -129.460358 0.431108 -32.031818 -0.054255 13.043385 10.172276 -64.948013 -5.882102 9.861279 0.702590 -10.936861 -0.360574 7.156197 0.000000 8.774815 -0.000000 -15.396767 18.120512 6.538688 -1.844031 2.498503 -2.507276 -10.163590 4.678941 4.621104 -20.975996 -0.000001 0.000001 -21.226254 2.451698 -3.593995 0.000000 -0.000006 -0.000000 -1.362681 2.240797 -0.746323 -21.334892 0.584910 3.008319 -13.821196 -0.000001 0.000001 -23.887129 -0.249075 -0.839485 -60.986309 2.798022 -1.394446 -0.294025 1.679686 0.833255 -14.218195 0.093215 1.300579 -34.212002 -0.287561 0.967166 -20.033176 0.964536 1.212838 0.000000 -0.000000 0.000000 -3.440387 0.788233 0.501655 -15.928172 -3.167306 2.999703 -6.338817 -0.000000 0.000001 -18.123419 3.648181 -4.905662 -0.000004 0.000000 -0.000002 -0.932013 16.171606 8.275275 25.706301 20.396585 -41.935154 173.862091 81.970871 173.938217 -31.350996 -37.686852 -55.427685 2.243540 -5.255033 -3.180156 14.282877 -0.826594 6.952496 -0.000000 -12.690593 -0.000001 16.406725 -17.335896 2.340111 1.665665 -1.955920 -2.878297 4.727794 -4.170584 4.993919 11.020511 0.000001 -0.000000 12.109032 -3.735715 -2.866778 0.000000 -0.000000 0.000000 1.291985 -1.928548 -1.498088 14.800115 0.567467 3.865604 14.242553 -1.341738 -6.660648 19.631935 0.143921 -0.648243 49.531967 -0.525741 -5.762406 0.353029 -1.511150 -0.031940 20.222769 3.684305 2.316629 18.787249 0.000001 -0.000001 10.751608 -0.479870 1.397903 0.000000 -0.000000 0.000000 3.273804 0.305947 -0.580110 21.486790 11.830364 2.266131 8.162915 0.000000 -0.000000 18.399052 -3.798986 -4.940567 0.000003 0.000000 -0.000001 8.515899 4.552834 -18.226231 -0.120337 -0.344266 28.045792 -2.926119 -11.427235 -10.273812 1.656527 -2.115021 -4.546751 0.000000 -0.000000 0.000002 4.479563 -24.392954 -16.430004 0.066342 -0.100800 22.147503 1.478706 -2.071534 -9.353160 -1.422789 0.911171 -1.316291 0.000000 -0.000000 -0.000001
0.000000 0.000000 0.000000 0.000000 -0.000000 0.000000 -2.620826 -1.883586 0.807477 -2.714596 -1.504962 3.204647 -4.166900 -0.541771 6.366474 -0.930078 -3.764180 -3.543808 -3.564818 -6.181911 12.594700 9.416548 -4.478533 22.785450 -4.184842 -13.329498 -3.401446 2.891982 -17.730730 -14.792312 0.000077 -0.000022 0.000006 -0.031541 0.152856 -0.035044 0.539984 -3.578227 -10.705910 -0.608062 3.877147 -10.702499 25.044561 -33.760208 -6.601261 92.376755 -81.496262 -128.928421 0.394293 -32.118690 -0.080416 13.116171 10.187794 -64.874939 -5.882102 9.861279 0.702590 -10.936861 -0.360574 7.156197 0.000000 8.774815 -0.000000 -15.403846 18.136627 6.548562 -1.844031 2.498503 -2.507276 -10.163590 4.678941 4.621104 -20.975996 -0.000001 0.000001 -21.226254 2.451698 -3.593995 0.000000 -0.000006 -0.000000 -1.362681 2.240797 -0.746323 -21.334892 0.584910 3.008319 -13.821196 -0.000001 0.000001 -23.887129 -0.249075 -0.839485 -60.946339 2.797944 -1.401628 -0.294025 1.679686 0.833255 -14.218195 0.093215 1.300579 -34.212002 -0.287561 0.967166 -20.033176 0.964536 1.212838 0.000000 -0.000000 0.000000 -3.440387 0.788233 0.501655 -15.928172 -3.167306 2.999703 -6.338817 -0.000000 0.000001 -18.123419 3.648181 -4.905662 -0.000004 0.000000 -0.000002 -0.896485 16.112370 8.339814 25.729786 20.385031 -41.971462 173.661179 81.940338 173.704254 -31.332270 -37.726273 -55.604652 2.243540 -5.255033 -3.180156 14.282877 -0.826594 6.952496 -0.000000 -12.690593 -0.000001 16.407410 -17.301619 2.339477 1.665665 -1.955920 -2.878297 4.727794 -4.170584 4.993919 11.020511 0.000001 -0.000000 12.109032 -3.735715 -2.866778 0.000000 -0.000000 0.000000 1.291985 -1.928548 -1.498088 14.800115 0.567467 3.865604 14.242553 -1.341738 -6.660648 19.631935 0.143921 -0.648243 49.505642 -0.513574 -5.731149 0.353029 -1.511150 -0.031940 20.222769 3.684305 2.316629 18.787249 0.000001 -0.000001 10.751608 -0.479870 1.397903 0.000000 -0.000000 0.000000 3.273804 0.305947 -0.580110 21.486790 11.830364 2.266131 8.162915 0.000000 -0.000000 18.399052 -3.798986 -4.940567 0.000003 0.000000 -0.000001 8.515899 4.552834 -18.226231 -0.120337 -0.344266 28.045792 -2.926119 -11.427235 -10.273812 1.656527 -2.115021 -4.546751 0.000000 -0.000000 0.000002 4.479563 -24.392954 -16.430004 0.066342 -0.100800 22.147503 1.478706 -2.071534 -9.353160 -1.422789 0.911171 -1.316291 0.000000 -0.000000 -0.000001
0.000000 0.000000 0.000000 0.000000 -0.000000 0.000000 -2.620826 -1.897456 0.807477 -2.714596 -1.504962 3.204647 -4.176431 -0.551689 6.370452 -0.924609 -3.777967 -3.526138 -3.554631 -6.203396 12.605996 9.456759 -4.476787 22.853188 -4.209735 -13.427167 -3.405592 2.892491 -17.784632 -14.791862 0.000077 -0.000022 0.000006 -0.031328 0.144540 -0.032342 0.537150 -3.588133 -10.709139 -0.604700 3.870169 -10.705078 25.006531 -33.855549 -6.554282 92.148689 -81.479210 -128.590210 0.373039 -32.185341 -0.108497 13.186043 10.211163 -65.017204 -5.882102 9.861279 0.702590 -10.936861 -0.360574 7.156197 0.000000 8.774815 -0.000000 -15.419390 18.130886 6.540555 -1.844031 2.498503 -2.507276 -10.163590 4.678941 4.621104 -20.975996 -0.000001 0.000001 -21.226254 2.451698 -3.593995 0.000000 -0.000006 -0.000000 -1.362681 2.240797 -0.746323 -21.334892 0.584910 3.008319 -13.821196 -0.000001 0.000001 -23.887129 -0.249075 -0.839485 -60.933388 2.787987 -1.420119 -0.294025 1.679686 0.833255 -14.218195 0.093215 1.300579 -34.212002 -0.287561 0.967166 -20.033176 0.964536 1.212838 0.000000 -0.000000 0.000000 -3.440387 0.788233 0.501655 -15.928172 -3.167306 2.999703 -6.338817 -0.000000 0.000001 -18.123419 3.648181 -4.905662 -0.000004 0.000000 -0.000002 -0.849733 16.023483 8.392498 25.715563 20.347885 -42.014114 173.614349 81.919006 173.630051 -31.311985 -37.837029 -55.900394 2.243540 -5.255033 -3.180156 14.282877 -0.826594 6.952496 -0.000000 -12.690593 -0.000001 16.406546 -17.315630 2.342196 1.665665 -1.955920 -2.878297 4.727794 -4.170584 4.993919 11.020511 0.000001 -0.000000 12.109032 -3.735715 -2.866778 0.000000 -0.000000 0.000000 1.291985 -1.928548 -1.498088 14.800115 0.567467 3.865604 14.242553 -1.341738 -6.660648 19.631935 0.143921 -0.648243 49.510590 -0.513856 -5.730363 0.353029 -1.511150 -0.031940 20.222769 3.684305 2.316629 18.787249 0.000001 -0.000001 10.751608 -0.479870 1.397903 0.000000 -0.000000 0.000000 3.273804 0.305947 -0.580110 21.486790 11.830364 2.266131 8.162915 0.000000 -0.000000 18.399052 -3.798986 -4.940567 0.000003 0.000000 -0.000001 8.515899 4.552834 -18.226231 -0.120337 -0.344266 28.045792 -2.926119 -11.427235 -10.273812 1.656527 -2.115021 -4.546751 0.000000 -0.000000 0.000002 4.479563 -24.392954 -16.430004 0.066342 -0.100800 22.147503 1.478706 -2.071534 -9.353160 -1.422789 0.911171 -1.316291 0.000000 -0.000000 -0.000001
0.000000 0.000000 0.000000 0.000000 -0.000000 0.000000 -2.620826 -1.912623 0.807477 -2.714596 -1.504962 3.204647 -4.186564 -0.557964 6.366351 -0.922360 -3.790206 -3.513405 -3.551915 -6.230183 12.626579 9.521778 -4.489624 22.902822 -4.214153 -13.520330 -3.409080 2.887278 -17.786385 -14.786443 0.000077 -0.000022 0.000006 -0.032533 0.135373 -0.027115 0.534034 -3.599129 -10.716181 -0.603913 3.862118 -10.707813 24.978006 -33.921936 -6.497451 92.177246 -81.444664 -128.519547 0.372089 -32.251774 -0.133500 13.222017 10.231790 -65.242058 -5.882102 9.861279 0.702590 -10.936861 -0.360574 7.156197 0.000000 8.774815 -0.000000 -15.435789 18.124014 6.530917 -1.844031 2.498503 -2.507276 -10.163590 4.678941 4.621104 -20.975996 -0.000001 0.000001 -21.226254 2.451698 -3.593995 0.000000 -0.000006 -0.000000 -1.362681 2.240797 -0.746323 -21.334892 0.584910 3.008319 -13.821196 -0.000001 0.000001 -23.887129 -0.249075 -0.839485 -60.947399 2.784488 -1.441472 -0.294025 1.679686 0.833255 -14.218195 0.093215 1.300579 -34.212002 -0.287561 0.967166 -20.033176 0.964536 1.212838 0.000000 -0.000000 0.000000 -3.440387 0.788233 0.501655 -15.928172 -3.167306 2.999703 -6.338817 -0.000000 0.000001 -18.123419 3.648181 -4.905662 -0.000004 0.000000 -0.000002 -0.802119 15.916112 8.439793 25.687841 20.308266 -42.077663 173.492111 81.903152 173.518295 -31.277411 -37.934917 -56.262749 2.243540 -5.255033 -3.180156 14.282877 -0.826594 6.952496 -0.000000 -12.690593 -0.000001 16.374716 -17.349230 2.345594 1.665665 -1.955920 -2.878297 4.727794 -4.170584 4.993919 11.020511 0.000001 -0.000000 12.109032 -3.735715 -2.866778 0.000000 -0.000000 0.000000 1.291985 -1.928548 -1.498088 14.800115 0.567467 3.865604 14.242553 -1.341738 -6.660648 19.631935 0.143921 -0.648243 49.505871 -0.519832 -5.754803 0.353029 -1.511150 -0.031940 20.222769 3.684305 2.316629 18.787249 0.000001 -0.000001 10.751608 -0.479870 1.397903 0.000000 -0.000000 0.000000 3.273804 0.305947 -0.580110 21.486790 11.830364 2.266131 8.162915 0.000000 -0.000000 18.399052 -3.798986 -4.940567 0.000003 0.000000 -0.000001 8.515899 4.552834 -18.226231 -0.120337 -0.344266 28.045792 -2.926119 -11.427235 -10.273812 1.656527 -2.115021 -4.546751 0.000000 -0.000000 0.000002 4.479563 -24.392954 -16.430004 0.066342 -0.100800 22.147503 1.478706 -2.071534 -9.353160 -1.422789 0.911171 -1.316291 0.000000 -0.000000 -0.000001
0.000000 0.000000 0.000000 0.000000 -0.000000 0.000000 -2.620826 -1.928065 0.807477 -2.714596 -1.504962 3.204647 -4.190367 -0.558225 6.352265 -0.925581 -3.794657 -3.500571 -3.539981 -6.268242 12.647912 9.574569 -4.503142 22.934200 -4.212375 -13.565743 -3.415706 2.894732 -17.796469 -14.770067 0.000077 -0.000022 0.000006 -0.033317 0.133165 -0.022531 0.530476 -3.602183 -10.719341 -0.601689 3.859818 -10.705462 24.958258 -33.965363 -6.452353 92.241783 -81.430809 -128.479385 0.406817 -32.305813 -0.160586 13.222503 10.242590 -65.514832 -5.882102 9.861279 0.702590 -10.936861 -0.360574 7.156197 0.000000 8.774815 -0.000000 -15.463612 18.132360 6.530115 -1.844031 2.498503 -2.507276 -10.163590 4.678941 4.621104 -20.975996 -0.000001 0.000001 -21.226254 2.451698 -3.593995 0.000000 -0.000006 -0.000000 -1.362681 2.240797 -0.746323 -21.334892 0.584910 3.008319 -13.821196 -0.000001 0.000001 -23.887129 -0.249075 -0.839485 -60.998329 2.795791 -1.472791 -0.294025 1.679686 0.833255 -14.218195 0.093215 1.300579 -34.212002 -0.287561 0.967166 -20.033176 0.964536 1.212838 0.000000 -0.000000 0.000000 -3.440387 0.788233 0.501655 -15.928172 -3.167306 2.999703 -6.338817 -0.000000 0.000001 -18.123419 3.648181 -4.905662 -0.000004 0.000000 -0.000002 -0.777643 15.832746 8.492008 25.670282 20.281282 -42.105598 173.529709 81.910606 173.592392 -31.282932 -37.973114 -56.617851 2.243540 -5.255033 -3.180156 14.282877 -0.826594 6.952496 -0.000000 -12.690593 -0.000001 16.317739 -17.388666 2.340784 1.665665 -1.955920 -2.878297 4.727794 -4.170584 4.993919 11.020511 0.000001 -0.000000 12.109032 -3.735715 -2.866778 0.000000 -0.000000 0.000000 1.291985 -1.928548 -1.498088 14.800115 0.567467 3.865604 14.242553 -1.341738 -6.660648 19.631935 0.143921 -0.648243 49.484730 -0.524398 -5.792648 0.353029 -1.511150 -0.031940 20.222769 3.684305 2.316629 18.787249 0.000001 -0.000001 10.751608 -0.479870 1.397903 0.000000 -0.000000 0.000000 3.273804 0.305947 -0.580110 21.486790 11.830364 2.266131 8.162915 0.000000 -0.000000 18.399052 -3.798986 -4.940567 0.000003 0.000000 -0.000001 8.515899 4.552834 -18.226231 -0.120337 -0.344266 28.045792 -2.926119 -11.427235 -10.273812 1.656527 -2.115021 -4.546751 0.000000 -0.000000 0.000002 4.479563 -24.392954 -16.430004 0.066342 -0.100800 22.147503 1.478706 -2.071534 -9.353160 -1.422789 0.911171 -1.316291 0.000000 -0.000000 -0.000001
0.000000 0.000000 0.000000 0.000000 -0.000000 0.000000 -2.620826 -1.945025 0.807477 -2.714596 -1.504962 3.204647 -4.191617 -0.546219 6.361042 -0.935044 -3.797790 -3.489048 -3.518909 -6.307652 12.653151 9.633704 -4.537906 22.964417 -4.217880 -13.518682 -3.423739 2.898419 -17.818520 -14.713573 0.000077 -0.000022 0.000006 -0.041418 0.151875 -0.020746 0.520260 -3.583978 -10.719605 -0.607637 3.878394 -10.702796 24.931778 -33.978111 -6.302247 92.541153 -81.346100 -128.886581 0.390747 -32.346996 -0.135322 13.227837 10.220679 -65.566673 -5.882102 9.861279 0.702590 -10.936861 -0.360574 7.156197 0.000000 8.774815 -0.000000 -15.481059 18.146915 6.504159 -1.844031 2.498503 -2.507276 -10.163590 4.678941 4.621104 -20.975996 -0.000001 0.000001 -21.226254 2.451698 -3.593995 0.000000 -0.000006 -0.000000 -1.362681 2.240797 -0.746323 -21.334892 0.584910 3.008319 -13.821196 -0.000001 0.000001 -23.887129 -0.249075 -0.839485 -61.022747 2.825211 -1.487558 -0.294025 1.679686 0.833255 -14.218195 0.093215 1.300579 -34.212002 -0.287561 0.967166 -20.033176 0.964536 1.212838 0.000000 -0.000000 0.000000 -3.440387 0.788233 0.501655 -15.928172 -3.167306 2.999703 -6.338817 -0.000000 0.000001 -18.123419 3.648181 -4.905662 -0.000004 0.000000 -0.000002 -0.740354 15.796419 8.578341 25.646988 20.236650 -42.064690 174.343155 81.920174 174.390564 -31.260872 -37.888737 -56.890945 2.243540 -5.255033 -3.180156 14.282877 -0.826594 6.952496 -0.000000 -12.690593 -0.000001 16.250742 -17.370672 2.340486 1.665665 -1.955920 -2.878297 4.727794 -4.170584 4.993919 11.020511 0.000001 -0.000000 12.109032 -3.735715 -2.866778 0.000000 -0.000000 0.000000 1.291985 -1.928548 -1.498088 14.800115 0.567467 3.865604 14.242553 -1.341738 -6.660648 19.631935 0.143921 -0.648243 49.426609 -0.526583 -5.839118 0.353029 -1.511150 -0.031940 20.222769 3.684305 2.316629 18.787249 0.000001 -0.000001 10.751608 -0.479870 1.397903 0.000000 -0.000000 0.000000 3.273804 0.305947 -0.580110 21.486790 11.830364 2.266131 8.162915 0.000000 -0.000000 18.399052 -3.798986 -4.940567 0.000003 0.000000 -0.000001 8.515899 4.552834 -18.226231 -0.120337 -0.344266 28.045792 -2.926119 -11.427235 -10.273812 1.656527 -2.115021 -4.546751 0.000000 -0.000000 0.000002 4.479563 -24.392954 -16.430004 0.066342 -0.100800 22.147503 1.478706 -2.071534 -9.353160 -1.422789 0.911171 -1.316291 0.000000 -0.000000 -0.000001
0.000000 0.000000 0.000000 0.000000 -0.000000 0.000000 -2.620826 -1.973598 0.807477 -2.714596 -1.504962 3.204647 -4.181235 -0.562123 6.321363 -0.941025 -3.878917 -3.474958 -3.539600 -6.366516 12.700105 9.721498 -4.562728 22.952515 -4.186075 -13.541677 -3.467584 2.819804 -17.776510 -14.701921 0.000077 -0.000022 0.000006 -0.024909 0.137554 -0.016685 0.531078 -3.598873 -10.699795 -0.585525 3.864061 -10.674368 24.991817 -34.044373 -6.397633 92.547913 -81.362663 -128.621826 0.445335 -32.441277 -0.075597 13.231222 10.432449 -65.596519 -5.882102 9.861279 0.702590 -10.936861 -0.360574 7.156197 0.000000 8.774815 -0.000000 -15.608574 18.058910 6.447608 -1.844031 2.498503 -2.507276 -10.163590 4.678941 4.621104 -20.975996 -0.000001 0.000001 -21.226254 2.451698 -3.593995 0.000000 -0.000006 -0.000000 -1.362681 2.240797 -0.746323 -21.334892 0.584910 3.008319 -13.821196 -0.000001 0.000001 -23.887129 -0.249075 -0.839485 -61.087040 2.781444 -1.481278 -0.294025 1.679686 0.833255 -14.218195 0.093215 1.300579 -34.212002 -0.287561 0.967166 -20.033176 0.964536 1.212838 0.000000 -0.000000 0.000000 -3.440387 0.788233 0.501655 -15.928172 -3.167306 2.999703 -6.338817 -0.000000 0.000001 -18.123419 3.648181 -4.905662 -0.000004 0.000000 -0.000002 -0.712286 15.682156 8.582574 25.655134 20.130150 -42.276653 172.939011 81.874329 173.056671 -31.055286 -38.028587 -57.173267 2.243540 -5.255033 -3.180156 14.282877 -0.826594 6.952496 -0.000000 -12.690593 -0.000001 16.121523 -17.432344 2.371656 1.665665 -1.955920 -2.878297 4.727794 -4.170584 4.993919 11.020511 0.000001 -0.000000 12.109032 -3.735715 -2.866778 0.000000 -0.000000 0.000000 1.291985 -1.928548 -1.498088 14.800115 0.567467 3.865604 14.242553 -1.341738 -6.660648 19.631935 0.143921 -0.648243 49.381931 -0.553101 -5.861777 0.353029 -1.511150 -0.031940 20.222769 3.684305 2.316629 18.787249 0.000001 -0.000001 10.751608 -0.479870 1.397903 0.000000 -0.000000 0.000000 3.273804 0.305947 -0.580110 21.486790 11.830364 2.266131 8.162915 0.000000 -0.000000 18.399052 -3.798986 -4.940567 0.000003 0.000000 -0.000001 8.515899 4.552834 -18.226231 -0.120337 -0.344266 28.045792 -2.926119 -11.427235 -10.273812 1.656527 -2.115021 -4.546751 0.000000 -0.000000 0.000002 4.479563 -24.392954 -16.430004 0.066342 -0.100800 22.147503 1.478706 -2.071534 -9.353160 -1.422789 0.911171 -1.316291 0.000000 -0.000000 -0.000001
0.000000 0.000000 0.000000 0.000000 -0.000000 0.000000 -2.620826 -1.986821 0.807477 -2.714596 -1.504962 3.204647 -4.192364 -0.563969 6.319965 -0.952389 -3.765438 -3.526016 -3.523917 -6.261011 12.708687 9.588511 -4.559255 23.023739 -4.095376 -13.473508 -3.433746 2.884061 -17.708075 -14.658402 0.000077 -0.000022 0.000006 -0.038140 0.139074 -0.016978 0.522575 -3.598288 -10.725232 -0.603486 3.866851 -10.698239 24.942831 -33.838001 -6.236565 92.104797 -81.361732 -128.446381 0.379218 -32.557331 -0.118868 13.242537 10.350595 -65.705330 -5.882102 9.861279 0.702590 -10.936861 -0.360574 7.156197 0.000000 8.774815 -0.000000 -15.507704 18.102057 6.472868 -1.844031 2.498503 -2.507276 -10.163590 4.678941 4.621104 -20.975996 -0.000001 0.000001 -21.226254 2.451698 -3.593995 0.000000 -0.000006 -0.000000 -1.362681 2.240797 -0.746323 -21.334892 0.584910 3.008319 -13.821196 -0.000001 0.000001 -23.887129 -0.249075 -0.839485 -61.033348 2.787375 -1.502401 -0.294025 1.679686 0.833255 -14.218195 0.093215 1.300579 -34.212002 -0.287561 0.967166 -20.033176 0.964536 1.212838 0.000000 -0.000000 0.000000 -3.440387 0.788233 0.501655 -15.928172 -3.167306 2.999703 -6.338817 -0.000000 0.000001 -18.123419 3.648181 -4.905662 -0.000004 0.000000 -0.000002 -0.777908 15.814782 8.591358 25.653099 20.366590 -42.241562 173.484039 82.089272 173.479691 -31.206490 -37.765457 -56.635216 2.243540 -5.255033 -3.180156 14.282877 -0.826594 6.952496 -0.000000 -12.690593 -0.000001 16.268539 -17.458097 2.330046 1.665665 -1.955920 -2.878297 4.727794 -4.170584 4.993919 11.020511 0.000001 -0.000000 12.109032 -3.735715 -2.866778 0.000000 -0.000000 0.000000 1.291985 -1.928548 -1.498088 14.800115 0.567467 3.865604 14.242553 -1.341738 -6.660648 19.631935 0.143921 -0.648243 49.436554 -0.564241 -5.869878 0.353029 -1.511150 -0.031940 20.222769 3.684305 2.316629 18.787249 0.000001 -0.000001 10.751608 -0.479870 1.397903 0.000000 -0.000000 0.000000 3.273804 0.305947 -0.580110 21.486790 11.830364 2.266131 8.162915 0.000000 -0.000000 18.399052 -3.798986 -4.940567 0.000003 0.000000 -0.000001 8.515899 4.552834 -18.226231 -0.120337 -0.344266 28.045792 -2.926119 -11.427235 -10.273812 1.656527 -2.115021 -4.546751 0.000000 -0.000000 0.000002 4.479563 -24.392954 -16.430004 0.066342 -0.100800 22.147503 1.478706 -2.071534 -9.353160 -1.422789 0.911171 -1.316291 0.000000 -0.000000 -0.000001
0.000000 0.000000 0.000000 0.000000 -0.000000 0.000000 -2.620826 -2.013491 0.807477 -2.714596 -1.504962 3.204647 -4.184918 -0.569908 6.288731 -0.954149 -3.707464 -3.557349 -3.535367 -6.214305 12.727847 9.508832 -4.573891 23.084764 -4.057477 -13.328834 -3.425744 2.867482 -17.658304 -14.693535 0.000077 -0.000022 0.000006 -0.043949 0.157306 -0.018422 0.518400 -3.579190 -10.716536 -0.611093 3.884694 -10.693181 24.909836 -33.670601 -6.215715 91.626221 -81.448341 -128.080475 0.336340 -32.732849 -0.092143 13.257938 10.427605 -65.572083 -5.882102 9.861279 0.702590 -10.936861 -0.360574 7.156197 0.000000 8.774815 -0.000000 -15.516802 18.135210 6.451786 -1.844031 2.498503 -2.507276 -10.163590 4.678941 4.621104 -20.975996 -0.000001 0.000001 -21.226254 2.451698 -3.593995 0.000000 -0.000006 -0.000000 -1.362681 2.240797 -0.746323 -21.334892 0.584910 3.008319 -13.821196 -0.000001 0.000001 -23.887129 -0.249075 -0.839485 -61.046532 2.800535 -1.486333 -0.294025 1.679686 0.833255 -14.218195 0.093215 1.300579 -34.212002 -0.287561 0.967166 -20.033176 0.964536 1.212838 0.000000 -0.000000 0.000000 -3.440387 0.788233 0.501655 -15.928172 -3.167306 2.999703 -6.338817 -0.000000 0.000001 -18.123419 3.648181 -4.905662 -0.000004 0.000000 -0.000002 -0.812591 15.927777 8.610186 25.666161 20.518316 -42.230541 173.577011 82.214874 173.567932 -31.192915 -37.654778 -56.429466 2.243540 -5.255033 -3.180156 14.282877 -0.826594 6.952496 -0.000000 -12.690593 -0.000001 16.294241 -17.459656 2.318765 1.665665 -1.955920 -2.878297 4.727794 -4.170584 4.993919 11.020511 0.000001 -0.000000 12.109032 -3.735715 -2.866778 0.000000 -0.000000 0.000000 1.291985 -1.928548 -1.498088 14.800115 0.567467 3.865604 14.242553 -1.341738 -6.660648 19.631935 0.143921 -0.648243 49.450119 -0.560711 -5.857705 0.353029 -1.511150 -0.031940 20.222769 3.684305 2.316629 18.787249 0.000001 -0.000001 10.751608 -0.479870 1.397903 0.000000 -0.000000 0.000000 3.273804 0.305947 -0.580110 21.486790 11.830364 2.266131 8.162915 0.000000 -0.000000 18.399052 -3.798986 -4.940567 0.000003 0.000000 -0.000001 8.515899 4.552834 -18.226231 -0.120337 -0.344266 28.045792 -2.926119 -11.427235 -10.273812 1.656527 -2.115021 -4.546751 0.000000 -0.000000 0.000002 4.479563 -24.392954 -16.430004 0.066342 -0.100800 22.147503 1.478706 -2.071534 -9.353160 -1.422789 0.911171 -1.316291 0.000000 -0.000000 -0.000001
0.000000 0.000000 0.000000 0.000000 -0.000000 0.000000 -2.620826 -2.039730 0.807477 -2.714596 -1.504962 3.204647 -4.186530 -0.568837 6.263672 -0.947321 -3.665877 -3.582436 -3.550302 -6.184849 12.746992 9.445935 -4.570283 23.147608 -4.043182 -13.202352 -3.417158 2.868341 -17.617630 -14.744947 0.000077 -0.000022 0.000006 -0.044062 0.163633 -0.021387 0.519764 -3.570895 -10.707863 -0.612715 3.889756 -10.690497 24.907381 -33.543747 -6.217757 90.662331 -81.499817 -127.148003 0.322600 -32.915390 -0.061551 13.296474 10.547222 -65.395355 -5.882102 9.861279 0.702590 -10.936861 -0.360574 7.156197 0.000000 8.774815 -0.000000 -15.512430 18.164133 6.447346 -1.844031 2.498503 -2.507276 -10.163590 4.678941 4.621104 -20.975996 -0.000001 0.000001 -21.226254 2.451698 -3.593995 0.000000 -0.000006 -0.000000 -1.362681 2.240797 -0.746323 -21.334892 0.584910 3.008319 -13.821196 -0.000001 0.000001 -23.887129 -0.249075 -0.839485 -61.040314 2.800358 -1.466995 -0.294025 1.679686 0.833255 -14.218195 0.093215 1.300579 -34.212002 -0.287561 0.967166 -20.033176 0.964536 1.212838 0.000000 -0.000000 0.000000 -3.440387 0.788233 0.501655 -15.928172 -3.167306 2.999703 -6.338817 -0.000000 0.000001 -18.123419 3.648181 -4.905662 -0.000004 0.000000 -0.000002 -0.850889 16.064938 8.606797 25.659178 20.630749 -42.259525 173.280273 82.316200 173.279480 -31.180250 -37.567276 -56.276810 2.243540 -5.255033 -3.180156 14.282877 -0.826594 6.952496 -0.000000 -12.690593 -0.000001 16.322912 -17.442629 2.322611 1.665665 -1.955920 -2.878297 4.727794 -4.170584 4.993919 11.020511 0.000001 -0.000000 12.109032 -3.735715 -2.866778 0.000000 -0.000000 0.000000 1.291985 -1.928548 -1.498088 14.800115 0.567467 3.865604 14.242553 -1.341738 -6.660648 19.631935 0.143921 -0.648243 49.482903 -0.545071 -5.850543 0.353029 -1.511150 -0.031940 20.222769 3.684305 2.316629 18.787249 0.000001 -0.000001 10.751608 -0.479870 1.397903 0.000000 -0.000000 0.000000 3.273804 0.305947 -0.580110 21.486790 11.830364 2.266131 8.162915 0.000000 -0.000000 18.399052 -3.798986 -4.940567 0.000003 0.000000 -0.000001 8.515899 4.552834 -18.226231 -0.120337 -0.344266 28.045792 -2.926119 -11.427235 -10.273812 1.656527 -2.115021 -4.546751 0.000000 -0.000000 0.000002 4.479563 -24.392954 -16.430004 0.066342 -0.100800 22.147503 1.478706 -2.071534 -9.353160 -1.422789 0.911171 -1.316291 0.000000 -0.000000 -0.000001
0.000000 0.000000 0.000000 0.000000 -0.000000 0.000000 -2.620826 -2.052103 0.807477 -2.714596 -1.504962 3.204647 -4.194802 -0.562346 6.254128 -0.936031 -3.640263 -3.597479 -3.556568 -6.151835 12.758121 9.418509 -4.557811 23.195068 -4.057973 -13.136235 -3.400908 2.891314 -17.622324 -14.780595 0.000077 -0.000022 0.000006 -0.042298 0.163175 -0.021918 0.524254 -3.569760 -10.700881 -0.613549 3.888089 -10.688990 24.929859 -33.470051 -6.249965 89.533768 -81.536514 -125.971123 0.337101 -33.065208 -0.055340 13.335755 10.620135 -65.287643 -5.882102 9.861279 0.702590 -10.936861 -0.360574 7.156197 0.000000 8.774815 -0.000000 -15.489928 18.164680 6.443291 -1.844031 2.498503 -2.507276 -10.163590 4.678941 4.621104 -20.975996 -0.000001 0.000001 -21.226254 2.451698 -3.593995 0.000000 -0.000006 -0.000000 -1.362681 2.240797 -0.746323 -21.334892 0.584910 3.008319 -13.821196 -0.000001 0.000001 -23.887129 -0.249075 -0.839485 -60.988926 2.789500 -1.448455 -0.294025 1.679686 0.833255 -14.218195 0.093215 1.300579 -34.212002 -0.287561 0.967166 -20.033176 0.964536 1.212838 0.000000 -0.000000 0.000000 -3.440387 0.788233 0.501655 -15.928172 -3.167306 2.999703 -6.338817 -0.000000 0.000001 -18.123419 3.648181 -4.905662 -0.000004 0.000000 -0.000002 -0.883898 16.193357 8.605112 25.665140 20.687996 -42.310543 172.840179 82.365242 172.846603 -31.218473 -37.496967 -56.202366 2.243540 -5.255033 -3.180156 14.282877 -0.826594 6.952496 -0.000000 -12.690593 -0.000001 16.351868 -17.405298 2.315419 1.665665 -1.955920 -2.878297 4.727794 -4.170584 4.993919 11.020511 0.000001 -0.000000 12.109032 -3.735715 -2.866778 0.000000 -0.000000 0.000000 1.291985 -1.928548 -1.498088 14.800115 0.567467 3.865604 14.242553 -1.341738 -6.660648 19.631935 0.143921 -0.648243 49.508518 -0.522005 -5.835587 0.353029 -1.511150 -0.031940 20.222769 3.684305 2.316629 18.787249 0.000001 -0.000001 10.751608 -0.479870 1.397903 0.000000 -0.000000 0.000000 3.273804 0.305947 -0.580110 21.486790 11.830364 2.266131 8.162915 0.000000 -0.000000 18.399052 -3.798986 -4.940567 0.000003 0.000000 -0.000001 8.515899 4.552834 -18.226231 -0.120337 -0.344266 28.045792 -2.926119 -11.427235 -10.273812 1.656527 -2.115021 -4.546751 0.000000 -0.000000 0.000002 4.479563 -24.392954 -16.430004 0.066342 -0.100800 22.147503 1.478706 -2.071534 -9.353160 -1.422789 0.911171 -1.316291 0.000000 -0.000000 -0.000001
0.000000 0.000000 0.000000 0.000000 -0.000000 0.000000 -2.620826 -2.049851 0.807477 -2.714596 -1.504962 3.204647 -4.204628 -0.552954 6.262898 -0.924207 -3.644586 -3.604450 -3.560721 -6.119863 12.746798 9.436294 -4.548266 23.235266 -4.098622 -13.117256 -3.392504 2.930641 -17.660864 -14.780459 0.000077 -0.000022 0.000006 -0.040183 0.165576 -0.022239 0.530748 -3.565541 -10.694198 -0.615673 3.889201 -10.687284 24.967819 -33.434246 -6.283082 88.549950 -81.561012 -124.908463 0.380086 -33.181526 -0.083957 13.339280 10.626122 -65.215950 -5.882102 9.861279 0.702590 -10.936861 -0.360574 7.156197 0.000000 8.774815 -0.000000 -15.466455 18.148481 6.440212 -1.844031 2.498503 -2.507276 -10.163590 4.678941 4.621104 -20.975996 -0.000001 0.000001 -21.226254 2.451698 -3.593995 0.000000 -0.000006 -0.000000 -1.362681 2.240797 -0.746323 -21.334892 0.584910 3.008319 -13.821196 -0.000001 0.000001 -23.887129 -0.249075 -0.839485 -60.923145 2.779409 -1.432244 -0.294025 1.679686 0.833255 -14.218195 0.093215 1.300579 -34.212002 -0.287561 0.967166 -20.033176 0.964536 1.212838 0.000000 -0.000000 0.000000 -3.440387 0.788233 0.501655 -15.928172 -3.167306 2.999703 -6.338817 -0.000000 0.000001 -18.123419 3.648181 -4.905662 -0.000004 0.000000 -0.000002 -0.892668 16.287815 8.643497 25.650537 20.704361 -42.401382 172.237869 82.356224 172.246353 -31.317175 -37.451584 -56.179844 2.243540 -5.255033 -3.180156 14.282877 -0.826594 6.952496 -0.000000 -12.690593 -0.000001 16.371124 -17.366816 2.306317 1.665665 -1.955920 -2.878297 4.727794 -4.170584 4.993919 11.020511 0.000001 -0.000000 12.109032 -3.735715 -2.866778 0.000000 -0.000000 0.000000 1.291985 -1.928548 -1.498088 14.800115 0.567467 3.865604 14.242553 -1.341738 -6.660648 19.631935 0.143921 -0.648243 49.534805 -0.505084 -5.827026 0.353029 -1.511150 -0.031940 20.222769 3.684305 2.316629 18.787249 0.000001 -0.000001 10.751608 -0.479870 1.397903 0.000000 -0.000000 0.000000 3.273804 0.305947 -0.580110 21.486790 11.830364 2.266131 8.162915 0.000000 -0.000000 18.399052 -3.798986 -4.940567 0.000003 0.000000 -0.000001 8.515899 4.552834 -18.226231 -0.120337 -0.344266 28.045792 -2.926119 -11.427235 -10.273812 1.656527 -2.115021 -4.546751 0.000000 -0.000000 0.000002 4.479563 -24.392954 -16.430004 0.066342 -0.100800 22.147503 1.478706 -2.071534 -9.353160 -1.422789 0.911171 -1.316291 0.000000 -0.000000 -0.000001
0.000000 0.000000 0.000000 0.000000 -0.000000 0.000000 -2.620826 -2.051839 0.807477 -2.714596 -1.504962 3.204647 -4.212624 -0.549431 6.272424 -0.919281 -3.681614 -3.602335 -3.563228 -6.084285 12.719997 9.475605 -4.567214 23.259808 -4.138741 -13.105969 -3.397569 2.966568 -17.683689 -14.739666 0.000077 -0.000022 0.000006 -0.039261 0.169172 -0.022153 0.533857 -3.561302 -10.691234 -0.616694 3.892357 -10.688875 25.020838 -33.409573 -6.304865 87.848427 -81.565010 -124.192673 0.403023 -33.282520 -0.111013 13.320384 10.593559 -65.071426 -5.882102 9.861279 0.702590 -10.936861 -0.360574 7.156197 0.000000 8.774815 -0.000000 -15.454109 18.134348 6.440857 -1.844031 2.498503 -2.507276 -10.163590 4.678941 4.621104 -20.975996 -0.000001 0.000001 -21.226254 2.451698 -3.593995 0.000000 -0.000006 -0.000000 -1.362681 2.240797 -0.746323 -21.334892 0.584910 3.008319 -13.821196 -0.000001 0.000001 -23.887129 -0.249075 -0.839485 -60.872047 2.772995 -1.423030 -0.294025 1.679686 0.833255 -14.218195 0.093215 1.300579 -34.212002 -0.287561 0.967166 -20.033176 0.964536 1.212838 0.000000 -0.000000 0.000000 -3.440387 0.788233 0.501655 -15.928172 -3.167306 2.999703 -6.338817 -0.000000 0.000001 -18.123419 3.648181 -4.905662 -0.000004 0.000000 -0.000002 -0.875532 16.353489 8.736012 25.611845 20.680061 -42.557873 171.628052 82.273613 171.655182 -31.390276 -37.426041 -56.116890 2.243540 -5.255033 -3.180156 14.282877 -0.826594 6.952496 -0.000000 -12.690593 -0.000001 16.363243 -17.334669 2.308924 1.665665 -1.955920 -2.878297 4.727794 -4.170584 4.993919 11.020511 0.000001 -0.000000 12.109032 -3.735715 -2.866778 0.000000 -0.000000 0.000000 1.291985 -1.928548 -1.498088 14.800115 0.567467 3.865604 14.242553 -1.341738 -6.660648 19.631935 0.143921 -0.648243 49.535576 -0.496625 -5.819773 0.353029 -1.511150 -0.031940 20.222769 3.684305 2.316629 18.787249 0.000001 -0.000001 10.751608 -0.479870 1.397903 0.000000 -0.000000 0.000000 3.273804 0.305947 -0.580110 21.486790 11.830364 2.266131 8.162915 0.000000 -0.000000 18.399052 -3.798986 -4.940567 0.000003 0.000000 -0.000001 8.515899 4.552834 -18.226231 -0.120337 -0.344266 28.045792 -2.926119 -11.427235 -10.273812 1.656527 -2.115021 -4.546751 0.000000 -0.000000 0.000002 4.479563 -24.392954 -16.430004 0.066342 -0.100800 22.147503 1.478706 -2.071534 -9.353160 -1.422789 0.911171 -1.316291 0.000000 -0.000000 -0.000001
0.000000 0.000000 0.000000 0.000000 -0.000000 0.000000 -2.620826 -2.047274 0.807477 -2.714596 -1.504962 3.204647 -4.227399 -0.547546 6.282476 -0.914738 -3.726288 -3.596463 -3.558031 -6.067708 12.696403 9.538765 -4.603224 23.263624 -4.176738 -13.107227 -3.411459 3.006042 -17.696882 -14.692427 0.000077 -0.000022 0.000006 -0.040924 0.174688 -0.023775 0.530911 -3.556264 -10.690295 -0.616827 3.898321 -10.691445 25.087687 -33.407406 -6.306327 87.320587 -81.518440 -123.666862 0.405855 -33.367035 -0.117456 13.297287 10.553267 -64.989250 -5.882102 9.861279 0.702590 -10.936861 -0.360574 7.156197 0.000000 8.774815 -0.000000 -15.469646 18.132185 6.435525 -1.844031 2.498503 -2.507276 -10.163590 4.678941 4.621104 -20.975996 -0.000001 0.000001 -21.226254 2.451698 -3.593995 0.000000 -0.000006 -0.000000 -1.362681 2.240797 -0.746323 -21.334892 0.584910 3.008319 -13.821196 -0.000001 0.000001 -23.887129 -0.249075 -0.839485 -60.857594 2.770072 -1.434707 -0.294025 1.679686 0.833255 -14.218195 0.093215 1.300579 -34.212002 -0.287561 0.967166 -20.033176 0.964536 1.212838 0.000000 -0.000000 0.000000 -3.440387 0.788233 0.501655 -15.928172 -3.167306 2.999703 -6.338817 -0.000000 0.000001 -18.123419 3.648181 -4.905662 -0.000004 0.000000 -0.000002 -0.846177 16.390442 8.876203 25.566710 20.643309 -42.764030 171.351746 82.131714 171.410065 -31.392424 -37.464073 -56.098995 2.243540 -5.255033 -3.180156 14.282877 -0.826594 6.952496 -0.000000 -12.690593 -0.000001 16.336250 -17.303898 2.315547 1.665665 -1.955920 -2.878297 4.727794 -4.170584 4.993919 11.020511 0.000001 -0.000000 12.109032 -3.735715 -2.866778 0.000000 -0.000000 0.000000 1.291985 -1.928548 -1.498088 14.800115 0.567467 3.865604 14.242553 -1.341738 -6.660648 19.631935 0.143921 -0.648243 49.508404 -0.489883 -5.798108 0.353029 -1.511150 -0.031940 20.222769 3.684305 2.316629 18.787249 0.000001 -0.000001 10.751608 -0.479870 1.397903 0.000000 -0.000000 0.000000 3.273804 0.305947 -0.580110 21.486790 11.830364 2.266131 8.162915 0.000000 -0.000000 18.399052 -3.798986 -4.940567 0.000003 0.000000 -0.000001 8.515899 4.552834 -18.226231 -0.120337 -0.344266 28.045792 -2.926119 -11.427235 -10.273812 1.656527 -2.115021 -4.546751 0.000000 -0.000000 0.000002 4.479563 -24.392954 -16.430004 0.066342 -0.100800 22.147503 1.478706 -2.071534 -9.353160 -1.422789 0.911171 -1.316291 0.000000 -0.000000 -0.000001
0.000000 0.000000 0.000000 0.000000 -0.000000 0.000000 -2.620826 -2.037150 0.807477 -2.714596 -1.504962 3.204647 -4.236555 -0.546228 6.287962 -0.913166 -3.760388 -3.594288 -3.545886 -6.063800 12.689095 9.622135 -4.645166 23.252527 -4.194778 -13.123141 -3.430387 3.040444 -17.689907 -14.667304 0.000077 -0.000022 0.000006 -0.043800 0.179156 -0.024567 0.524924 -3.552720 -10.688472 -0.616236 3.903241 -10.690807 25.127222 -33.423298 -6.246619 87.057159 -81.392570 -123.417679 0.363667 -33.418148 -0.080164 13.262439 10.512911 -65.010765 -5.882102 9.861279 0.702590 -10.936861 -0.360574 7.156197 0.000000 8.774815 -0.000000 -15.491566 18.144552 6.425213 -1.844031 2.498503 -2.507276 -10.163590 4.678941 4.621104 -20.975996 -0.000001 0.000001 -21.226254 2.451698 -3.593995 0.000000 -0.000006 -0.000000 -1.362681 2.240797 -0.746323 -21.334892 0.584910 3.008319 -13.821196 -0.000001 0.000001 -23.887129 -0.249075 -0.839485 -60.867012 2.776361 -1.455392 -0.294025 1.679686 0.833255 -14.218195 0.093215 1.300579 -34.212002 -0.287561 0.967166 -20.033176 0.964536 1.212838 0.000000 -0.000000 0.000000 -3.440387 0.788233 0.501655 -15.928172 -3.167306 2.999703 -6.338817 -0.000000 0.000001 -18.123419 3.648181 -4.905662 -0.000004 0.000000 -0.000002 -0.805170 16.385645 9.000649 25.523420 20.599726 -42.939095 171.498978 81.973366 171.541931 -31.395491 -37.540554 -56.132504 2.243540 -5.255033 -3.180156 14.282877 -0.826594 6.952496 -0.000000 -12.690593 -0.000001 16.323853 -17.286716 2.321980 1.665665 -1.955920 -2.878297 4.727794 -4.170584 4.993919 11.020511 0.000001 -0.000000 12.109032 -3.735715 -2.866778 0.000000 -0.000000 0.000000 1.291985 -1.928548 -1.498088 14.800115 0.567467 3.865604 14.242553 -1.341738 -6.660648 19.631935 0.143921 -0.648243 49.506470 -0.490362 -5.786312 0.353029 -1.511150 -0.031940 20.222769 3.684305 2.316629 18.787249 0.000001 -0.000001 10.751608 -0.479870 1.397903 0.000000 -0.000000 0.000000 3.273804 0.305947 -0.580110 21.486790 11.830364 2.266131 8.162915 0.000000 -0.000000 18.399052 -3.798986 -4.940567 0.000003 0.000000 -0.000001 8.515899 4.552834 -18.226231 -0.120337 -0.344266 28.045792 -2.926119 -11.427235 -10.273812 1.656527 -2.115021 -4.546751 0.000000 -0.000000 0.000002 4.479563 -24.392954 -16.430004 0.066342 -0.100800 22.147503 1.478706 -2.071534 -9.353160 -1.422789 0.911171 -1.316291 0.000000 -0.000000 -0.000001
0.000000 0.000000 0.000000 0.000000 -0.000000 0.000000 -2.620826 -2.030567 0.807477 -2.714596 -1.504962 3.204647 -4.246763 -0.551263 6.288300 -0.913272 -3.781601 -3.591331 -3.535155 -6.067618 12.693404 9.721844 -4.695081 23.222034 -4.199526 -13.166858 -3.438201 3.068192 -17.643717 -14.691575 0.000077 -0.000022 0.000006 -0.047125 0.178879 -0.022926 0.519802 -3.553776 -10.686675 -0.617507 3.903184 -10.691051 25.175592 -33.414883 -6.165266 87.204269 -81.235451 -123.623123 0.290513 -33.451057 -0.023660 13.234526 10.479314 -65.056999 -5.882102 9.861279 0.702590 -10.936861 -0.360574 7.156197 0.000000 8.774815 -0.000000 -15.526806 18.158030 6.406374 -1.844031 2.498503 -2.507276 -10.163590 4.678941 4.621104 -20.975996 -0.000001 0.000001 -21.226254 2.451698 -3.593995 0.000000 -0.000006 -0.000000 -1.362681 2.240797 -0.746323 -21.334892 0.584910 3.008319 -13.821196 -0.000001 0.000001 -23.887129 -0.249075 -0.839485 -60.894470 2.777118 -1.480416 -0.294025 1.679686 0.833255 -14.218195 0.093215 1.300579 -34.212002 -0.287561 0.967166 -20.033176 0.964536 1.212838 0.000000 -0.000000 0.000000 -3.440387 0.788233 0.501655 -15.928172 -3.167306 2.999703 -6.338817 -0.000000 0.000001 -18.123419 3.648181 -4.905662 -0.000004 0.000000 -0.000002 -0.769627 16.340563 9.070100 25.492500 20.560215 -43.025589 172.093567 81.831963 172.078690 -31.423874 -37.605396 -56.154167 2.243540 -5.255033 -3.180156 14.282877 -0.826594 6.952496 -0.000000 -12.690593 -0.000001 16.307684 -17.275442 2.339559 1.665665 -1.955920 -2.878297 4.727794 -4.170584 4.993919 11.020511 0.000001 -0.000000 12.109032 -3.735715 -2.866778 0.000000 -0.000000 0.000000 1.291985 -1.928548 -1.498088 14.800115 0.567467 3.865604 14.242553 -1.341738 -6.660648 19.631935 0.143921 -0.648243 49.510612 -0.502981 -5.778700 0.353029 -1.511150 -0.031940 20.222769 3.684305 2.316629 18.787249 0.000001 -0.000001 10.751608 -0.479870 1.397903 0.000000 -0.000000 0.000000 3.273804 0.305947 -0.580110 21.486790 11.830364 2.266131 8.162915 0.000000 -0.000000 18.399052 -3.798986 -4.940567 0.000003 0.000000 -0.000001 8.515899 4.552834 -18.226231 -0.120337 -0.344266 28.045792 -2.926119 -11.427235 -10.273812 1.656527 -2.115021 -4.546751 0.000000 -0.000000 0.000002 4.479563 -24.392954 -16.430004 0.066342 -0.100800 22.147503 1.478706 -2.071534 -9.353160 -1.422789 0.911171 -1.316291 0.000000 -0.000000 -0.000001
0.000000 0.000000 0.000000 0.000000 -0.000000 0.000000 -2.620826 -2.025717 0.807477 -2.714596 -1.504962 3.204647 -4.255432 -0.553457 6.277826 -0.917446 -3.787983 -3.582124 -3.521550 -6.077698 12.699879 9.810591 -4.737251 23.178688 -4.188043 -13.198355 -3.446115 3.094006 -17.598164 -14.723349 0.000077 -0.000022 0.000006 -0.047016 0.169304 -0.019275 0.520719 -3.563049 -10.685142 -0.618024 3.892779 -10.687704 25.228237 -33.413254 -6.146714 87.433197 -81.143860 -123.925507 0.227499 -33.435951 0.025808 13.188685 10.424590 -65.075424 -5.882102 9.861279 0.702590 -10.936861 -0.360574 7.156197 0.000000 8.774815 -0.000000 -15.563976 18.163773 6.394897 -1.844031 2.498503 -2.507276 -10.163590 4.678941 4.621104 -20.975996 -0.000001 0.000001 -21.226254 2.451698 -3.593995 0.000000 -0.000006 -0.000000 -1.362681 2.240797 -0.746323 -21.334892 0.584910 3.008319 -13.821196 -0.000001 0.000001 -23.887129 -0.249075 -0.839485 -60.932999 2.780455 -1.512397 -0.294025 1.679686 0.833255 -14.218195 0.093215 1.300579 -34.212002 -0.287561 0.967166 -20.033176 0.964536 1.212838 0.000000 -0.000000 0.000000 -3.440387 0.788233 0.501655 -15.928172 -3.167306 2.999703 -6.338817 -0.000000 0.000001 -18.123419 3.648181 -4.905662 -0.000004 0.000000 -0.000002 -0.746154 16.282976 9.099582 25.463863 20.540903 -43.031025 172.752579 81.719330 172.700409 -31.494566 -37.680153 -56.181519 2.243540 -5.255033 -3.180156 14.282877 -0.826594 6.952496 -0.000000 -12.690593 -0.000001 16.290472 -17.278339 2.348297 1.665665 -1.955920 -2.878297 4.727794 -4.170584 4.993919 11.020511 0.000001 -0.000000 12.109032 -3.735715 -2.866778 0.000000 -0.000000 0.000000 1.291985 -1.928548 -1.498088 14.800115 0.567467 3.865604 14.242553 -1.341738 -6.660648 19.631935 0.143921 -0.648243 49.499660 -0.507190 -5.786315 0.353029 -1.511150 -0.031940 20.222769 3.684305 2.316629 18.787249 0.000001 -0.000001 10.751608 -0.479870 1.397903 0.000000 -0.000000 0.000000 3.273804 0.305947 -0.580110 21.486790 11.830364 2.266131 8.162915 0.000000 -0.000000 18.399052 -3.798986 -4.940567 0.000003 0.000000 -0.000001 8.515899 4.552834 -18.226231 -0.120337 -0.344266 28.045792 -2.926119 -11.427235 -10.273812 1.656527 -2.115021 -4.546751 0.000000 -0.000000 0.000002 4.479563 -24.392954 -16.430004 0.066342 -0.100800 22.147503 1.478706 -2.071534 -9.353160 -1.422789 0.911171 -1.316291 0.000000 -0.000000 -0.000001
0.000000 0.000000 0.000000 0.000000 -0.000000 0.000000 -2.620826 -2.020568 0.807477 -2.714596 -1.504962 3.204647 -4.264088 -0.538751 6.285793 -0.932781 -3.769037 -3.566192 -3.493475 -6.093953 12.700287 9.898952 -4.774386 23.130169 -4.183979 -13.178379 -3.448818 3.097969 -17.582613 -14.722338 0.000077 -0.000022 0.000006 -0.051273 0.168831 -0.016174 0.520517 -3.561596 -10.681242 -0.626149 3.889605 -10.681296 25.272127 -33.403881 -6.079885 87.965218 -81.005989 -124.712440 0.136112 -33.387035 0.076224 13.168312 10.326936 -64.898361 -5.882102 9.861279 0.702590 -10.936861 -0.360574 7.156197 0.000000 8.774815 -0.000000 -15.572444 18.162539 6.376042 -1.844031 2.498503 -2.507276 -10.163590 4.678941 4.621104 -20.975996 -0.000001 0.000001 -21.226254 2.451698 -3.593995 0.000000 -0.000006 -0.000000 -1.362681 2.240797 -0.746323 -21.334892 0.584910 3.008319 -13.821196 -0.000001 0.000001 -23.887129 -0.249075 -0.839485 -60.930122 2.799517 -1.507144 -0.294025 1.679686 0.833255 -14.218195 0.093215 1.300579 -34.212002 -0.287561 0.967166 -20.033176 0.964536 1.212838 0.000000 -0.000000 0.000000 -3.440387 0.788233 0.501655 -15.928172 -3.167306 2.999703 -6.338817 -0.000000 0.000001 -18.123419 3.648181 -4.905662 -0.000004 0.000000 -0.000002 -0.717410 16.259911 9.107224 25.418612 20.462521 -42.955978 173.874557 81.621407 173.792343 -31.486504 -37.663647 -56.362167 2.243540 -5.255033 -3.180156 14.282877 -0.826594 6.952496 -0.000000 -12.690593 -0.000001 16.267519 -17.237999 2.355654 1.665665 -1.955920 -2.878297 4.727794 -4.170584 4.993919 11.020511 0.000001 -0.000000 12.109032 -3.735715 -2.866778 0.000000 -0.000000 0.000000 1.291985 -1.928548 -1.498088 14.800115 0.567467 3.865604 14.242553 -1.341738 -6.660648 19.631935 0.143921 -0.648243 49.451385 -0.500517 -5.797078 0.353029 -1.511150 -0.031940 20.222769 3.684305 2.316629 18.787249 0.000001 -0.000001 10.751608 -0.479870 1.397903 0.000000 -0.000000 0.000000 3.273804 0.305947 -0.580110 21.486790 11.830364 2.266131 8.162915 0.000000 -0.000000 18.399052 -3.798986 -4.940567 0.000003 0.000000 -0.000001 8.515899 4.552834 -18.226231 -0.120337 -0.344266 28.045792 -2.926119 -11.427235 -10.273812 1.656527 -2.115021 -4.546751 0.000000 -0.000000 0.000002 4.479563 -24.392954 -16.430004 0.066342 -0.100800 22.147503 1.478706 -2.071534 -9.353160 -1.422789 0.911171 -1.316291 0.000000 -0.000000 -0.000001
0.000000 0.000000 0.000000 0.000000 -0.000000 0.000000 -2.620826 -2.009564 0.807477 -2.714596 -1.504962 3.204647 -4.255516 -0.551034 6.264894 -0.945081 -3.845152 -3.548038 -3.495452 -6.128717 12.721289 10.020063 -4.773651 23.088078 -4.167976 -13.251945 -3.484922 3.006575 -17.486778 -14.766758 0.000077 -0.000022 0.000006 -0.032292 0.135634 -0.006290 0.540764 -3.592357 -10.660666 -0.608354 3.853107 -10.648320 25.372507 -33.429810 -6.233519 88.322723 -80.989929 -124.970276 0.165719 -33.372700 0.113686 13.092389 10.431702 -64.780022 -5.882102 9.861279 0.702590 -10.936861 -0.360574 7.156197 0.000000 8.774815 -0.000000 -15.702551 18.047466 6.305938 -1.844031 2.498503 -2.507276 -10.163590 4.678941 4.621104 -20.975996 -0.000001 0.000001 -21.226254 2.451698 -3.593995 0.000000 -0.000006 -0.000000 -1.362681 2.240797 -0.746323 -21.334892 0.584910 3.008319 -13.821196 -0.000001 0.000001 -23.887129 -0.249075 -0.839485 -60.965881 2.750506 -1.479708 -0.294025 1.679686 0.833255 -14.218195 0.093215 1.300579 -34.212002 -0.287561 0.967166 -20.033176 0.964536 1.212838 0.000000 -0.000000 0.000000 -3.440387 0.788233 0.501655 -15.928172 -3.167306 2.999703 -6.338817 -0.000000 0.000001 -18.123419 3.648181 -4.905662 -0.000004 0.000000 -0.000002 -0.667649 16.190754 9.119644 25.371897 20.289911 -43.097691 173.138947 81.469078 173.183868 -31.319132 -37.835571 -56.767277 2.243540 -5.255033 -3.180156 14.282877 -0.826594 6.952496 -0.000000 -12.690593 -0.000001 16.193119 -17.266712 2.357038 1.665665 -1.955920 -2.878297 4.727794 -4.170584 4.993919 11.020511 0.000001 -0.000000 12.109032 -3.735715 -2.866778 0.000000 -0.000000 0.000000 1.291985 -1.928548 -1.498088 14.800115 0.567467 3.865604 14.242553 -1.341738 -6.660648 19.631935 0.143921 -0.648243 49.443905 -0.505678 -5.845077 0.353029 -1.511150 -0.031940 20.222769 3.684305 2.316629 18.787249 0.000001 -0.000001 10.751608 -0.479870 1.397903 0.000000 -0.000000 0.000000 3.273804 0.305947 -0.580110 21.486790 11.830364 2.266131 8.162915 0.000000 -0.000000 18.399052 -3.798986 -4.940567 0.000003 0.000000 -0.000001 8.515899 4.552834 -18.226231 -0.120337 -0.344266 28.045792 -2.926119 -11.427235 -10.273812 1.656527 -2.115021 -4.546751 0.000000 -0.000000 0.000002 4.479563 -24.392954 -16.430004 0.066342 -0.100800 22.147503 1.478706 -2.071534 -9.353160 -1.422789 0.911171 -1.316291 0.000000 -0.000000 -0.000001
0.000000 0.000000 0.000000 0.000000 -0.000000 0.000000 -2.620826 -2.006396 0.807477 -2.714596 -1.504962 3.204647 -4.268455 -0.548510 6.277468 -0.960624 -3.749364 -3.579163 -3.489653 -6.043796 12.724832 9.930683 -4.771879 23.096365 -4.106647 -13.240473 -3.437517 3.106369 -17.478888 -14.776729 0.000077 -0.000022 0.000006 -0.041670 0.129739 -0.003210 0.540568 -3.596503 -10.680236 -0.627045 3.846223 -10.662445 25.412741 -33.286373 -6.223382 88.298546 -80.969086 -125.139732 0.154078 -33.318962 0.038097 13.073630 10.309315 -65.009445 -5.882102 9.861279 0.702590 -10.936861 -0.360574 7.156197 0.000000 8.774815 -0.000000 -15.601370 18.080883 6.326221 -1.844031 2.498503 -2.507276 -10.163590 4.678941 4.621104 -20.975996 -0.000001 0.000001 -21.226254 2.451698 -3.593995 0.000000 -0.000006 -0.000000 -1.362681 2.240797 -0.746323 -21.334892 0.584910 3.008319 -13.821196 -0.000001 0.000001 -23.887129 -0.249075 -0.839485 -60.884609 2.757491 -1.502985 -0.294025 1.679686 0.833255 -14.218195 0.093215 1.300579 -34.212002 -0.287561 0.967166 -20.033176 0.964536 1.212838 0.000000 -0.000000 0.000000 -3.440387 0.788233 0.501655 -15.928172 -3.167306 2.999703 -6.338817 -0.000000 0.000001 -18.123419 3.648181 -4.905662 -0.000004 0.000000 -0.000002 -0.732005 16.335764 9.064190 25.372370 20.375326 -43.019295 173.678787 81.564758 173.655487 -31.452915 -37.617020 -56.365639 2.243540 -5.255033 -3.180156 14.282877 -0.826594 6.952496 -0.000000 -12.690593 -0.000001 16.323950 -17.272045 2.334793 1.665665 -1.955920 -2.878297 4.727794 -4.170584 4.993919 11.020511 0.000001 -0.000000 12.109032 -3.735715 -2.866778 0.000000 -0.000000 0.000000 1.291985 -1.928548 -1.498088 14.800115 0.567467 3.865604 14.242553 -1.341738 -6.660648 19.631935 0.143921 -0.648243 49.473080 -0.524250 -5.813982 0.353029 -1.511150 -0.031940 20.222769 3.684305 2.316629 18.787249 0.000001 -0.000001 10.751608 -0.479870 1.397903 0.000000 -0.000000 0.000000 3.273804 0.305947 -0.580110 21.486790 11.830364 2.266131 8.162915 0.000000 -0.000000 18.399052 -3.798986 -4.940567 0.000003 0.000000 -0.000001 8.515899 4.552834 -18.226231 -0.120337 -0.344266 28.045792 -2.926119 -11.427235 -10.273812 1.656527 -2.115021 -4.546751 0.000000 -0.000000 0.000002 4.479563 -24.392954 -16.430004 0.066342 -0.100800 22.147503 1.478706 -2.071534 -9.353160 -1.422789 0.911171 -1.316291 0.000000 -0.000000 -0.000001
0.000000 0.000000 0.000000 0.000000 -0.000000 0.000000 -2.620826 -1.984416 0.807477 -2.714596 -1.504962 3.204647 -4.265223 -0.548254 6.264894 -0.959671 -3.731548 -3.601764 -3.504435 -5.997343 12.731215 9.879869 -4.800742 23.087130 -4.090133 -13.111826 -3.434492 3.097743 -17.475897 -14.764617 0.000077 -0.000022 0.000006 -0.044608 0.139745 -0.002279 0.541876 -3.585160 -10.678475 -0.634294 3.855438 -10.657296 25.463814 -33.180000 -6.278866 88.162598 -81.000313 -125.086884 0.180515 -33.279716 0.004734 13.009150 10.329911 -65.058762 -5.882102 9.861279 0.702590 -10.936861 -0.360574 7.156197 0.000000 8.774815 -0.000000 -15.562160 18.103712 6.337021 -1.844031 2.498503 -2.507276 -10.163590 4.678941 4.621104 -20.975996 -0.000001 0.000001 -21.226254 2.451698 -3.593995 0.000000 -0.000006 -0.000000 -1.362681 2.240797 -0.746323 -21.334892 0.584910 3.008319 -13.821196 -0.000001 0.000001 -23.887129 -0.249075 -0.839485 -60.883003 2.771478 -1.487969 -0.294025 1.679686 0.833255 -14.218195 0.093215 1.300579 -34.212002 -0.287561 0.967166 -20.033176 0.964536 1.212838 0.000000 -0.000000 0.000000 -3.440387 0.788233 0.501655 -15.928172 -3.167306 2.999703 -6.338817 -0.000000 0.000001 -18.123419 3.648181 -4.905662 -0.000004 0.000000 -0.000002 -0.735835 16.450031 9.111048 25.297556 20.379810 -43.013424 173.734436 81.585037 173.748184 -31.330873 -37.575317 -56.399933 2.243540 -5.255033 -3.180156 14.282877 -0.826594 6.952496 -0.000000 -12.690593 -0.000001 16.336119 -17.291286 2.330200 1.665665 -1.955920 -2.878297 4.727794 -4.170584 4.993919 11.020511 0.000001 -0.000000 12.109032 -3.735715 -2.866778 0.000000 -0.000000 0.000000 1.291985 -1.928548 -1.498088 14.800115 0.567467 3.865604 14.242553 -1.341738 -6.660648 19.631935 0.143921 -0.648243 49.485600 -0.527955 -5.805542 0.353029 -1.511150 -0.031940 20.222769 3.684305 2.316629 18.787249 0.000001 -0.000001 10.751608 -0.479870 1.397903 0.000000 -0.000000 0.000000 3.273804 0.305947 -0.580110 21.486790 11.830364 2.266131 8.162915 0.000000 -0.000000 18.399052 -3.798986 -4.940567 0.000003 0.000000 -0.000001 8.515899 4.552834 -18.226231 -0.120337 -0.344266 28.045792 -2.926119 -11.427235 -10.273812 1.656527 -2.115021 -4.546751 0.000000 -0.000000 0.000002 4.479563 -24.392954 -16.430004 0.066342 -0.100800 22.147503 1.478706 -2.071534 -9.353160 -1.422789 0.911171 -1.316291 0.000000 -0.000000 -0.000001
0.000000 0.000000 0.000000 0.000000 -0.000000 0.000000 -2.620826 -1.955478 0.807477 -2.714596 -1.504962 3.204647 -4.267057 -0.548006 6.253915 -0.949427 -3.728656 -3.624986 -3.527489 -5.972375 12.725603 9.809998 -4.802735 23.083366 -4.066037 -12.997165 -3.428225 3.111145 -17.473146 -14.752290 0.000077 -0.000022 0.000006 -0.044481 0.149975 -0.004684 0.544083 -3.573372 -10.670570 -0.636116 3.864483 -10.651464 25.548363 -33.114773 -6.363337 87.592812 -81.056969 -124.568756 0.183683 -33.282074 0.009548 12.984522 10.397102 -65.164978 -5.882102 9.861279 0.702590 -10.936861 -0.360574 7.156197 0.000000 8.774815 -0.000000 -15.537089 18.144423 6.368442 -1.844031 2.498503 -2.507276 -10.163590 4.678941 4.621104 -20.975996 -0.000001 0.000001 -21.226254 2.451698 -3.593995 0.000000 -0.000006 -0.000000 -1.362681 2.240797 -0.746323 -21.334892 0.584910 3.008319 -13.821196 -0.000001 0.000001 -23.887129 -0.249075 -0.839485 -60.897026 2.782508 -1.471274 -0.294025 1.679686 0.833255 -14.218195 0.093215 1.300579 -34.212002 -0.287561 0.967166 -20.033176 0.964536 1.212838 0.000000 -0.000000 0.000000 -3.440387 0.788233 0.501655 -15.928172 -3.167306 2.999703 -6.338817 -0.000000 0.000001 -18.123419 3.648181 -4.905662 -0.000004 0.000000 -0.000002 -0.747925 16.559566 9.171201 25.204145 20.390879 -42.978924 173.755966 81.610023 173.803452 -31.213415 -37.564529 -56.548573 2.243540 -5.255033 -3.180156 14.282877 -0.826594 6.952496 -0.000000 -12.690593 -0.000001 16.323973 -17.307358 2.359670 1.665665 -1.955920 -2.878297 4.727794 -4.170584 4.993919 11.020511 0.000001 -0.000000 12.109032 -3.735715 -2.866778 0.000000 -0.000000 0.000000 1.291985 -1.928548 -1.498088 14.800115 0.567467 3.865604 14.242553 -1.341738 -6.660648 19.631935 0.143921 -0.648243 49.504128 -0.530235 -5.788361 0.353029 -1.511150 -0.031940 20.222769 3.684305 2.316629 18.787249 0.000001 -0.000001 10.751608 -0.479870 1.397903 0.000000 -0.000000 0.000000 3.273804 0.305947 -0.580110 21.486790 11.830364 2.266131 8.162915 0.000000 -0.000000 18.399052 -3.798986 -4.940567 0.000003 0.000000 -0.000001 8.515899 4.552834 -18.226231 -0.120337 -0.344266 28.045792 -2.926119 -11.427235 -10.273812 1.656527 -2.115021 -4.546751 0.000000 -0.000000 0.000002 4.479563 -24.392954 -16.430004 0.066342 -0.100800 22.147503 1.478706 -2.071534 -9.353160 -1.422789 0.911171 -1.316291 0.000000 -0.000000 -0.000001
0.000000 0.000000 0.000000 0.000000 -0.000000 0.000000 -2.620826 -1.907733 0.807477 -2.714596 -1.504962 3.204647 -4.271785 -0.556655 6.249068 -0.935506 -3.726794 -3.647730 -3.548461 -5.948358 12.708284 9.758060 -4.788326 23.062443 -4.074047 -12.913980 -3.415238 3.157323 -17.499195 -14.742839 0.000077 -0.000022 0.000006 -0.043767 0.163427 -0.007263 0.547778 -3.560216 -10.666896 -0.638210 3.878505 -10.652375 25.626928 -33.087891 -6.453872 86.990707 -81.129715 -123.988586 0.178735 -33.273350 -0.000065 12.988835 10.426547 -65.186829 -5.882102 9.861279 0.702590 -10.936861 -0.360574 7.156197 0.000000 8.774815 -0.000000 -15.530445 18.188238 6.388294 -1.844031 2.498503 -2.507276 -10.163590 4.678941 4.621104 -20.975996 -0.000001 0.000001 -21.226254 2.451698 -3.593995 0.000000 -0.000006 -0.000000 -1.362681 2.240797 -0.746323 -21.334892 0.584910 3.008319 -13.821196 -0.000001 0.000001 -23.887129 -0.249075 -0.839485 -60.904621 2.791783 -1.459852 -0.294025 1.679686 0.833255 -14.218195 0.093215 1.300579 -34.212002 -0.287561 0.967166 -20.033176 0.964536 1.212838 0.000000 -0.000000 0.000000 -3.440387 0.788233 0.501655 -15.928172 -3.167306 2.999703 -6.338817 -0.000000 0.000001 -18.123419 3.648181 -4.905662 -0.000004 0.000000 -0.000002 -0.774147 16.641237 9.257240 25.134474 20.417227 -42.945045 173.847610 81.628532 173.891556 -31.163767 -37.576130 -56.680733 2.243540 -5.255033 -3.180156 14.282877 -0.826594 6.952496 -0.000000 -12.690593 -0.000001 16.305988 -17.312248 2.397522 1.665665 -1.955920 -2.878297 4.727794 -4.170584 4.993919 11.020511 0.000001 -0.000000 12.109032 -3.735715 -2.866778 0.000000 -0.000000 0.000000 1.291985 -1.928548 -1.498088 14.800115 0.567467 3.865604 14.242553 -1.341738 -6.660648 19.631935 0.143921 -0.648243 49.527737 -0.530885 -5.762482 0.353029 -1.511150 -0.031940 20.222769 3.684305 2.316629 18.787249 0.000001 -0.000001 10.751608 -0.479870 1.397903 0.000000 -0.000000 0.000000 3.273804 0.305947 -0.580110 21.486790 11.830364 2.266131 8.162915 0.000000 -0.000000 18.399052 -3.798986 -4.940567 0.000003 0.000000 -0.000001 8.515899 4.552834 -18.226231 -0.120337 -0.344266 28.045792 -2.926119 -11.427235 -10.273812 1.656527 -2.115021 -4.546751 0.000000 -0.000000 0.000002 4.479563 -24.392954 -16.430004 0.066342 -0.100800 22.147503 1.478706 -2.071534 -9.353160 -1.422789 0.911171 -1.316291 0.000000 -0.000000 -0.000001
0.000000 0.000000 0.000000 0.000000 -0.000000 0.000000 -2.620826 -1.844928 0.807477 -2.714596 -1.504962 3.204647 -4.280572 -0.562289 6.246564 -0.929527 -3.719587 -3.656074 -3.557677 -5.932911 12.676915 9.732417 -4.762628 23.007536 -4.084964 -12.873423 -3.415809 3.194502 -17.519814 -14.731349 0.000077 -0.000022 0.000006 -0.041217 0.165837 -0.010589 0.554692 -3.559128 -10.674927 -0.639798 3.882377 -10.665174 25.696772 -33.107391 -6.524060 86.381348 -81.186615 -123.429085 0.165390 -33.252640 -0.001298 12.976516 10.406362 -65.023758 -5.882102 9.861279 0.702590 -10.936861 -0.360574 7.156197 0.000000 8.774815 -0.000000 -15.540131 18.214367 6.410189 -1.844031 2.498503 -2.507276 -10.163590 4.678941 4.621104 -20.975996 -0.000001 0.000001 -21.226254 2.451698 -3.593995 0.000000 -0.000006 -0.000000 -1.362681 2.240797 -0.746323 -21.334892 0.584910 3.008319 -13.821196 -0.000001 0.000001 -23.887129 -0.249075 -0.839485 -60.899750 2.802557 -1.437760 -0.294025 1.679686 0.833255 -14.218195 0.093215 1.300579 -34.212002 -0.287561 0.967166 -20.033176 0.964536 1.212838 0.000000 -0.000000 0.000000 -3.440387 0.788233 0.501655 -15.928172 -3.167306 2.999703 -6.338817 -0.000000 0.000001 -18.123419 3.648181 -4.905662 -0.000004 0.000000 -0.000002 -0.809374 16.703461 9.314941 25.091833 20.400078 -42.889175 173.981415 81.608765 173.998627 -31.180115 -37.594063 -56.747845 2.243540 -5.255033 -3.180156 14.282877 -0.826594 6.952496 -0.000000 -12.690593 -0.000001 16.252644 -17.304766 2.436450 1.665665 -1.955920 -2.878297 4.727794 -4.170584 4.993919 11.020511 0.000001 -0.000000 12.109032 -3.735715 -2.866778 0.000000 -0.000000 0.000000 1.291985 -1.928548 -1.498088 14.800115 0.567467 3.865604 14.242553 -1.341738 -6.660648 19.631935 0.143921 -0.648243 49.507793 -0.520473 -5.735626 0.353029 -1.511150 -0.031940 20.222769 3.684305 2.316629 18.787249 0.000001 -0.000001 10.751608 -0.479870 1.397903 0.000000 -0.000000 0.000000 3.273804 0.305947 -0.580110 21.486790 11.830364 2.266131 8.162915 0.000000 -0.000000 18.399052 -3.798986 -4.940567 0.000003 0.000000 -0.000001 8.515899 4.552834 -18.226231 -0.120337 -0.344266 28.045792 -2.926119 -11.427235 -10.273812 1.656527 -2.115021 -4.546751 0.000000 -0.000000 0.000002 4.479563 -24.392954 -16.430004 0.066342 -0.100800 22.147503 1.478706 -2.071534 -9.353160 -1.422789 0.911171 -1.316291 0.000000 -0.000000 -0.000001
0.000000 0.000000 0.000000 0.000000 -0.000000 0.000000 -2.620826 -1.776210 0.807477 -2.714596 -1.504962 3.204647 -4.302499 -0.560243 6.243896 -0.929011 -3.725078 -3.649868 -3.565146 -5.937468 12.644473 9.740954 -4.741924 22.930613 -4.099082 -12.889407 -3.431462 3.224191 -17.546310 -14.707195 0.000077 -0.000022 0.000006 -0.036981 0.152616 -0.014172 0.562982 -3.574703 -10.695176 -0.639317 3.871428 -10.688714 25.762342 -33.178108 -6.551227 85.844910 -81.175819 -122.891548 0.165052 -33.210457 -0.008073 12.956472 10.365462 -64.754013 -5.882102 9.861279 0.702590 -10.936861 -0.360574 7.156197 0.000000 8.774815 -0.000000 -15.578837 18.238983 6.418959 -1.844031 2.498503 -2.507276 -10.163590 4.678941 4.621104 -20.975996 -0.000001 0.000001 -21.226254 2.451698 -3.593995 0.000000 -0.000006 -0.000000 -1.362681 2.240797 -0.746323 -21.334892 0.584910 3.008319 -13.821196 -0.000001 0.000001 -23.887129 -0.249075 -0.839485 -60.916832 2.811133 -1.431896 -0.294025 1.679686 0.833255 -14.218195 0.093215 1.300579 -34.212002 -0.287561 0.967166 -20.033176 0.964536 1.212838 0.000000 -0.000000 0.000000 -3.440387 0.788233 0.501655 -15.928172 -3.167306 2.999703 -6.338817 -0.000000 0.000001 -18.123419 3.648181 -4.905662 -0.000004 0.000000 -0.000002 -0.850918 16.736494 9.350348 25.076349 20.340324 -42.856892 173.988556 81.532761 173.958069 -31.296873 -37.638374 -56.728397 2.243540 -5.255033 -3.180156 14.282877 -0.826594 6.952496 -0.000000 -12.690593 -0.000001 16.194620 -17.295458 2.456839 1.665665 -1.955920 -2.878297 4.727794 -4.170584 4.993919 11.020511 0.000001 -0.000000 12.109032 -3.735715 -2.866778 0.000000 -0.000000 0.000000 1.291985 -1.928548 -1.498088 14.800115 0.567467 3.865604 14.242553 -1.341738 -6.660648 19.631935 0.143921 -0.648243 49.459469 -0.508865 -5.711092 0.353029 -1.511150 -0.031940 20.222769 3.684305 2.316629 18.787249 0.000001 -0.000001 10.751608 -0.479870 1.397903 0.000000 -0.000000 0.000000 3.273804 0.305947 -0.580110 21.486790 11.830364 2.266131 8.162915 0.000000 -0.000000 18.399052 -3.798986 -4.940567 0.000003 0.000000 -0.000001 8.515899 4.552834 -18.226231 -0.120337 -0.344266 28.045792 -2.926119 -11.427235 -10.273812 1.656527 -2.115021 -4.546751 0.000000 -0.000000 0.000002 4.479563 -24.392954 -16.430004 0.066342 -0.100800 22.147503 1.478706 -2.071534 -9.353160 -1.422789 0.911171 -1.316291 0.000000 -0.000000 -0.000001
0.000000 0.000000 0.000000 0.000000 -0.000000 0.000000 -2.620826 -1.705752 0.807477 -2.714596 -1.504962 3.204647 -4.326005 -0.551854 6.250131 -0.930466 -3.734544 -3.631191 -3.573892 -5.965456 12.628263 9.768340 -4.717351 22.837532 -4.107790 -12.945963 -3.453856 3.253727 -17.593216 -14.650477 0.000077 -0.000022 0.000006 -0.034960 0.138306 -0.017461 0.565791 -3.591573 -10.714230 -0.637742 3.859394 -10.706846 25.839476 -33.297073 -6.558776 85.485352 -81.092148 -122.430176 0.207607 -33.121864 -0.010641 12.912110 10.338567 -64.643394 -5.882102 9.861279 0.702590 -10.936861 -0.360574 7.156197 0.000000 8.774815 -0.000000 -15.637833 18.265537 6.412226 -1.844031 2.498503 -2.507276 -10.163590 4.678941 4.621104 -20.975996 -0.000001 0.000001 -21.226254 2.451698 -3.593995 0.000000 -0.000006 -0.000000 -1.362681 2.240797 -0.746323 -21.334892 0.584910 3.008319 -13.821196 -0.000001 0.000001 -23.887129 -0.249075 -0.839485 -60.967613 2.822633 -1.457254 -0.294025 1.679686 0.833255 -14.218195 0.093215 1.300579 -34.212002 -0.287561 0.967166 -20.033176 0.964536 1.212838 0.000000 -0.000000 0.000000 -3.440387 0.788233 0.501655 -15.928172 -3.167306 2.999703 -6.338817 -0.000000 0.000001 -18.123419 3.648181 -4.905662 -0.000004 0.000000 -0.000002 -0.898221 16.745073 9.362570 25.086004 20.246302 -42.856667 173.947906 81.409866 173.872192 -31.466494 -37.760262 -56.702278 2.243540 -5.255033 -3.180156 14.282877 -0.826594 6.952496 -0.000000 -12.690593 -0.000001 16.172628 -17.301512 2.443353 1.665665 -1.955920 -2.878297 4.727794 -4.170584 4.993919 11.020511 0.000001 -0.000000 12.109032 -3.735715 -2.866778 0.000000 -0.000000 0.000000 1.291985 -1.928548 -1.498088 14.800115 0.567467 3.865604 14.242553 -1.341738 -6.660648 19.631935 0.143921 -0.648243 49.429981 -0.502810 -5.713944 0.353029 -1.511150 -0.031940 20.222769 3.684305 2.316629 18.787249 0.000001 -0.000001 10.751608 -0.479870 1.397903 0.000000 -0.000000 0.000000 3.273804 0.305947 -0.580110 21.486790 11.830364 2.266131 8.162915 0.000000 -0.000000 18.399052 -3.798986 -4.940567 0.000003 0.000000 -0.000001 8.515899 4.552834 -18.226231 -0.120337 -0.344266 28.045792 -2.926119 -11.427235 -10.273812 1.656527 -2.115021 -4.546751 0.000000 -0.000000 0.000002 4.479563 -24.392954 -16.430004 0.066342 -0.100800 22.147503 1.478706 -2.071534 -9.353160 -1.422789 0.911171 -1.316291 0.000000 -0.000000 -0.000001
0.000000 0.000000 0.000000 0.000000 0.000000 0.000000 -2.620826 -1.652453 0.807477 -2.714596 -1.504962 3.204647 -4.316133 -0.549373 6.260859 -0.933929 -3.720309 -3.614421 -3.543041 -6.023675 12.661885 9.799775 -4.722165 22.767965 -4.087558 -13.006263 -3.465767 3.294702 -17.652725 -14.602100 0.000077 -0.000022 0.000006 -0.040714 0.137704 -0.015732 0.556854 -3.594997 -10.721590 -0.640108 3.860623 -10.707953 25.925893 -33.420673 -6.495019 86.535710 -80.789000 -123.150488 0.304628 -32.814623 -0.006745 12.752161 10.389062 -64.985802 -5.882102 9.861279 0.702590 -10.936861 -0.360574 7.156197 0.000000 8.774815 0.000000 -15.688006 18.286113 6.384647 -1.844031 2.498503 -2.507276 -10.163590 4.678941 4.621104 -20.975996 -0.000001 0.000001 -21.226254 2.451698 -3.593995 0.000000 -0.000006 0.000000 -1.362681 2.240797 -0.746323 -21.334892 0.584910 3.008319 -13.821196 -0.000001 0.000001 -23.887129 -0.249075 -0.839485 -61.071553 2.837221 -1.519215 -0.294025 1.679686 0.833255 -14.218195 0.093215 1.300579 -34.212002 -0.287561 0.967166 -20.033176 0.964536 1.212838 0.000000 0.000000 0.000000 -3.440387 0.788233 0.501655 -15.928172 -3.167306 2.999703 -6.338817 0.000000 0.000001 -18.123419 3.648181 -4.905662 -0.000004 0.000000 -0.000002 -0.919661 16.705568 9.313001 25.038165 20.028783 -42.918571 174.237711 81.222968 174.116460 -31.546139 -38.024974 -56.712925 2.243540 -5.255033 -3.180156 14.282877 -0.826594 6.952496 0.000000 -12.690593 -0.000001 16.201004 -17.365220 2.394054 1.665665 -1.955920 -2.878297 4.727794 -4.170584 4.993919 11.020511 0.000001 -0.000000 12.109032 -3.735715 -2.866778 0.000000 0.000000 0.000000 1.291985 -1.928548 -1.498088 14.800115 0.567467 3.865604 14.242553 -1.341738 -6.660648 19.631935 0.143921 -0.648243 49.418554 -0.515824 -5.774166 0.353029 -1.511150 -0.031940 20.222769 3.684305 2.316629 18.787249 0.000001 -0.000001 10.751608 -0.479870 1.397903 0.000000 0.000000 0.000000 3.273804 0.305947 -0.580110 21.486790 11.830364 2.266131 8.162915 0.000000 0.000000 18.399052 -3.798986 -4.940567 0.000003 0.000000 -0.000001 8.515899 4.552834 -18.226231 -0.120337 -0.344266 28.045792 -2.926119 -11.427235 -10.273812 1.656527 -2.115021 -4.546751 0.000000 0.000000 0.000002 4.479563 -24.392954 -16.430004 0.066342 -0.100800 22.147503 1.478706 -2.071534 -9.353160 -1.422789 0.911171 -1.316291 0.000000 0.000000 -0.000001
0.000000 0.000000 0.000000 0.000000 0.000000 0.000000 -2.620826 -1.644483 0.807477 -2.714596 -1.504962 3.204647 -4.271842 -0.554302 6.267502 -0.932000 -3.695392 -3.609290 -3.479624 -6.062392 12.701322 9.781897 -4.767105 22.771990 -4.050503 -12.984002 -3.459626 3.326914 -17.662502 -14.606174 0.000077 -0.000022 0.000006 -0.049095 0.147500 -0.011757 0.544192 -3.587714 -10.716988 -0.644185 3.872384 -10.699207 25.954890 -33.446036 -6.393275 88.137961 -80.469157 -124.376957 0.392344 -32.511538 -0.023053 12.613955 10.466649 -65.462143 -5.882102 9.861279 0.702590 -10.936861 -0.360574 7.156197 0.000000 8.774815 0.000000 -15.687970 18.286777 6.372576 -1.844031 2.498503 -2.507276 -10.163590 4.678941 4.621104 -20.975996 -0.000001 0.000001 -21.226254 2.451698 -3.593995 0.000000 -0.000006 0.000000 -1.362681 2.240797 -0.746323 -21.334892 0.584910 3.008319 -13.821196 -0.000001 0.000001 -23.887129 -0.249075 -0.839485 -61.158282 2.852691 -1.563674 -0.294025 1.679686 0.833255 -14.218195 0.093215 1.300579 -34.212002 -0.287561 0.967166 -20.033176 0.964536 1.212838 0.000000 0.000000 0.000000 -3.440387 0.788233 0.501655 -15.928172 -3.167306 2.999703 -6.338817 0.000000 0.000001 -18.123419 3.648181 -4.905662 -0.000004 0.000000 -0.000002 -0.928037 16.681630 9.250634 24.982888 19.844166 -42.955690 174.800702 81.092425 174.673920 -31.485636 -38.208804 -56.789146 2.243540 -5.255033 -3.180156 14.282877 -0.826594 6.952496 0.000000 -12.690593 -0.000001 16.240218 -17.429356 2.355162 1.665665 -1.955920 -2.878297 4.727794 -4.170584 4.993919 11.020511 0.000001 -0.000000 12.109032 -3.735715 -2.866778 0.000000 0.000000 0.000000 1.291985 -1.928548 -1.498088 14.800115 0.567467 3.865604 14.242553 -1.341738 -6.660648 19.631935 0.143921 -0.648243 49.441152 -0.533409 -5.848743 0.353029 -1.511150 -0.031940 20.222769 3.684305 2.316629 18.787249 0.000001 -0.000001 10.751608 -0.479870 1.397903 0.000000 0.000000 0.000000 3.273804 0.305947 -0.580110 21.486790 11.830364 2.266131 8.162915 0.000000 0.000000 18.399052 -3.798986 -4.940567 0.000003 0.000000 -0.000001 8.515899 4.552834 -18.226231 -0.120337 -0.344266 28.045792 -2.926119 -11.427235 -10.273812 1.656527 -2.115021 -4.546751 0.000000 0.000000 0.000002 4.479563 -24.392954 -16.430004 0.066342 -0.100800 22.147503 1.478706 -2.071534 -9.353160 -1.422789 0.911171 -1.316291 0.000000 0.000000 -0.000001
0.000000 0.000000 0.000000 0.000000 0.000000 0.000000 -2.620826 -1.655879 0.807477 -2.714596 -1.504962 3.204647 -4.207020 -0.557123 6.258416 -0.924645 -3.685718 -3.611966 -3.400351 -6.089492 12.725455 9.723844 -4.810168 22.829764 -4.003779 -12.948251 -3.447354 3.360267 -17.670771 -14.651854 0.000077 -0.000022 0.000006 -0.056761 0.165611 -0.006759 0.530421 -3.572831 -10.703128 -0.645826 3.893694 -10.684974 25.948959 -33.428859 -6.274672 89.676776 -80.157091 -125.497346 0.459918 -32.240907 -0.080213 12.547704 10.536137 -66.007854 -5.882102 9.861279 0.702590 -10.936861 -0.360574 7.156197 0.000000 8.774815 0.000000 -15.685030 18.279769 6.386371 -1.844031 2.498503 -2.507276 -10.163590 4.678941 4.621104 -20.975996 -0.000001 0.000001 -21.226254 2.451698 -3.593995 0.000000 -0.000006 0.000000 -1.362681 2.240797 -0.746323 -21.334892 0.584910 3.008319 -13.821196 -0.000001 0.000001 -23.887129 -0.249075 -0.839485 -61.252598 2.854829 -1.596072 -0.294025 1.679686 0.833255 -14.218195 0.093215 1.300579 -34.212002 -0.287561 0.967166 -20.033176 0.964536 1.212838 0.000000 0.000000 0.000000 -3.440387 0.788233 0.501655 -15.928172 -3.167306 2.999703 -6.338817 0.000000 0.000001 -18.123419 3.648181 -4.905662 -0.000004 0.000000 -0.000002 -0.931766 16.679461 9.203646 24.941378 19.725616 -42.904978 175.767159 81.006135 175.671477 -31.402545 -38.325750 -56.861510 2.243540 -5.255033 -3.180156 14.282877 -0.826594 6.952496 0.000000 -12.690593 -0.000001 16.283490 -17.498796 2.347766 1.665665 -1.955920 -2.878297 4.727794 -4.170584 4.993919 11.020511 0.000001 -0.000000 12.109032 -3.735715 -2.866778 0.000000 0.000000 0.000000 1.291985 -1.928548 -1.498088 14.800115 0.567467 3.865604 14.242553 -1.341738 -6.660648 19.631935 0.143921 -0.648243 49.517952 -0.552605 -5.914338 0.353029 -1.511150 -0.031940 20.222769 3.684305 2.316629 18.787249 0.000001 -0.000001 10.751608 -0.479870 1.397903 0.000000 0.000000 0.000000 3.273804 0.305947 -0.580110 21.486790 11.830364 2.266131 8.162915 0.000000 0.000000 18.399052 -3.798986 -4.940567 0.000003 0.000000 -0.000001 8.515899 4.552834 -18.226231 -0.120337 -0.344266 28.045792 -2.926119 -11.427235 -10.273812 1.656527 -2.115021 -4.546751 0.000000 0.000000 0.000002 4.479563 -24.392954 -16.430004 0.066342 -0.100800 22.147503 1.478706 -2.071534 -9.353160 -1.422789 0.911171 -1.316291 0.000000 0.000000 -0.000001
0.000000 0.000000 0.000000 0.000000 0.000000 0.000000 -2.620826 -1.657901 0.807477 -2.714596 -1.504962 3.204647 -4.145074 -0.551315 6.243138 -0.916847 -3.679969 -3.624261 -3.309389 -6.099610 12.715622 9.667573 -4.848068 22.934171 -3.992959 -12.945491 -3.423102 3.404240 -17.739855 -14.750926 0.000077 -0.000022 0.000006 -0.067167 0.197589 -0.005344 0.510127 -3.544304 -10.682289 -0.646296 3.928828 -10.671063 25.928938 -33.397502 -6.073353 91.142472 -79.775060 -126.505829 0.540536 -32.005189 -0.216171 12.539578 10.558857 -66.542326 -5.882102 9.861279 0.702590 -10.936861 -0.360574 7.156197 0.000000 8.774815 0.000000 -15.702160 18.281603 6.400229 -1.844031 2.498503 -2.507276 -10.163590 4.678941 4.621104 -20.975996 -0.000001 0.000001 -21.226254 2.451698 -3.593995 0.000000 -0.000006 0.000000 -1.362681 2.240797 -0.746323 -21.334892 0.584910 3.008319 -13.821196 -0.000001 0.000001 -23.887129 -0.249075 -0.839485 -61.387959 2.850937 -1.622577 -0.294025 1.679686 0.833255 -14.218195 0.093215 1.300579 -34.212002 -0.287561 0.967166 -20.033176 0.964536 1.212838 0.000000 0.000000 0.000000 -3.440387 0.788233 0.501655 -15.928172 -3.167306 2.999703 -6.338817 0.000000 0.000001 -18.123419 3.648181 -4.905662 -0.000004 0.000000 -0.000002 -0.933772 16.690723 9.171021 24.931797 19.631603 -42.686247 177.623687 80.945360 177.528370 -31.425609 -38.351051 -56.785825 2.243540 -5.255033 -3.180156 14.282877 -0.826594 6.952496 0.000000 -12.690593 -0.000001 16.352264 -17.559162 2.376593 1.665665 -1.955920 -2.878297 4.727794 -4.170584 4.993919 11.020511 0.000001 -0.000000 12.109032 -3.735715 -2.866778 0.000000 0.000000 0.000000 1.291985 -1.928548 -1.498088 14.800115 0.567467 3.865604 14.242553 -1.341738 -6.660648 19.631935 0.143921 -0.648243 49.645773 -0.584078 -5.946550 0.353029 -1.511150 -0.031940 20.222769 3.684305 2.316629 18.787249 0.000001 -0.000001 10.751608 -0.479870 1.397903 0.000000 0.000000 0.000000 3.273804 0.305947 -0.580110 21.486790 11.830364 2.266131 8.162915 0.000000 0.000000 18.399052 -3.798986 -4.940567 0.000003 0.000000 -0.000001 8.515899 4.552834 -18.226231 -0.120337 -0.344266 28.045792 -2.926119 -11.427235 -10.273812 1.656527 -2.115021 -4.546751 0.000000 0.000000 0.000002 4.479563 -24.392954 -16.430004 0.066342 -0.100800 22.147503 1.478706 -2.071534 -9.353160 -1.422789 0.911171 -1.316291 0.000000 0.000000 -0.000001
0.000000 0.000000 0.000000 0.000000 0.000000 0.000000 -2.620826 -1.663999 0.807477 -2.714596 -1.504962 3.204647 -4.092303 -0.533234 6.229770 -0.919834 -3.736319 -3.603064 -3.194175 -6.114682 12.657547 9.630201 -4.904833 23.042441 -4.010973 -12.969182 -3.439662 3.427815 -17.850535 -14.897663 0.000077 -0.000022 0.000006 -0.068404 0.218069 -0.007088 0.488326 -3.525538 -10.652235 -0.626783 3.950829 -10.649231 25.923991 -33.402948 -5.858031 92.478513 -79.242813 -127.185360 0.665486 -31.809381 -0.416459 12.533977 10.652490 -66.799931 -5.882102 9.861279 0.702590 -10.936861 -0.360574 7.156197 0.000000 8.774815 0.000000 -15.796343 18.182657 6.415644 -1.844031 2.498503 -2.507276 -10.163590 4.678941 4.621104 -20.975996 -0.000001 0.000001 -21.226254 2.451698 -3.593995 0.000000 -0.000006 0.000000 -1.362681 2.240797 -0.746323 -21.334892 0.584910 3.008319 -13.821196 -0.000001 0.000001 -23.887129 -0.249075 -0.839485 -61.671258 2.841993 -1.600464 -0.294025 1.679686 0.833255 -14.218195 0.093215 1.300579 -34.212002 -0.287561 0.967166 -20.033176 0.964536 1.212838 0.000000 0.000000 0.000000 -3.440387 0.788233 0.501655 -15.928172 -3.167306 2.999703 -6.338817 0.000000 0.000001 -18.123419 3.648181 -4.905662 -0.000004 0.000000 -0.000002 -0.977956 16.707288 9.037241 24.989051 19.379939 -42.388428 179.993950 80.804726 179.872232 -31.500921 -38.500389 -56.480735 2.243540 -5.255033 -3.180156 14.282877 -0.826594 6.952496 0.000000 -12.690593 -0.000001 16.418917 -17.595241 2.445096 1.665665 -1.955920 -2.878297 4.727794 -4.170584 4.993919 11.020511 0.000001 -0.000000 12.109032 -3.735715 -2.866778 0.000000 0.000000 0.000000 1.291985 -1.928548 -1.498088 14.800115 0.567467 3.865604 14.242553 -1.341738 -6.660648 19.631935 0.143921 -0.648243 49.914889 -0.630576 -5.940533 0.353029 -1.511150 -0.031940 20.222769 3.684305 2.316629 18.787249 0.000001 -0.000001 10.751608 -0.479870 1.397903 0.000000 0.000000 0.000000 3.273804 0.305947 -0.580110 21.486790 11.830364 2.266131 8.162915 0.000000 0.000000 18.399052 -3.798986 -4.940567 0.000003 0.000000 -0.000001 8.515899 4.552834 -18.226231 -0.120337 -0.344266 28.045792 -2.926119 -11.427235 -10.273812 1.656527 -2.115021 -4.546751 0.000000 0.000000 0.000002 4.479563 -24.392954 -16.430004 0.066342 -0.100800 22.147503 1.478706 -2.071534 -9.353160 -1.422789 0.911171 -1.316291 0.000000 0.000000 -0.000001
