HIERARCHY
ROOT Root
{
  OFFSET 0.000000 0.000000 0.000000
  CHANNELS 6 Xposition Yposition Zposition Zrotation Yrotation Xrotation
  JOINT Hips
  {
    OFFSET 0.000000 100.000000 0.000000
    CHANNELS 6 Xposition Yposition Zposition Zrotation Yrotation Xrotation
    JOINT Spine1
    {
      OFFSET -0.013727 5.003763 -0.053727
      CHANNELS 3 Zrotation Yrotation Xrotation
      JOINT Spine2
      {
        OFFSET -0.000000 7.125301 -0.029825
        CHANNELS 3 Zrotation Yrotation Xrotation
        JOINT Chest
        {
          OFFSET -0.000001 7.550063 -0.815971
          CHANNELS 3 Zrotation Yrotation Xrotation
          JOINT Neck1
          {
            OFFSET -0.181677 26.311295 -0.553348
            CHANNELS 3 Zrotation Yrotation Xrotation
            JOINT Neck2
            {
              OFFSET -0.000003 7.709397 2.302585
              CHANNELS 3 Zrotation Yrotation Xrotation
              JOINT Head
              {
                OFFSET -0.000005 6.128916 1.953709
                CHANNELS 3 Zrotation Yrotation Xrotation
                JOINT HeadEnd
                {
                  OFFSET 0.003598 16.065403 -1.835379
                  CHANNELS 3 Zrotation Yrotation Xrotation
                }
                JOINT Jaw
                {
                  OFFSET 0.002637 0.475592 3.094941
                  CHANNELS 3 Zrotation Yrotation Xrotation
                }
                JOINT LeftEye
                {
                  OFFSET 3.206381 5.380205 7.586883
                  CHANNELS 3 Zrotation Yrotation Xrotation
                }
                JOINT RightEye
                {
                  OFFSET -3.222440 5.361869 7.558234
                  CHANNELS 3 Zrotation Yrotation Xrotation
                }
              }
            }
          }
          JOINT LeftShoulder
          {
            OFFSET 1.621652 23.237164 5.113413
            CHANNELS 3 Zrotation Yrotation Xrotation
            JOINT LeftArm
            {
              OFFSET 14.919846 0.000002 -5.502326
              CHANNELS 3 Zrotation Yrotation Xrotation
              JOINT LeftForeArm
              {
                OFFSET 28.739307 0.000000 -0.002588
                CHANNELS 3 Zrotation Yrotation Xrotation
                JOINT LeftHand
                {
                  OFFSET 27.093981 -0.000001 0.002609
                  CHANNELS 3 Zrotation Yrotation Xrotation
                  JOINT LeftHandThumb1
                  {
                    OFFSET 2.276482 -1.392045 3.191413
                    CHANNELS 3 Zrotation Yrotation Xrotation
                    JOINT LeftHandThumb2
                    {
                      OFFSET 4.012836 -1.828127 1.641654
                      CHANNELS 3 Zrotation Yrotation Xrotation
                      JOINT LeftHandThumb3
                      {
                        OFFSET 2.798515 0.000000 -0.000003
                        CHANNELS 3 Zrotation Yrotation Xrotation
                        JOINT LeftHandThumbEnd
                        {
                          OFFSET 3.180793 -0.000004 0.000004
                          CHANNELS 3 Zrotation Yrotation Xrotation
                        }
                      }
                    }
                  }
                  JOINT LeftHandIndex1
                  {
                    OFFSET 3.247555 -0.531998 2.296169
                    CHANNELS 3 Zrotation Yrotation Xrotation
                    JOINT LeftHandIndex2
                    {
                      OFFSET 6.364578 0.012060 0.178600
                      CHANNELS 3 Zrotation Yrotation Xrotation
                      JOINT LeftHandIndex3
                      {
                        OFFSET 3.662364 0.000000 0.000000
                        CHANNELS 3 Zrotation Yrotation Xrotation
                        JOINT LeftHandIndex4
                        {
                          OFFSET 2.329242 0.000004 0.000004
                          CHANNELS 3 Zrotation Yrotation Xrotation
                          JOINT LeftHandIndexEnd
                          {
                            OFFSET 2.759615 -0.180537 -0.113024
                            CHANNELS 3 Zrotation Yrotation Xrotation
                          }
                        }
                      }
                    }
                  }
                  JOINT LeftHandMiddle1
                  {
                    OFFSET 3.163495 0.240981 1.000332
                    CHANNELS 3 Zrotation Yrotation Xrotation
                    JOINT LeftHandMiddle2
                    {
                      OFFSET 6.190780 -0.259278 -1.002548
                      CHANNELS 3 Zrotation Yrotation Xrotation
                      JOINT LeftHandMiddle3
                      {
                        OFFSET 4.356520 -0.000004 -0.000001
                        CHANNELS 3 Zrotation Yrotation Xrotation
                        JOINT LeftHandMiddle4
                        {
                          OFFSET 2.996877 -0.000008 0.000000
                          CHANNELS 3 Zrotation Yrotation Xrotation
                          JOINT LeftHandMiddleEnd
                          {
                            OFFSET 2.304287 -0.294569 -0.031741
                            CHANNELS 3 Zrotation Yrotation Xrotation
                          }
                        }
                      }
                    }
                  }
                  JOINT LeftHandRing1
                  {
                    OFFSET 2.882643 -0.053652 -0.322543
                    CHANNELS 3 Zrotation Yrotation Xrotation
                    JOINT LeftHandRing2
                    {
                      OFFSET 5.854541 -0.486202 -1.373841
                      CHANNELS 3 Zrotation Yrotation Xrotation
                      JOINT LeftHandRing3
                      {
                        OFFSET 4.350578 0.000000 0.000003
                        CHANNELS 3 Zrotation Yrotation Xrotation
                        JOINT LeftHandRing4
                        {
                          OFFSET 2.651321 0.000007 0.000002
                          CHANNELS 3 Zrotation Yrotation Xrotation
                          JOINT LeftHandRingEnd
                          {
                            OFFSET 1.936105 0.077687 -0.000071
                            CHANNELS 3 Zrotation Yrotation Xrotation
                          }
                        }
                      }
                    }
                  }
                  JOINT LeftHandPinky1
                  {
                    OFFSET 2.865500 -0.310005 -1.600378
                    CHANNELS 3 Zrotation Yrotation Xrotation
                    JOINT LeftHandPinky2
                    {
                      OFFSET 5.087849 -1.331141 -1.771230
                      CHANNELS 3 Zrotation Yrotation Xrotation
                      JOINT LeftHandPinky3
                      {
                        OFFSET 3.070974 0.000004 0.000000
                        CHANNELS 3 Zrotation Yrotation Xrotation
                        JOINT LeftHandPinky4
                        {
                          OFFSET 1.549672 0.000000 0.000001
                          CHANNELS 3 Zrotation Yrotation Xrotation
                          JOINT LeftHandPinkyEnd
                          {
                            OFFSET 1.944893 -0.157802 0.057219
                            CHANNELS 3 Zrotation Yrotation Xrotation
                          }
                        }
                      }
                    }
                  }
                }
              }
            }
          }
          JOINT RightShoulder
          {
            OFFSET -1.380118 23.180309 5.214158
            CHANNELS 3 Zrotation Yrotation Xrotation
            JOINT RightArm
            {
              OFFSET -15.037196 0.000012 -5.545604
              CHANNELS 3 Zrotation Yrotation Xrotation
              JOINT RightForeArm
              {
                OFFSET -28.736639 0.000002 -0.002597
                CHANNELS 3 Zrotation Yrotation Xrotation
                JOINT RightHand
                {
                  OFFSET -27.133619 -0.000000 0.002613
                  CHANNELS 3 Zrotation Yrotation Xrotation
                  JOINT RightHandThumb1
                  {
                    OFFSET -2.274032 -1.383988 3.163127
                    CHANNELS 3 Zrotation Yrotation Xrotation
                    JOINT RightHandThumb2
                    {
                      OFFSET -4.011429 -1.827466 1.640914
                      CHANNELS 3 Zrotation Yrotation Xrotation
                      JOINT RightHandThumb3
                      {
                        OFFSET -2.794935 -0.000004 -0.000003
                        CHANNELS 3 Zrotation Yrotation Xrotation
                        JOINT RightHandThumbEnd
                        {
                          OFFSET -3.183852 0.000004 0.000001
                          CHANNELS 3 Zrotation Yrotation Xrotation
                        }
                      }
                    }
                  }
                  JOINT RightHandIndex1
                  {
                    OFFSET -3.253266 -0.520057 2.282866
                    CHANNELS 3 Zrotation Yrotation Xrotation
                    JOINT RightHandIndex2
                    {
                      OFFSET -6.341917 0.012471 0.178266
                      CHANNELS 3 Zrotation Yrotation Xrotation
                      JOINT RightHandIndex3
                      {
                        OFFSET -3.654871 -0.000008 -0.000000
                        CHANNELS 3 Zrotation Yrotation Xrotation
                        JOINT RightHandIndex4
                        {
                          OFFSET -2.327586 0.000000 0.000001
                          CHANNELS 3 Zrotation Yrotation Xrotation
                          JOINT RightHandIndexEnd
                          {
                            OFFSET -2.761790 -0.180656 -0.113078
                            CHANNELS 3 Zrotation Yrotation Xrotation
                          }
                        }
                      }
                    }
                  }
                  JOINT RightHandMiddle1
                  {
                    OFFSET -3.168106 0.246593 1.001030
                    CHANNELS 3 Zrotation Yrotation Xrotation
                    JOINT RightHandMiddle2
                    {
                      OFFSET -6.180828 -0.258836 -1.000895
                      CHANNELS 3 Zrotation Yrotation Xrotation
                      JOINT RightHandMiddle3
                      {
                        OFFSET -4.348901 0.000000 -0.000000
                        CHANNELS 3 Zrotation Yrotation Xrotation
                        JOINT RightHandMiddle4
                        {
                          OFFSET -3.000240 -0.000004 -0.000002
                          CHANNELS 3 Zrotation Yrotation Xrotation
                          JOINT RightHandMiddleEnd
                          {
                            OFFSET -2.302520 -0.294370 -0.031706
                            CHANNELS 3 Zrotation Yrotation Xrotation
                          }
                        }
                      }
                    }
                  }
                  JOINT RightHandRing1
                  {
                    OFFSET -2.885690 -0.067952 -0.308858
                    CHANNELS 3 Zrotation Yrotation Xrotation
                    JOINT RightHandRing2
                    {
                      OFFSET -5.854198 -0.486130 -1.373731
                      CHANNELS 3 Zrotation Yrotation Xrotation
                      JOINT RightHandRing3
                      {
                        OFFSET -4.338810 -0.000004 -0.000000
                        CHANNELS 3 Zrotation Yrotation Xrotation
                        JOINT RightHandRing4
                        {
                          OFFSET -2.654903 -0.000004 0.000004
                          CHANNELS 3 Zrotation Yrotation Xrotation
                          JOINT RightHandRingEnd
                          {
                            OFFSET -1.933568 0.077527 -0.000052
                            CHANNELS 3 Zrotation Yrotation Xrotation
                          }
                        }
                      }
                    }
                  }
                  JOINT RightHandPinky1
                  {
                    OFFSET -2.866425 -0.342796 -1.584145
                    CHANNELS 3 Zrotation Yrotation Xrotation
                    JOINT RightHandPinky2
                    {
                      OFFSET -5.091371 -1.332055 -1.772385
                      CHANNELS 3 Zrotation Yrotation Xrotation
                      JOINT RightHandPinky3
                      {
                        OFFSET -3.062664 -0.000004 0.000001
                        CHANNELS 3 Zrotation Yrotation Xrotation
                        JOINT RightHandPinky4
                        {
                          OFFSET -1.546529 0.000004 -0.000002
                          CHANNELS 3 Zrotation Yrotation Xrotation
                          JOINT RightHandPinkyEnd
                          {
                            OFFSET -1.945119 -0.157718 0.057211
                            CHANNELS 3 Zrotation Yrotation Xrotation
                          }
                        }
                      }
                    }
                  }
                }
              }
            }
          }
        }
      }
    }
    JOINT LeftLeg
    {
      OFFSET 10.043214 -8.434526 2.595655
      CHANNELS 3 Zrotation Yrotation Xrotation
      JOINT LeftShin
      {
        OFFSET -0.000001 -43.221752 -0.802913
        CHANNELS 3 Zrotation Yrotation Xrotation
        JOINT LeftFoot
        {
          OFFSET 0.000001 -42.155094 -3.481523
          CHANNELS 3 Zrotation Yrotation Xrotation
          JOINT LeftToeBase
          {
            OFFSET 0.000000 -5.059472 13.231529
            CHANNELS 3 Zrotation Yrotation Xrotation
            JOINT LeftToeEnd
            {
              OFFSET -0.009607 -1.647619 6.513017
              CHANNELS 3 Zrotation Yrotation Xrotation
            }
          }
        }
      }
    }
    JOINT RightLeg
    {
      OFFSET -10.047278 -8.295260 2.620317
      CHANNELS 3 Zrotation Yrotation Xrotation
      JOINT RightShin
      {
        OFFSET 0.000001 -43.362206 -0.805556
        CHANNELS 3 Zrotation Yrotation Xrotation
        JOINT RightFoot
        {
          OFFSET 0.000002 -42.117393 -3.478398
          CHANNELS 3 Zrotation Yrotation Xrotation
          JOINT RightToeBase
          {
            OFFSET -0.000000 -5.079609 13.284196
            CHANNELS 3 Zrotation Yrotation Xrotation
            JOINT RightToeEnd
            {
              OFFSET 0.009532 -1.634378 6.460591
              CHANNELS 3 Zrotation Yrotation Xrotation
            }
          }
        }
      }
    }
  }
}
MOTION
Frames: 33
Frame Time: 0.03333333
0.000000 0.000000 0.000000 0.000000 -0.000000 0.000000 -0.661576 -1.327593 0.939117 -176.112167 86.086784 -179.827591 0.708435 -0.020451 -0.775545 -0.547216 0.723592 -5.487536 -0.753822 -1.098224 12.670074 -8.555217 7.059480 7.621460 4.687620 15.829175 -2.579094 5.228185 18.587172 2.537694 0.000077 -0.000022 0.000006 -0.037816 -0.077164 -0.078585 0.739274 -3.779637 -10.580765 -0.814868 3.633157 -10.496436 -5.849800 -2.485489 18.848970 -71.761726 -3.075386 9.002892 0.122030 -34.801605 -0.075777 -3.401360 -4.192623 -11.618751 -5.882102 9.861279 0.702590 -10.936861 -0.360574 7.156197 0.000000 8.774815 -0.000000 -16.059601 18.145632 6.142552 -1.844031 2.498503 -2.507276 -10.163590 4.678941 4.621104 -20.975996 -0.000001 0.000001 -21.226254 2.451698 -3.593995 0.000000 -0.000006 -0.000000 -1.362681 2.240797 -0.746323 -21.334892 0.584910 3.008319 -13.821196 -0.000001 0.000001 -23.887129 -0.249075 -0.839485 -60.240562 2.842923 -1.314550 -0.294025 1.679686 0.833255 -14.218195 0.093215 1.300579 -34.212002 -0.287561 0.967166 -20.033176 0.964536 1.212838 0.000000 -0.000000 0.000000 -3.440387 0.788233 0.501655 -15.928172 -3.167306 2.999703 -6.338817 -0.000000 0.000001 -18.123419 3.648181 -4.905662 -0.000004 0.000000 -0.000002 5.786635 5.802162 20.113913 69.927132 6.150861 23.416151 -0.337294 37.873608 -0.128513 -16.119173 5.413192 -1.075578 2.243540 -5.255033 -3.180156 14.282877 -0.826594 6.952496 -0.000000 -12.690593 -0.000001 15.691133 -17.917631 2.981272 1.665665 -1.955920 -2.878297 4.727794 -4.170584 4.993919 11.020511 0.000001 -0.000000 12.109032 -3.735715 -2.866778 0.000000 -0.000000 0.000000 1.291985 -1.928548 -1.498088 14.800115 0.567467 3.865604 14.242553 -1.341738 -6.660648 19.631935 0.143921 -0.648243 49.840641 -0.814157 -6.281302 0.353029 -1.511150 -0.031940 20.222769 3.684305 2.316629 18.787249 0.000001 -0.000001 10.751608 -0.479870 1.397903 0.000000 -0.000000 0.000000 3.273804 0.305947 -0.580110 21.486790 11.830364 2.266131 8.162915 0.000000 -0.000000 18.399052 -3.798986 -4.940567 0.000003 0.000000 -0.000001 12.489517 4.699493 1.374544 -0.012526 -0.599988 6.805744 -14.918179 -5.499306 -1.677075 1.645552 -2.020220 -2.025989 0.000000 -0.000000 0.000002 -7.792646 -12.634998 3.801084 0.022641 0.205936 10.633889 10.406399 -9.615207 -9.401057 -1.414750 1.018157 -1.227279 0.000000 -0.000000 -0.000001
0.000000 0.000000 0.000000 0.000000 -0.000000 0.000000 -0.661576 -1.336786 0.939117 -176.649315 86.086879 179.597553 0.598005 -0.030352 -0.818155 -0.569376 0.622998 -5.516342 -0.780741 -1.231290 12.676972 -7.819508 6.705178 7.608751 4.506275 15.315997 -2.636089 5.054890 17.959120 2.493128 0.000077 -0.000022 0.000006 -0.035555 -0.083894 -0.076075 0.743991 -3.783893 -10.584464 -0.815130 3.623925 -10.497520 -5.706740 -2.710314 18.936115 -71.536797 -3.305022 9.587113 0.055091 -34.556252 -0.050289 -3.460106 -4.089842 -11.255650 -5.882102 9.861279 0.702590 -10.936861 -0.360574 7.156197 0.000000 8.774815 -0.000000 -16.061983 18.161810 6.139925 -1.844031 2.498503 -2.507276 -10.163590 4.678941 4.621104 -20.975996 -0.000001 0.000001 -21.226254 2.451698 -3.593995 0.000000 -0.000006 -0.000000 -1.362681 2.240797 -0.746323 -21.334892 0.584910 3.008319 -13.821196 -0.000001 0.000001 -23.887129 -0.249075 -0.839485 -60.212463 2.832376 -1.298366 -0.294025 1.679686 0.833255 -14.218195 0.093215 1.300579 -34.212002 -0.287561 0.967166 -20.033176 0.964536 1.212838 0.000000 -0.000000 0.000000 -3.440387 0.788233 0.501655 -15.928172 -3.167306 2.999703 -6.338817 -0.000000 0.000001 -18.123419 3.648181 -4.905662 -0.000004 0.000000 -0.000002 6.063764 5.494786 20.048664 69.960663 6.207931 23.258490 -0.366209 37.893040 -0.107931 -16.339474 5.544283 -1.253573 2.243540 -5.255033 -3.180156 14.282877 -0.826594 6.952496 -0.000000 -12.690593 -0.000001 15.670199 -17.889090 2.953116 1.665665 -1.955920 -2.878297 4.727794 -4.170584 4.993919 11.020511 0.000001 -0.000000 12.109032 -3.735715 -2.866778 0.000000 -0.000000 0.000000 1.291985 -1.928548 -1.498088 14.800115 0.567467 3.865604 14.242553 -1.341738 -6.660648 19.631935 0.143921 -0.648243 49.779869 -0.798018 -6.252952 0.353029 -1.511150 -0.031940 20.222769 3.684305 2.316629 18.787249 0.000001 -0.000001 10.751608 -0.479870 1.397903 0.000000 -0.000000 0.000000 3.273804 0.305947 -0.580110 21.486790 11.830364 2.266131 8.162915 0.000000 -0.000000 18.399052 -3.798986 -4.940567 0.000003 0.000000 -0.000001 12.392307 4.602170 1.405690 -0.016017 -0.597014 6.863247 -14.906463 -5.619908 -1.784847 1.645630 -2.017944 -2.001242 0.000000 -0.000000 0.000002 -7.934065 -12.721466 4.017121 0.015994 0.190580 10.482224 10.449234 -9.636197 -9.383539 -1.417005 1.021310 -1.236733 0.000000 -0.000000 -0.000001
0.000000 0.000000 0.000000 0.000000 -0.000000 0.000000 -0.661576 -1.349276 0.939117 -177.573509 86.086064 178.628670 0.497057 -0.042562 -0.837477 -0.590135 0.532256 -5.542096 -0.807904 -1.355619 12.718318 -7.103043 6.363224 7.620362 4.305686 14.698332 -2.712541 4.789933 17.196167 2.336665 0.000077 -0.000022 0.000006 -0.031424 -0.093708 -0.076114 0.749358 -3.791355 -10.594933 -0.812309 3.611449 -10.504773 -5.635374 -2.894240 19.053564 -71.307220 -3.498359 10.066804 0.019982 -34.424782 -0.052391 -3.521129 -3.971308 -10.855980 -5.882102 9.861279 0.702590 -10.936861 -0.360574 7.156197 0.000000 8.774815 -0.000000 -16.053770 18.188711 6.140374 -1.844031 2.498503 -2.507276 -10.163590 4.678941 4.621104 -20.975996 -0.000001 0.000001 -21.226254 2.451698 -3.593995 0.000000 -0.000006 -0.000000 -1.362681 2.240797 -0.746323 -21.334892 0.584910 3.008319 -13.821196 -0.000001 0.000001 -23.887129 -0.249075 -0.839485 -60.194183 2.818998 -1.293063 -0.294025 1.679686 0.833255 -14.218195 0.093215 1.300579 -34.212002 -0.287561 0.967166 -20.033176 0.964536 1.212838 0.000000 -0.000000 0.000000 -3.440387 0.788233 0.501655 -15.928172 -3.167306 2.999703 -6.338817 -0.000000 0.000001 -18.123419 3.648181 -4.905662 -0.000004 0.000000 -0.000002 6.307119 5.195362 20.041332 69.979286 6.228570 23.215965 -0.373787 37.921299 -0.084886 -16.343948 5.674448 -1.304347 2.243540 -5.255033 -3.180156 14.282877 -0.826594 6.952496 -0.000000 -12.690593 -0.000001 15.668497 -17.870131 2.932254 1.665665 -1.955920 -2.878297 4.727794 -4.170584 4.993919 11.020511 0.000001 -0.000000 12.109032 -3.735715 -2.866778 0.000000 -0.000000 0.000000 1.291985 -1.928548 -1.498088 14.800115 0.567467 3.865604 14.242553 -1.341738 -6.660648 19.631935 0.143921 -0.648243 49.751087 -0.781291 -6.224192 0.353029 -1.511150 -0.031940 20.222769 3.684305 2.316629 18.787249 0.000001 -0.000001 10.751608 -0.479870 1.397903 0.000000 -0.000000 0.000000 3.273804 0.305947 -0.580110 21.486790 11.830364 2.266131 8.162915 0.000000 -0.000000 18.399052 -3.798986 -4.940567 0.000003 0.000000 -0.000001 12.267780 4.540726 1.433847 -0.017936 -0.585860 6.954826 -14.902110 -5.751713 -1.892776 1.645635 -2.012112 -1.956325 0.000000 -0.000000 0.000002 -8.099402 -12.768877 4.161182 0.007958 0.178176 10.444978 10.522180 -9.620566 -9.407532 -1.419039 1.029274 -1.254390 0.000000 -0.000000 -0.000001
0.000000 0.000000 0.000000 0.000000 -0.000000 0.000000 -0.661576 -1.372362 0.939117 -178.785094 86.083291 177.364099 0.414899 -0.057610 -0.831898 -0.610711 0.455794 -5.557038 -0.833616 -1.467500 12.792489 -6.469301 6.078165 7.665283 4.090908 14.028683 -2.797446 4.488337 16.357880 2.072820 0.000077 -0.000022 0.000006 -0.025950 -0.105415 -0.075240 0.753177 -3.800766 -10.604616 -0.805334 3.597331 -10.512419 -5.647697 -3.014644 19.189196 -71.073563 -3.648475 10.381676 -0.011322 -34.423168 -0.056797 -3.568091 -3.890067 -10.550047 -5.882102 9.861279 0.702590 -10.936861 -0.360574 7.156197 0.000000 8.774815 -0.000000 -16.045174 18.244629 6.138587 -1.844031 2.498503 -2.507276 -10.163590 4.678941 4.621104 -20.975996 -0.000001 0.000001 -21.226254 2.451698 -3.593995 0.000000 -0.000006 -0.000000 -1.362681 2.240797 -0.746323 -21.334892 0.584910 3.008319 -13.821196 -0.000001 0.000001 -23.887129 -0.249075 -0.839485 -60.163898 2.813899 -1.301484 -0.294025 1.679686 0.833255 -14.218195 0.093215 1.300579 -34.212002 -0.287561 0.967166 -20.033176 0.964536 1.212838 0.000000 -0.000000 0.000000 -3.440387 0.788233 0.501655 -15.928172 -3.167306 2.999703 -6.338817 -0.000000 0.000001 -18.123419 3.648181 -4.905662 -0.000004 0.000000 -0.000002 6.512783 4.926115 20.126163 69.954948 6.275058 23.287819 -0.358082 37.933552 -0.061781 -16.136232 5.789279 -1.207817 2.243540 -5.255033 -3.180156 14.282877 -0.826594 6.952496 -0.000000 -12.690593 -0.000001 15.682234 -17.872307 2.921244 1.665665 -1.955920 -2.878297 4.727794 -4.170584 4.993919 11.020511 0.000001 -0.000000 12.109032 -3.735715 -2.866778 0.000000 -0.000000 0.000000 1.291985 -1.928548 -1.498088 14.800115 0.567467 3.865604 14.242553 -1.341738 -6.660648 19.631935 0.143921 -0.648243 49.751556 -0.760916 -6.223481 0.353029 -1.511150 -0.031940 20.222769 3.684305 2.316629 18.787249 0.000001 -0.000001 10.751608 -0.479870 1.397903 0.000000 -0.000000 0.000000 3.273804 0.305947 -0.580110 21.486790 11.830364 2.266131 8.162915 0.000000 -0.000000 18.399052 -3.798986 -4.940567 0.000003 0.000000 -0.000001 12.127602 4.533456 1.434710 -0.018194 -0.570484 7.125029 -14.908722 -5.883134 -2.036560 1.644518 -2.006185 -1.927379 0.000000 -0.000000 0.000002 -8.281519 -12.779465 4.176667 -0.000034 0.168741 10.615932 10.634211 -9.558423 -9.509010 -1.419243 1.037785 -1.274565 0.000000 -0.000000 -0.000001
0.000000 0.000000 0.000000 0.000000 -0.000000 0.000000 -0.661576 -1.399561 0.939117 179.818652 86.077723 175.923796 0.346053 -0.067090 -0.815635 -0.626286 0.394924 -5.556559 -0.864224 -1.574276 12.888283 -5.949505 5.847857 7.733897 3.869543 13.376875 -2.880577 4.211939 15.511925 1.744626 0.000077 -0.000022 0.000006 -0.021468 -0.108446 -0.070743 0.756209 -3.801653 -10.609104 -0.799385 3.591881 -10.516825 -5.687159 -3.078851 19.327539 -70.898857 -3.753174 10.442218 -0.083439 -34.508953 -0.047710 -3.573174 -3.865206 -10.325146 -5.882102 9.861279 0.702590 -10.936861 -0.360574 7.156197 0.000000 8.774815 -0.000000 -16.048283 18.317213 6.133655 -1.844031 2.498503 -2.507276 -10.163590 4.678941 4.621104 -20.975996 -0.000001 0.000001 -21.226254 2.451698 -3.593995 0.000000 -0.000006 -0.000000 -1.362681 2.240797 -0.746323 -21.334892 0.584910 3.008319 -13.821196 -0.000001 0.000001 -23.887129 -0.249075 -0.839485 -60.160149 2.815206 -1.315010 -0.294025 1.679686 0.833255 -14.218195 0.093215 1.300579 -34.212002 -0.287561 0.967166 -20.033176 0.964536 1.212838 0.000000 -0.000000 0.000000 -3.440387 0.788233 0.501655 -15.928172 -3.167306 2.999703 -6.338817 -0.000000 0.000001 -18.123419 3.648181 -4.905662 -0.000004 0.000000 -0.000002 6.648639 4.703835 20.251871 69.942001 6.334575 23.422482 -0.341233 37.848751 -0.043195 -15.838990 5.885917 -1.009280 2.243540 -5.255033 -3.180156 14.282877 -0.826594 6.952496 -0.000000 -12.690593 -0.000001 15.693878 -17.877045 2.917762 1.665665 -1.955920 -2.878297 4.727794 -4.170584 4.993919 11.020511 0.000001 -0.000000 12.109032 -3.735715 -2.866778 0.000000 -0.000000 0.000000 1.291985 -1.928548 -1.498088 14.800115 0.567467 3.865604 14.242553 -1.341738 -6.660648 19.631935 0.143921 -0.648243 49.777016 -0.739409 -6.230743 0.353029 -1.511150 -0.031940 20.222769 3.684305 2.316629 18.787249 0.000001 -0.000001 10.751608 -0.479870 1.397903 0.000000 -0.000000 0.000000 3.273804 0.305947 -0.580110 21.486790 11.830364 2.266131 8.162915 0.000000 -0.000000 18.399052 -3.798986 -4.940567 0.000003 0.000000 -0.000001 11.980200 4.580745 1.415420 -0.017428 -0.554762 7.330576 -14.868781 -5.945279 -2.199368 1.643366 -1.999605 -1.911302 0.000000 -0.000000 0.000002 -8.460324 -12.736861 4.074613 -0.007141 0.163183 10.927679 10.726197 -9.492310 -9.649718 -1.417002 1.043343 -1.307046 0.000000 -0.000000 -0.000001
0.000000 0.000000 0.000000 0.000000 -0.000000 0.000000 -0.661576 -1.418780 0.939117 178.589247 86.070794 174.682832 0.294618 -0.076993 -0.792053 -0.629446 0.335051 -5.544828 -0.886654 -1.658812 12.976104 -5.565447 5.669296 7.810575 3.664069 12.780684 -2.956949 3.974684 14.754849 1.442592 0.000077 -0.000022 0.000006 -0.016654 -0.110204 -0.065277 0.761692 -3.802226 -10.614079 -0.795232 3.588789 -10.522367 -5.720722 -3.117728 19.449877 -70.843399 -3.796193 10.327993 -0.117271 -34.619743 -0.058100 -3.556850 -3.868373 -10.210022 -5.882102 9.861279 0.702590 -10.936861 -0.360574 7.156197 0.000000 8.774815 -0.000000 -16.074112 18.372723 6.113575 -1.844031 2.498503 -2.507276 -10.163590 4.678941 4.621104 -20.975996 -0.000001 0.000001 -21.226254 2.451698 -3.593995 0.000000 -0.000006 -0.000000 -1.362681 2.240797 -0.746323 -21.334892 0.584910 3.008319 -13.821196 -0.000001 0.000001 -23.887129 -0.249075 -0.839485 -60.168709 2.822244 -1.338728 -0.294025 1.679686 0.833255 -14.218195 0.093215 1.300579 -34.212002 -0.287561 0.967166 -20.033176 0.964536 1.212838 0.000000 -0.000000 0.000000 -3.440387 0.788233 0.501655 -15.928172 -3.167306 2.999703 -6.338817 -0.000000 0.000001 -18.123419 3.648181 -4.905662 -0.000004 0.000000 -0.000002 6.704171 4.522544 20.371805 69.938614 6.372176 23.624432 -0.359804 37.639263 -0.055045 -15.565267 5.931848 -0.816123 2.243540 -5.255033 -3.180156 14.282877 -0.826594 6.952496 -0.000000 -12.690593 -0.000001 15.710205 -17.870962 2.907539 1.665665 -1.955920 -2.878297 4.727794 -4.170584 4.993919 11.020511 0.000001 -0.000000 12.109032 -3.735715 -2.866778 0.000000 -0.000000 0.000000 1.291985 -1.928548 -1.498088 14.800115 0.567467 3.865604 14.242553 -1.341738 -6.660648 19.631935 0.143921 -0.648243 49.801605 -0.722628 -6.239336 0.353029 -1.511150 -0.031940 20.222769 3.684305 2.316629 18.787249 0.000001 -0.000001 10.751608 -0.479870 1.397903 0.000000 -0.000000 0.000000 3.273804 0.305947 -0.580110 21.486790 11.830364 2.266131 8.162915 0.000000 -0.000000 18.399052 -3.798986 -4.940567 0.000003 0.000000 -0.000001 11.861028 4.688423 1.401554 -0.019136 -0.539619 7.474713 -14.799418 -5.967668 -2.397694 1.643802 -1.991490 -1.912950 0.000000 -0.000000 0.000002 -8.595162 -12.654773 3.903965 -0.010984 0.160844 11.233457 10.770411 -9.434017 -9.759753 -1.414006 1.048143 -1.330999 0.000000 -0.000000 -0.000001
0.000000 0.000000 0.000000 0.000000 -0.000000 0.000000 -0.661576 -1.426378 0.939117 177.817438 86.065559 173.931605 0.270485 -0.091393 -0.760456 -0.625877 0.271922 -5.530252 -0.895655 -1.710230 13.042459 -5.298138 5.537523 7.902981 3.483068 12.267848 -3.026632 3.756841 14.071098 1.185757 0.000077 -0.000022 0.000006 -0.012450 -0.113579 -0.059773 0.765809 -3.803984 -10.618528 -0.790906 3.583995 -10.530128 -5.722131 -3.160690 19.573374 -70.897057 -3.837378 10.085220 -0.113593 -34.717033 -0.080126 -3.550746 -3.841040 -10.056337 -5.882102 9.861279 0.702590 -10.936861 -0.360574 7.156197 0.000000 8.774815 -0.000000 -16.106808 18.402491 6.084273 -1.844031 2.498503 -2.507276 -10.163590 4.678941 4.621104 -20.975996 -0.000001 0.000001 -21.226254 2.451698 -3.593995 0.000000 -0.000006 -0.000000 -1.362681 2.240797 -0.746323 -21.334892 0.584910 3.008319 -13.821196 -0.000001 0.000001 -23.887129 -0.249075 -0.839485 -60.194931 2.826302 -1.358543 -0.294025 1.679686 0.833255 -14.218195 0.093215 1.300579 -34.212002 -0.287561 0.967166 -20.033176 0.964536 1.212838 0.000000 -0.000000 0.000000 -3.440387 0.788233 0.501655 -15.928172 -3.167306 2.999703 -6.338817 -0.000000 0.000001 -18.123419 3.648181 -4.905662 -0.000004 0.000000 -0.000002 6.666777 4.397334 20.474846 69.936424 6.359034 23.837812 -0.379185 37.374271 -0.073417 -15.356064 5.920267 -0.682608 2.243540 -5.255033 -3.180156 14.282877 -0.826594 6.952496 -0.000000 -12.690593 -0.000001 15.718678 -17.838789 2.908847 1.665665 -1.955920 -2.878297 4.727794 -4.170584 4.993919 11.020511 0.000001 -0.000000 12.109032 -3.735715 -2.866778 0.000000 -0.000000 0.000000 1.291985 -1.928548 -1.498088 14.800115 0.567467 3.865604 14.242553 -1.341738 -6.660648 19.631935 0.143921 -0.648243 49.811497 -0.705904 -6.225543 0.353029 -1.511150 -0.031940 20.222769 3.684305 2.316629 18.787249 0.000001 -0.000001 10.751608 -0.479870 1.397903 0.000000 -0.000000 0.000000 3.273804 0.305947 -0.580110 21.486790 11.830364 2.266131 8.162915 0.000000 -0.000000 18.399052 -3.798986 -4.940567 0.000003 0.000000 -0.000001 11.798325 4.833139 1.387703 -0.024532 -0.533982 7.543999 -14.732174 -5.954782 -2.419945 1.646628 -1.984456 -1.923187 0.000000 -0.000000 0.000002 -8.666242 -12.592978 3.710012 -0.010966 0.162861 11.465236 10.782949 -9.351692 -9.812533 -1.412196 1.049288 -1.354267 0.000000 -0.000000 -0.000001
0.000000 0.000000 0.000000 0.000000 -0.000000 0.000000 -0.661576 -1.427218 0.939117 177.772223 86.065332 173.925284 0.291476 -0.105939 -0.713066 -0.619507 0.216453 -5.519095 -0.905371 -1.746981 13.093341 -5.120394 5.450933 8.003737 3.314073 11.802686 -3.091601 3.548085 13.438062 0.978789 0.000077 -0.000022 0.000006 -0.010947 -0.110948 -0.051992 0.765426 -3.798738 -10.618804 -0.787475 3.584289 -10.534948 -5.710302 -3.210407 19.716263 -70.989838 -3.919362 9.759382 -0.094623 -34.801182 -0.096829 -3.552532 -3.779124 -9.814878 -5.882102 9.861279 0.702590 -10.936861 -0.360574 7.156197 0.000000 8.774815 -0.000000 -16.148653 18.415405 6.055231 -1.844031 2.498503 -2.507276 -10.163590 4.678941 4.621104 -20.975996 -0.000001 0.000001 -21.226254 2.451698 -3.593995 0.000000 -0.000006 -0.000000 -1.362681 2.240797 -0.746323 -21.334892 0.584910 3.008319 -13.821196 -0.000001 0.000001 -23.887129 -0.249075 -0.839485 -60.250923 2.832338 -1.372483 -0.294025 1.679686 0.833255 -14.218195 0.093215 1.300579 -34.212002 -0.287561 0.967166 -20.033176 0.964536 1.212838 0.000000 -0.000000 0.000000 -3.440387 0.788233 0.501655 -15.928172 -3.167306 2.999703 -6.338817 -0.000000 0.000001 -18.123419 3.648181 -4.905662 -0.000004 0.000000 -0.000002 6.536686 4.333880 20.582726 69.928505 6.315511 24.030872 -0.383502 37.124828 -0.076226 -15.190158 5.855568 -0.603143 2.243540 -5.255033 -3.180156 14.282877 -0.826594 6.952496 -0.000000 -12.690593 -0.000001 15.719049 -17.793674 2.917469 1.665665 -1.955920 -2.878297 4.727794 -4.170584 4.993919 11.020511 0.000001 -0.000000 12.109032 -3.735715 -2.866778 0.000000 -0.000000 0.000000 1.291985 -1.928548 -1.498088 14.800115 0.567467 3.865604 14.242553 -1.341738 -6.660648 19.631935 0.143921 -0.648243 49.803127 -0.686532 -6.196719 0.353029 -1.511150 -0.031940 20.222769 3.684305 2.316629 18.787249 0.000001 -0.000001 10.751608 -0.479870 1.397903 0.000000 -0.000000 0.000000 3.273804 0.305947 -0.580110 21.486790 11.830364 2.266131 8.162915 0.000000 -0.000000 18.399052 -3.798986 -4.940567 0.000003 0.000000 -0.000001 11.808532 4.974598 1.361826 -0.028970 -0.542900 7.567803 -14.677861 -5.914090 -2.445630 1.649874 -1.975600 -1.933693 0.000000 -0.000000 0.000002 -8.657110 -12.582299 3.517550 -0.012826 0.170502 11.624358 10.759575 -9.236469 -9.814736 -1.411052 1.052978 -1.381481 0.000000 -0.000000 -0.000001
0.000000 0.000000 0.000000 0.000000 -0.000000 0.000000 -0.661576 -1.420801 0.939117 178.248580 86.068792 174.457283 0.342953 -0.119208 -0.656300 -0.613699 0.163997 -5.505090 -0.914654 -1.773111 13.122148 -5.037271 5.394025 8.091700 3.163059 11.391004 -3.149530 3.340787 12.877475 0.806621 0.000077 -0.000022 0.000006 -0.010544 -0.104425 -0.044483 0.763856 -3.790145 -10.616347 -0.785133 3.589325 -10.538198 -5.726387 -3.253024 19.903421 -71.067139 -4.058590 9.380452 -0.064882 -34.885284 -0.101060 -3.556458 -3.711390 -9.582158 -5.882102 9.861279 0.702590 -10.936861 -0.360574 7.156197 0.000000 8.774815 -0.000000 -16.156338 18.413361 6.043262 -1.844031 2.498503 -2.507276 -10.163590 4.678941 4.621104 -20.975996 -0.000001 0.000001 -21.226254 2.451698 -3.593995 0.000000 -0.000006 -0.000000 -1.362681 2.240797 -0.746323 -21.334892 0.584910 3.008319 -13.821196 -0.000001 0.000001 -23.887129 -0.249075 -0.839485 -60.283878 2.834993 -1.380248 -0.294025 1.679686 0.833255 -14.218195 0.093215 1.300579 -34.212002 -0.287561 0.967166 -20.033176 0.964536 1.212838 0.000000 -0.000000 0.000000 -3.440387 0.788233 0.501655 -15.928172 -3.167306 2.999703 -6.338817 -0.000000 0.000001 -18.123419 3.648181 -4.905662 -0.000004 0.000000 -0.000002 6.316567 4.334580 20.636021 69.923294 6.219121 24.258924 -0.396471 36.890968 -0.088122 -14.993601 5.797289 -0.513459 2.243540 -5.255033 -3.180156 14.282877 -0.826594 6.952496 -0.000000 -12.690593 -0.000001 15.727855 -17.758707 2.923813 1.665665 -1.955920 -2.878297 4.727794 -4.170584 4.993919 11.020511 0.000001 -0.000000 12.109032 -3.735715 -2.866778 0.000000 -0.000000 0.000000 1.291985 -1.928548 -1.498088 14.800115 0.567467 3.865604 14.242553 -1.341738 -6.660648 19.631935 0.143921 -0.648243 49.805294 -0.675273 -6.178833 0.353029 -1.511150 -0.031940 20.222769 3.684305 2.316629 18.787249 0.000001 -0.000001 10.751608 -0.479870 1.397903 0.000000 -0.000000 0.000000 3.273804 0.305947 -0.580110 21.486790 11.830364 2.266131 8.162915 0.000000 -0.000000 18.399052 -3.798986 -4.940567 0.000003 0.000000 -0.000001 11.866149 5.090017 1.329233 -0.031120 -0.555138 7.543730 -14.625517 -5.827323 -2.450924 1.653091 -1.972787 -1.942082 0.000000 -0.000000 0.000002 -8.583915 -12.589245 3.341249 -0.018595 0.182129 11.700842 10.734378 -9.110428 -9.777131 -1.409983 1.055625 -1.415084 0.000000 -0.000000 -0.000001
0.000000 0.000000 0.000000 0.000000 -0.000000 0.000000 -0.661576 -1.410639 0.939117 179.033228 86.073718 175.308864 0.408882 -0.127313 -0.591559 -0.608213 0.116620 -5.483636 -0.928016 -1.801731 13.128899 -5.012559 5.366140 8.167118 3.017170 11.006659 -3.206869 3.111489 12.351882 0.664048 0.000077 -0.000022 0.000006 -0.008502 -0.102728 -0.040243 0.763985 -3.786653 -10.613144 -0.781260 3.589777 -10.540740 -5.750611 -3.300288 20.092503 -71.140274 -4.228163 9.050752 0.023002 -34.950073 -0.126463 -3.548807 -3.667857 -9.400904 -5.882102 9.861279 0.702590 -10.936861 -0.360574 7.156197 0.000000 8.774815 -0.000000 -16.131126 18.387718 6.041877 -1.844031 2.498503 -2.507276 -10.163590 4.678941 4.621104 -20.975996 -0.000001 0.000001 -21.226254 2.451698 -3.593995 0.000000 -0.000006 -0.000000 -1.362681 2.240797 -0.746323 -21.334892 0.584910 3.008319 -13.821196 -0.000001 0.000001 -23.887129 -0.249075 -0.839485 -60.285095 2.828550 -1.384461 -0.294025 1.679686 0.833255 -14.218195 0.093215 1.300579 -34.212002 -0.287561 0.967166 -20.033176 0.964536 1.212838 0.000000 -0.000000 0.000000 -3.440387 0.788233 0.501655 -15.928172 -3.167306 2.999703 -6.338817 -0.000000 0.000001 -18.123419 3.648181 -4.905662 -0.000004 0.000000 -0.000002 6.040733 4.372978 20.622557 69.903282 6.097622 24.523340 -0.400937 36.651409 -0.091004 -14.770373 5.747937 -0.397146 2.243540 -5.255033 -3.180156 14.282877 -0.826594 6.952496 -0.000000 -12.690593 -0.000001 15.721042 -17.726946 2.933483 1.665665 -1.955920 -2.878297 4.727794 -4.170584 4.993919 11.020511 0.000001 -0.000000 12.109032 -3.735715 -2.866778 0.000000 -0.000000 0.000000 1.291985 -1.928548 -1.498088 14.800115 0.567467 3.865604 14.242553 -1.341738 -6.660648 19.631935 0.143921 -0.648243 49.802719 -0.665868 -6.172104 0.353029 -1.511150 -0.031940 20.222769 3.684305 2.316629 18.787249 0.000001 -0.000001 10.751608 -0.479870 1.397903 0.000000 -0.000000 0.000000 3.273804 0.305947 -0.580110 21.486790 11.830364 2.266131 8.162915 0.000000 -0.000000 18.399052 -3.798986 -4.940567 0.000003 0.000000 -0.000001 11.955928 5.182277 1.296498 -0.032669 -0.566070 7.474287 -14.595749 -5.726624 -2.403261 1.656609 -1.976708 -1.949626 0.000000 -0.000000 0.000002 -8.469624 -12.610244 3.159846 -0.023022 0.192647 11.749747 10.725965 -8.952328 -9.726491 -1.409708 1.060286 -1.452863 0.000000 -0.000000 -0.000001
0.000000 0.000000 0.000000 0.000000 -0.000000 0.000000 -0.661576 -1.397486 0.939117 -179.992717 86.078619 176.347764 0.485006 -0.137728 -0.515064 -0.604612 0.078037 -5.461185 -0.941034 -1.833570 13.132244 -5.060394 5.368943 8.202340 2.890496 10.684287 -3.261269 2.910485 11.899437 0.565058 0.000077 -0.000022 0.000006 -0.006527 -0.102609 -0.040790 0.763269 -3.784394 -10.612549 -0.776710 3.588044 -10.543213 -5.786445 -3.338673 20.265802 -71.193657 -4.416059 8.719000 0.105067 -34.981983 -0.152803 -3.526234 -3.637624 -9.283242 -5.882102 9.861279 0.702590 -10.936861 -0.360574 7.156197 0.000000 8.774815 -0.000000 -16.101732 18.361929 6.043758 -1.844031 2.498503 -2.507276 -10.163590 4.678941 4.621104 -20.975996 -0.000001 0.000001 -21.226254 2.451698 -3.593995 0.000000 -0.000006 -0.000000 -1.362681 2.240797 -0.746323 -21.334892 0.584910 3.008319 -13.821196 -0.000001 0.000001 -23.887129 -0.249075 -0.839485 -60.262890 2.816026 -1.381918 -0.294025 1.679686 0.833255 -14.218195 0.093215 1.300579 -34.212002 -0.287561 0.967166 -20.033176 0.964536 1.212838 0.000000 -0.000000 0.000000 -3.440387 0.788233 0.501655 -15.928172 -3.167306 2.999703 -6.338817 -0.000000 0.000001 -18.123419 3.648181 -4.905662 -0.000004 0.000000 -0.000002 5.768625 4.426631 20.628874 69.837013 6.066781 24.740009 -0.382617 36.427433 -0.090271 -14.596659 5.713751 -0.276704 2.243540 -5.255033 -3.180156 14.282877 -0.826594 6.952496 -0.000000 -12.690593 -0.000001 15.710976 -17.710236 2.942578 1.665665 -1.955920 -2.878297 4.727794 -4.170584 4.993919 11.020511 0.000001 -0.000000 12.109032 -3.735715 -2.866778 0.000000 -0.000000 0.000000 1.291985 -1.928548 -1.498088 14.800115 0.567467 3.865604 14.242553 -1.341738 -6.660648 19.631935 0.143921 -0.648243 49.811268 -0.655623 -6.176210 0.353029 -1.511150 -0.031940 20.222769 3.684305 2.316629 18.787249 0.000001 -0.000001 10.751608 -0.479870 1.397903 0.000000 -0.000000 0.000000 3.273804 0.305947 -0.580110 21.486790 11.830364 2.266131 8.162915 0.000000 -0.000000 18.399052 -3.798986 -4.940567 0.000003 0.000000 -0.000001 12.076082 5.288550 1.266572 -0.032784 -0.578056 7.396140 -14.594055 -5.651863 -2.334837 1.659511 -1.984901 -1.946769 0.000000 -0.000000 0.000002 -8.329881 -12.630654 2.988256 -0.021856 0.196968 11.774271 10.716767 -8.779938 -9.664311 -1.410723 1.061964 -1.482625 0.000000 -0.000000 -0.000001
0.000000 0.000000 0.000000 0.000000 -0.000000 0.000000 -0.661576 -1.379450 0.939117 -178.923888 86.082526 177.471471 0.560227 -0.149494 -0.433854 -0.599082 0.049159 -5.441199 -0.949550 -1.864514 13.134339 -5.194197 5.400505 8.207717 2.798142 10.413537 -3.306781 2.735757 11.565250 0.523435 0.000077 -0.000022 0.000006 -0.003401 -0.114237 -0.042353 0.762542 -3.795228 -10.614466 -0.769842 3.575659 -10.545663 -5.833918 -3.381949 20.412777 -71.211952 -4.579405 8.395471 0.134006 -35.003448 -0.159135 -3.487334 -3.593744 -9.161861 -5.882102 9.861279 0.702590 -10.936861 -0.360574 7.156197 0.000000 8.774815 -0.000000 -16.078259 18.366220 6.045149 -1.844031 2.498503 -2.507276 -10.163590 4.678941 4.621104 -20.975996 -0.000001 0.000001 -21.226254 2.451698 -3.593995 0.000000 -0.000006 -0.000000 -1.362681 2.240797 -0.746323 -21.334892 0.584910 3.008319 -13.821196 -0.000001 0.000001 -23.887129 -0.249075 -0.839485 -60.242050 2.801390 -1.386522 -0.294025 1.679686 0.833255 -14.218195 0.093215 1.300579 -34.212002 -0.287561 0.967166 -20.033176 0.964536 1.212838 0.000000 -0.000000 0.000000 -3.440387 0.788233 0.501655 -15.928172 -3.167306 2.999703 -6.338817 -0.000000 0.000001 -18.123419 3.648181 -4.905662 -0.000004 0.000000 -0.000002 5.533298 4.481005 20.631689 69.744385 6.096704 24.927004 -0.376091 36.186134 -0.103061 -14.521995 5.690381 -0.314023 2.243540 -5.255033 -3.180156 14.282877 -0.826594 6.952496 -0.000000 -12.690593 -0.000001 15.714892 -17.717251 2.949924 1.665665 -1.955920 -2.878297 4.727794 -4.170584 4.993919 11.020511 0.000001 -0.000000 12.109032 -3.735715 -2.866778 0.000000 -0.000000 0.000000 1.291985 -1.928548 -1.498088 14.800115 0.567467 3.865604 14.242553 -1.341738 -6.660648 19.631935 0.143921 -0.648243 49.848724 -0.661211 -6.193945 0.353029 -1.511150 -0.031940 20.222769 3.684305 2.316629 18.787249 0.000001 -0.000001 10.751608 -0.479870 1.397903 0.000000 -0.000000 0.000000 3.273804 0.305947 -0.580110 21.486790 11.830364 2.266131 8.162915 0.000000 -0.000000 18.399052 -3.798986 -4.940567 0.000003 0.000000 -0.000001 12.212550 5.381610 1.258282 -0.031256 -0.582791 7.286454 -14.611909 -5.544536 -2.136083 1.661303 -1.995190 -1.913647 0.000000 -0.000000 0.000002 -8.171827 -12.636343 2.846899 -0.019429 0.201011 11.751664 10.684612 -8.630611 -9.580050 -1.411883 1.058581 -1.491482 0.000000 -0.000000 -0.000001
0.000000 0.000000 0.000000 0.000000 -0.000000 0.000000 -0.661576 -1.362429 0.939117 -177.839212 86.084963 178.605485 0.631505 -0.162000 -0.363933 -0.590873 0.025259 -5.416868 -0.959247 -1.899854 13.139776 -5.402752 5.454962 8.169524 2.739372 10.197058 -3.333588 2.577428 11.338915 0.507174 0.000077 -0.000022 0.000006 0.000556 -0.132311 -0.041452 0.762600 -3.813722 -10.612088 -0.762120 3.557746 -10.543580 -5.869131 -3.441305 20.492781 -71.227989 -4.681115 8.077752 0.109157 -35.022316 -0.138752 -3.442605 -3.518621 -8.979842 -5.882102 9.861279 0.702590 -10.936861 -0.360574 7.156197 0.000000 8.774815 -0.000000 -16.071381 18.404354 6.052587 -1.844031 2.498503 -2.507276 -10.163590 4.678941 4.621104 -20.975996 -0.000001 0.000001 -21.226254 2.451698 -3.593995 0.000000 -0.000006 -0.000000 -1.362681 2.240797 -0.746323 -21.334892 0.584910 3.008319 -13.821196 -0.000001 0.000001 -23.887129 -0.249075 -0.839485 -60.241585 2.803614 -1.386499 -0.294025 1.679686 0.833255 -14.218195 0.093215 1.300579 -34.212002 -0.287561 0.967166 -20.033176 0.964536 1.212838 0.000000 -0.000000 0.000000 -3.440387 0.788233 0.501655 -15.928172 -3.167306 2.999703 -6.338817 -0.000000 0.000001 -18.123419 3.648181 -4.905662 -0.000004 0.000000 -0.000002 5.332213 4.525343 20.616455 69.662285 6.160927 25.074923 -0.379957 35.944302 -0.122329 -14.545388 5.673496 -0.495540 2.243540 -5.255033 -3.180156 14.282877 -0.826594 6.952496 -0.000000 -12.690593 -0.000001 15.718164 -17.731890 2.961232 1.665665 -1.955920 -2.878297 4.727794 -4.170584 4.993919 11.020511 0.000001 -0.000000 12.109032 -3.735715 -2.866778 0.000000 -0.000000 0.000000 1.291985 -1.928548 -1.498088 14.800115 0.567467 3.865604 14.242553 -1.341738 -6.660648 19.631935 0.143921 -0.648243 49.879307 -0.672033 -6.211572 0.353029 -1.511150 -0.031940 20.222769 3.684305 2.316629 18.787249 0.000001 -0.000001 10.751608 -0.479870 1.397903 0.000000 -0.000000 0.000000 3.273804 0.305947 -0.580110 21.486790 11.830364 2.266131 8.162915 0.000000 -0.000000 18.399052 -3.798986 -4.940567 0.000003 0.000000 -0.000001 12.355064 5.414501 1.249249 -0.026906 -0.582151 7.151142 -14.645036 -5.410293 -1.996356 1.662058 -1.999988 -1.864431 0.000000 -0.000000 0.000002 -8.001875 -12.674749 2.707427 -0.020263 0.204730 11.748939 10.640851 -8.490620 -9.510416 -1.412831 1.056289 -1.485182 0.000000 -0.000000 -0.000001
0.000000 0.000000 0.000000 0.000000 -0.000000 0.000000 -0.661576 -1.348276 0.939117 -176.876722 86.085897 179.596499 0.689342 -0.164059 -0.302971 -0.576772 -0.029682 -5.381555 -0.962542 -1.932544 13.136407 -5.654947 5.545037 8.111776 2.712683 10.069369 -3.350777 2.428057 11.256720 0.469731 0.000077 -0.000022 0.000006 0.002074 -0.136414 -0.041141 0.758881 -3.817652 -10.592568 -0.755505 3.553289 -10.524107 -5.866702 -3.488382 20.499784 -71.256813 -4.685730 7.843011 0.069542 -35.037640 -0.104305 -3.407796 -3.467108 -8.722992 -5.882102 9.861279 0.702590 -10.936861 -0.360574 7.156197 0.000000 8.774815 -0.000000 -16.083052 18.406340 6.053383 -1.844031 2.498503 -2.507276 -10.163590 4.678941 4.621104 -20.975996 -0.000001 0.000001 -21.226254 2.451698 -3.593995 0.000000 -0.000006 -0.000000 -1.362681 2.240797 -0.746323 -21.334892 0.584910 3.008319 -13.821196 -0.000001 0.000001 -23.887129 -0.249075 -0.839485 -60.173496 2.791562 -1.357139 -0.294025 1.679686 0.833255 -14.218195 0.093215 1.300579 -34.212002 -0.287561 0.967166 -20.033176 0.964536 1.212838 0.000000 -0.000000 0.000000 -3.440387 0.788233 0.501655 -15.928172 -3.167306 2.999703 -6.338817 -0.000000 0.000001 -18.123419 3.648181 -4.905662 -0.000004 0.000000 -0.000002 5.186466 4.629719 20.655537 69.638268 6.252419 25.074280 -0.416213 35.759510 -0.139443 -14.577401 5.605689 -0.778149 2.243540 -5.255033 -3.180156 14.282877 -0.826594 6.952496 -0.000000 -12.690593 -0.000001 15.722837 -17.772293 2.951947 1.665665 -1.955920 -2.878297 4.727794 -4.170584 4.993919 11.020511 0.000001 -0.000000 12.109032 -3.735715 -2.866778 0.000000 -0.000000 0.000000 1.291985 -1.928548 -1.498088 14.800115 0.567467 3.865604 14.242553 -1.341738 -6.660648 19.631935 0.143921 -0.648243 49.877342 -0.681971 -6.231800 0.353029 -1.511150 -0.031940 20.222769 3.684305 2.316629 18.787249 0.000001 -0.000001 10.751608 -0.479870 1.397903 0.000000 -0.000000 0.000000 3.273804 0.305947 -0.580110 21.486790 11.830364 2.266131 8.162915 0.000000 -0.000000 18.399052 -3.798986 -4.940567 0.000003 0.000000 -0.000001 12.493820 5.401390 1.282824 -0.018144 -0.571739 6.952771 -14.667233 -5.273769 -1.833876 1.657352 -1.998035 -1.869979 0.000000 -0.000000 0.000002 -7.829410 -12.693739 2.590684 -0.019232 0.199996 11.772948 10.545884 -8.396276 -9.469195 -1.414664 1.047772 -1.450848 0.000000 -0.000000 -0.000001
0.000000 0.000000 0.000000 0.000000 -0.000000 0.000000 -0.661576 -1.325121 0.939117 -175.707679 86.085439 -179.196520 0.737792 -0.200392 -0.275608 -0.565175 -0.031869 -5.375169 -0.984662 -1.977492 13.193310 -5.888944 5.633953 7.982007 2.686648 9.974078 -3.343441 2.231669 11.217687 0.414231 0.000077 -0.000022 0.000006 0.009330 -0.166474 -0.041845 0.767772 -3.850474 -10.609166 -0.750073 3.526120 -10.544634 -5.892404 -3.560033 20.554201 -71.246902 -4.786656 7.724356 0.116860 -34.946095 -0.140669 -3.399491 -3.410009 -8.763012 -5.882102 9.861279 0.702590 -10.936861 -0.360574 7.156197 0.000000 8.774815 -0.000000 -16.046406 18.442795 6.053688 -1.844031 2.498503 -2.507276 -10.163590 4.678941 4.621104 -20.975996 -0.000001 0.000001 -21.226254 2.451698 -3.593995 0.000000 -0.000006 -0.000000 -1.362681 2.240797 -0.746323 -21.334892 0.584910 3.008319 -13.821196 -0.000001 0.000001 -23.887129 -0.249075 -0.839485 -60.231121 2.793615 -1.394269 -0.294025 1.679686 0.833255 -14.218195 0.093215 1.300579 -34.212002 -0.287561 0.967166 -20.033176 0.964536 1.212838 0.000000 -0.000000 0.000000 -3.440387 0.788233 0.501655 -15.928172 -3.167306 2.999703 -6.338817 -0.000000 0.000001 -18.123419 3.648181 -4.905662 -0.000004 0.000000 -0.000002 5.095747 4.600463 20.540886 69.623314 6.274413 25.150656 -0.424925 35.604546 -0.139435 -14.638387 5.562539 -0.763024 2.243540 -5.255033 -3.180156 14.282877 -0.826594 6.952496 -0.000000 -12.690593 -0.000001 15.685839 -17.719221 2.977290 1.665665 -1.955920 -2.878297 4.727794 -4.170584 4.993919 11.020511 0.000001 -0.000000 12.109032 -3.735715 -2.866778 0.000000 -0.000000 0.000000 1.291985 -1.928548 -1.498088 14.800115 0.567467 3.865604 14.242553 -1.341738 -6.660648 19.631935 0.143921 -0.648243 49.862652 -0.689474 -6.214542 0.353029 -1.511150 -0.031940 20.222769 3.684305 2.316629 18.787249 0.000001 -0.000001 10.751608 -0.479870 1.397903 0.000000 -0.000000 0.000000 3.273804 0.305947 -0.580110 21.486790 11.830364 2.266131 8.162915 0.000000 -0.000000 18.399052 -3.798986 -4.940567 0.000003 0.000000 -0.000001 12.637116 5.250949 1.231795 -0.018884 -0.568302 6.814346 -14.742294 -5.157505 -1.640248 1.661819 -2.020294 -1.869655 0.000000 -0.000000 0.000002 -7.648373 -12.807497 2.565340 -0.023933 0.197461 11.652172 10.510872 -8.361846 -9.382812 -1.414185 1.049477 -1.439713 0.000000 -0.000000 -0.000001
0.000000 0.000000 0.000000 0.000000 -0.000000 0.000000 -0.661576 -1.318232 0.939117 -174.733414 86.083734 -178.191496 0.774509 -0.213871 -0.236922 -0.564503 -0.058738 -5.367962 -0.991271 -2.012125 13.227457 -6.151597 5.729946 7.761985 2.707822 9.925223 -3.328367 2.028079 11.311490 0.380083 0.000077 -0.000022 0.000006 0.012087 -0.175718 -0.042655 0.772739 -3.860886 -10.606764 -0.749823 3.518264 -10.546564 -5.896088 -3.597059 20.528980 -71.256622 -4.816136 7.748900 0.141829 -34.802830 -0.154000 -3.353106 -3.407344 -8.736721 -5.882102 9.861279 0.702590 -10.936861 -0.360574 7.156197 0.000000 8.774815 -0.000000 -16.036430 18.459824 6.047956 -1.844031 2.498503 -2.507276 -10.163590 4.678941 4.621104 -20.975996 -0.000001 0.000001 -21.226254 2.451698 -3.593995 0.000000 -0.000006 -0.000000 -1.362681 2.240797 -0.746323 -21.334892 0.584910 3.008319 -13.821196 -0.000001 0.000001 -23.887129 -0.249075 -0.839485 -60.220291 2.773678 -1.394259 -0.294025 1.679686 0.833255 -14.218195 0.093215 1.300579 -34.212002 -0.287561 0.967166 -20.033176 0.964536 1.212838 0.000000 -0.000000 0.000000 -3.440387 0.788233 0.501655 -15.928172 -3.167306 2.999703 -6.338817 -0.000000 0.000001 -18.123419 3.648181 -4.905662 -0.000004 0.000000 -0.000002 5.052516 4.614057 20.475420 69.651649 6.325819 25.119156 -0.405091 35.393341 -0.117280 -14.666466 5.585882 -0.904638 2.243540 -5.255033 -3.180156 14.282877 -0.826594 6.952496 -0.000000 -12.690593 -0.000001 15.663214 -17.730310 2.980408 1.665665 -1.955920 -2.878297 4.727794 -4.170584 4.993919 11.020511 0.000001 -0.000000 12.109032 -3.735715 -2.866778 0.000000 -0.000000 0.000000 1.291985 -1.928548 -1.498088 14.800115 0.567467 3.865604 14.242553 -1.341738 -6.660648 19.631935 0.143921 -0.648243 49.854263 -0.692927 -6.202907 0.353029 -1.511150 -0.031940 20.222769 3.684305 2.316629 18.787249 0.000001 -0.000001 10.751608 -0.479870 1.397903 0.000000 -0.000000 0.000000 3.273804 0.305947 -0.580110 21.486790 11.830364 2.266131 8.162915 0.000000 -0.000000 18.399052 -3.798986 -4.940567 0.000003 0.000000 -0.000001 12.766562 5.086236 1.179933 -0.017225 -0.557152 6.693647 -14.810536 -5.034045 -1.510022 1.659948 -2.038334 -1.879044 0.000000 -0.000000 0.000002 -7.484436 -12.902212 2.484023 -0.020300 0.199240 11.687922 10.425112 -8.374562 -9.385271 -1.412241 1.045229 -1.427553 0.000000 -0.000000 -0.000001
0.000000 0.000000 0.000000 0.000000 -0.000000 0.000000 -0.661576 -1.322092 0.939117 -173.739968 86.080757 -177.167539 0.799765 -0.213548 -0.194038 -0.571403 -0.073708 -5.364408 -0.988580 -2.039862 13.251429 -6.433136 5.847799 7.470511 2.749254 9.917521 -3.312132 1.833219 11.470645 0.332554 0.000077 -0.000022 0.000006 0.015041 -0.193154 -0.045223 0.778204 -3.877779 -10.603068 -0.749574 3.500340 -10.546874 -5.920922 -3.669229 20.509489 -71.254837 -4.833547 7.776977 0.137973 -34.649685 -0.151356 -3.339128 -3.409526 -8.698608 -5.882102 9.861279 0.702590 -10.936861 -0.360574 7.156197 0.000000 8.774815 -0.000000 -16.039009 18.485203 6.063858 -1.844031 2.498503 -2.507276 -10.163590 4.678941 4.621104 -20.975996 -0.000001 0.000001 -21.226254 2.451698 -3.593995 0.000000 -0.000006 -0.000000 -1.362681 2.240797 -0.746323 -21.334892 0.584910 3.008319 -13.821196 -0.000001 0.000001 -23.887129 -0.249075 -0.839485 -60.228699 2.755034 -1.378376 -0.294025 1.679686 0.833255 -14.218195 0.093215 1.300579 -34.212002 -0.287561 0.967166 -20.033176 0.964536 1.212838 0.000000 -0.000000 0.000000 -3.440387 0.788233 0.501655 -15.928172 -3.167306 2.999703 -6.338817 -0.000000 0.000001 -18.123419 3.648181 -4.905662 -0.000004 0.000000 -0.000002 5.076887 4.597804 20.435495 69.676239 6.430629 25.096378 -0.382835 35.153484 -0.109386 -14.672880 5.587009 -1.089429 2.243540 -5.255033 -3.180156 14.282877 -0.826594 6.952496 -0.000000 -12.690593 -0.000001 15.662676 -17.760607 2.988859 1.665665 -1.955920 -2.878297 4.727794 -4.170584 4.993919 11.020511 0.000001 -0.000000 12.109032 -3.735715 -2.866778 0.000000 -0.000000 0.000000 1.291985 -1.928548 -1.498088 14.800115 0.567467 3.865604 14.242553 -1.341738 -6.660648 19.631935 0.143921 -0.648243 49.875919 -0.692870 -6.190602 0.353029 -1.511150 -0.031940 20.222769 3.684305 2.316629 18.787249 0.000001 -0.000001 10.751608 -0.479870 1.397903 0.000000 -0.000000 0.000000 3.273804 0.305947 -0.580110 21.486790 11.830364 2.266131 8.162915 0.000000 -0.000000 18.399052 -3.798986 -4.940567 0.000003 0.000000 -0.000001 12.897047 4.933369 1.088621 -0.016665 -0.544327 6.648514 -14.874139 -4.953197 -1.439257 1.656309 -2.043756 -1.868698 0.000000 -0.000000 0.000002 -7.404419 -13.010818 2.412405 -0.018322 0.205416 11.783979 10.396439 -8.403467 -9.374727 -1.410402 1.041876 -1.433681 0.000000 -0.000000 -0.000001
0.000000 0.000000 0.000000 0.000000 -0.000000 0.000000 -0.661576 -1.327807 0.939117 -172.890403 86.077115 -176.280304 0.811715 -0.200607 -0.152817 -0.583984 -0.077823 -5.351033 -0.976976 -2.067470 13.253151 -6.744531 5.986310 7.094759 2.806813 10.020494 -3.284203 1.645887 11.729564 0.267834 0.000077 -0.000022 0.000006 0.016246 -0.206430 -0.048369 0.782147 -3.891422 -10.600054 -0.751258 3.487482 -10.544858 -5.956832 -3.732246 20.518305 -71.269081 -4.869536 7.838391 0.121758 -34.502628 -0.124785 -3.361370 -3.392619 -8.603139 -5.882102 9.861279 0.702590 -10.936861 -0.360574 7.156197 0.000000 8.774815 -0.000000 -16.062149 18.509712 6.092999 -1.844031 2.498503 -2.507276 -10.163590 4.678941 4.621104 -20.975996 -0.000001 0.000001 -21.226254 2.451698 -3.593995 0.000000 -0.000006 -0.000000 -1.362681 2.240797 -0.746323 -21.334892 0.584910 3.008319 -13.821196 -0.000001 0.000001 -23.887129 -0.249075 -0.839485 -60.275799 2.751370 -1.369616 -0.294025 1.679686 0.833255 -14.218195 0.093215 1.300579 -34.212002 -0.287561 0.967166 -20.033176 0.964536 1.212838 0.000000 -0.000000 0.000000 -3.440387 0.788233 0.501655 -15.928172 -3.167306 2.999703 -6.338817 -0.000000 0.000001 -18.123419 3.648181 -4.905662 -0.000004 0.000000 -0.000002 5.136316 4.586315 20.402847 69.713760 6.553981 25.155376 -0.397957 34.892689 -0.121164 -14.700803 5.531333 -1.245707 2.243540 -5.255033 -3.180156 14.282877 -0.826594 6.952496 -0.000000 -12.690593 -0.000001 15.677431 -17.804241 3.005713 1.665665 -1.955920 -2.878297 4.727794 -4.170584 4.993919 11.020511 0.000001 -0.000000 12.109032 -3.735715 -2.866778 0.000000 -0.000000 0.000000 1.291985 -1.928548 -1.498088 14.800115 0.567467 3.865604 14.242553 -1.341738 -6.660648 19.631935 0.143921 -0.648243 49.934555 -0.699125 -6.190005 0.353029 -1.511150 -0.031940 20.222769 3.684305 2.316629 18.787249 0.000001 -0.000001 10.751608 -0.479870 1.397903 0.000000 -0.000000 0.000000 3.273804 0.305947 -0.580110 21.486790 11.830364 2.266131 8.162915 0.000000 -0.000000 18.399052 -3.798986 -4.940567 0.000003 0.000000 -0.000001 13.012559 4.809460 0.968381 -0.013329 -0.531864 6.631340 -14.935535 -4.904553 -1.371990 1.652753 -2.032584 -1.858106 0.000000 -0.000000 0.000002 -7.248221 -13.124657 2.307772 -0.016325 0.207071 11.899050 10.273000 -8.444751 -9.445042 -1.408155 1.039651 -1.462550 0.000000 -0.000000 -0.000001
0.000000 0.000000 0.000000 0.000000 -0.000000 0.000000 -0.661576 -1.333422 0.939117 -172.311214 86.073845 -175.648935 0.813173 -0.179753 -0.108756 -0.593433 -0.073463 -5.326862 -0.965284 -2.074249 13.213875 -7.103150 6.129305 6.643202 2.880198 10.239600 -3.243550 1.461528 12.128706 0.202907 0.000077 -0.000022 0.000006 0.015214 -0.209130 -0.050300 0.785997 -3.896736 -10.594927 -0.757241 3.487252 -10.540648 -5.991208 -3.772501 20.539799 -71.316589 -4.910720 7.922576 0.084561 -34.379391 -0.085266 -3.408665 -3.394426 -8.499047 -5.882102 9.861279 0.702590 -10.936861 -0.360574 7.156197 0.000000 8.774815 -0.000000 -16.098745 18.527584 6.114181 -1.844031 2.498503 -2.507276 -10.163590 4.678941 4.621104 -20.975996 -0.000001 0.000001 -21.226254 2.451698 -3.593995 0.000000 -0.000006 -0.000000 -1.362681 2.240797 -0.746323 -21.334892 0.584910 3.008319 -13.821196 -0.000001 0.000001 -23.887129 -0.249075 -0.839485 -60.318619 2.751950 -1.365820 -0.294025 1.679686 0.833255 -14.218195 0.093215 1.300579 -34.212002 -0.287561 0.967166 -20.033176 0.964536 1.212838 0.000000 -0.000000 0.000000 -3.440387 0.788233 0.501655 -15.928172 -3.167306 2.999703 -6.338817 -0.000000 0.000001 -18.123419 3.648181 -4.905662 -0.000004 0.000000 -0.000002 5.178381 4.595409 20.382801 69.801910 6.662087 25.219269 -0.414353 34.652065 -0.142870 -14.764586 5.441521 -1.351403 2.243540 -5.255033 -3.180156 14.282877 -0.826594 6.952496 -0.000000 -12.690593 -0.000001 15.703059 -17.837572 3.010647 1.665665 -1.955920 -2.878297 4.727794 -4.170584 4.993919 11.020511 0.000001 -0.000000 12.109032 -3.735715 -2.866778 0.000000 -0.000000 0.000000 1.291985 -1.928548 -1.498088 14.800115 0.567467 3.865604 14.242553 -1.341738 -6.660648 19.631935 0.143921 -0.648243 49.983429 -0.705943 -6.201951 0.353029 -1.511150 -0.031940 20.222769 3.684305 2.316629 18.787249 0.000001 -0.000001 10.751608 -0.479870 1.397903 0.000000 -0.000000 0.000000 3.273804 0.305947 -0.580110 21.486790 11.830364 2.266131 8.162915 0.000000 -0.000000 18.399052 -3.798986 -4.940567 0.000003 0.000000 -0.000001 13.099569 4.725413 0.826611 -0.010479 -0.524510 6.621387 -15.001136 -4.883389 -1.300339 1.651336 -2.019537 -1.878321 0.000000 -0.000000 0.000002 -7.133179 -13.241326 2.183404 -0.011636 0.204021 12.031348 10.193590 -8.496325 -9.515975 -1.406659 1.040200 -1.489328 0.000000 -0.000000 -0.000001
0.000000 0.000000 0.000000 0.000000 -0.000000 0.000000 -0.661576 -1.331835 0.939117 -171.999986 86.071494 -175.268432 0.817569 -0.158057 -0.062114 -0.594019 -0.063531 -5.298714 -0.962410 -2.030251 13.130411 -7.551216 6.302011 6.126919 2.980425 10.588534 -3.197288 1.305906 12.737337 0.157014 0.000077 -0.000022 0.000006 0.013856 -0.208930 -0.050321 0.790558 -3.899682 -10.580343 -0.764485 3.490694 -10.527473 -6.010672 -3.790249 20.535290 -71.419418 -4.904851 8.013485 0.021502 -34.326233 -0.051274 -3.475728 -3.428451 -8.404894 -5.882102 9.861279 0.702590 -10.936861 -0.360574 7.156197 0.000000 8.774815 -0.000000 -16.128172 18.536160 6.118959 -1.844031 2.498503 -2.507276 -10.163590 4.678941 4.621104 -20.975996 -0.000001 0.000001 -21.226254 2.451698 -3.593995 0.000000 -0.000006 -0.000000 -1.362681 2.240797 -0.746323 -21.334892 0.584910 3.008319 -13.821196 -0.000001 0.000001 -23.887129 -0.249075 -0.839485 -60.328098 2.753896 -1.356619 -0.294025 1.679686 0.833255 -14.218195 0.093215 1.300579 -34.212002 -0.287561 0.967166 -20.033176 0.964536 1.212838 0.000000 -0.000000 0.000000 -3.440387 0.788233 0.501655 -15.928172 -3.167306 2.999703 -6.338817 -0.000000 0.000001 -18.123419 3.648181 -4.905662 -0.000004 0.000000 -0.000002 5.155109 4.662097 20.398081 69.977882 6.734837 25.198114 -0.414160 34.469322 -0.164553 -14.843502 5.362524 -1.483513 2.243540 -5.255033 -3.180156 14.282877 -0.826594 6.952496 -0.000000 -12.690593 -0.000001 15.725394 -17.855265 3.008539 1.665665 -1.955920 -2.878297 4.727794 -4.170584 4.993919 11.020511 0.000001 -0.000000 12.109032 -3.735715 -2.866778 0.000000 -0.000000 0.000000 1.291985 -1.928548 -1.498088 14.800115 0.567467 3.865604 14.242553 -1.341738 -6.660648 19.631935 0.143921 -0.648243 50.007000 -0.703005 -6.196362 0.353029 -1.511150 -0.031940 20.222769 3.684305 2.316629 18.787249 0.000001 -0.000001 10.751608 -0.479870 1.397903 0.000000 -0.000000 0.000000 3.273804 0.305947 -0.580110 21.486790 11.830364 2.266131 8.162915 0.000000 -0.000000 18.399052 -3.798986 -4.940567 0.000003 0.000000 -0.000001 13.152477 4.686944 0.665623 -0.010642 -0.524210 6.621861 -15.042046 -4.885510 -1.210550 1.651755 -2.005278 -1.900289 0.000000 -0.000000 0.000002 -7.055382 -13.346126 2.066368 -0.007798 0.199624 12.111002 10.163881 -8.570907 -9.554090 -1.405840 1.044588 -1.490186 0.000000 -0.000000 -0.000001
0.000000 0.000000 0.000000 0.000000 -0.000000 0.000000 -0.661576 -1.320795 0.939117 -171.875613 86.069992 -175.063499 0.832333 -0.140511 -0.023087 -0.588604 -0.037587 -5.270202 -0.961094 -1.945877 13.026559 -8.142946 6.532004 5.538754 3.129985 11.139915 -3.142141 1.171248 13.639665 0.106448 0.000077 -0.000022 0.000006 0.012357 -0.203748 -0.045227 0.793815 -3.897947 -10.558193 -0.770808 3.500253 -10.510260 -5.995998 -3.782433 20.479496 -71.589081 -4.819733 8.165645 -0.011856 -34.388489 -0.045040 -3.584134 -3.532291 -8.338664 -5.882102 9.861279 0.702590 -10.936861 -0.360574 7.156197 0.000000 8.774815 -0.000000 -16.151690 18.531710 6.109314 -1.844031 2.498503 -2.507276 -10.163590 4.678941 4.621104 -20.975996 -0.000001 0.000001 -21.226254 2.451698 -3.593995 0.000000 -0.000006 -0.000000 -1.362681 2.240797 -0.746323 -21.334892 0.584910 3.008319 -13.821196 -0.000001 0.000001 -23.887129 -0.249075 -0.839485 -60.319012 2.756603 -1.323505 -0.294025 1.679686 0.833255 -14.218195 0.093215 1.300579 -34.212002 -0.287561 0.967166 -20.033176 0.964536 1.212838 0.000000 -0.000000 0.000000 -3.440387 0.788233 0.501655 -15.928172 -3.167306 2.999703 -6.338817 -0.000000 0.000001 -18.123419 3.648181 -4.905662 -0.000004 0.000000 -0.000002 5.049360 4.803602 20.428175 70.246063 6.725074 25.108170 -0.424061 34.371628 -0.194264 -14.930014 5.324298 -1.780177 2.243540 -5.255033 -3.180156 14.282877 -0.826594 6.952496 -0.000000 -12.690593 -0.000001 15.727114 -17.865276 3.013775 1.665665 -1.955920 -2.878297 4.727794 -4.170584 4.993919 11.020511 0.000001 -0.000000 12.109032 -3.735715 -2.866778 0.000000 -0.000000 0.000000 1.291985 -1.928548 -1.498088 14.800115 0.567467 3.865604 14.242553 -1.341738 -6.660648 19.631935 0.143921 -0.648243 50.010715 -0.691675 -6.175621 0.353029 -1.511150 -0.031940 20.222769 3.684305 2.316629 18.787249 0.000001 -0.000001 10.751608 -0.479870 1.397903 0.000000 -0.000000 0.000000 3.273804 0.305947 -0.580110 21.486790 11.830364 2.266131 8.162915 0.000000 -0.000000 18.399052 -3.798986 -4.940567 0.000003 0.000000 -0.000001 13.174421 4.676747 0.505377 -0.013880 -0.537141 6.605295 -15.056888 -4.897393 -1.097233 1.653298 -1.985149 -1.917621 0.000000 -0.000000 0.000002 -7.006644 -13.429849 1.983432 -0.008482 0.196743 12.106511 10.174411 -8.664221 -9.544715 -1.404915 1.047996 -1.485416 0.000000 -0.000000 -0.000001
0.000000 0.000000 0.000000 0.000000 -0.000000 0.000000 -0.661576 -1.302256 0.939117 -172.068851 86.070315 -175.172214 0.855840 -0.124398 0.008665 -0.580684 0.008727 -5.242685 -0.954994 -1.824472 12.911510 -8.912724 6.817000 4.881266 3.353465 11.926785 -3.077550 1.032715 14.835661 0.037061 0.000077 -0.000022 0.000006 0.011334 -0.191958 -0.041112 0.795983 -3.889886 -10.540515 -0.775199 3.517147 -10.500521 -5.972628 -3.729620 20.349735 -71.760963 -4.660900 8.473474 0.049316 -34.548969 -0.090040 -3.750135 -3.726721 -8.339253 -5.882102 9.861279 0.702590 -10.936861 -0.360574 7.156197 0.000000 8.774815 -0.000000 -16.158848 18.496790 6.092274 -1.844031 2.498503 -2.507276 -10.163590 4.678941 4.621104 -20.975996 -0.000001 0.000001 -21.226254 2.451698 -3.593995 0.000000 -0.000006 -0.000000 -1.362681 2.240797 -0.746323 -21.334892 0.584910 3.008319 -13.821196 -0.000001 0.000001 -23.887129 -0.249075 -0.839485 -60.283108 2.760986 -1.285586 -0.294025 1.679686 0.833255 -14.218195 0.093215 1.300579 -34.212002 -0.287561 0.967166 -20.033176 0.964536 1.212838 0.000000 -0.000000 0.000000 -3.440387 0.788233 0.501655 -15.928172 -3.167306 2.999703 -6.338817 -0.000000 0.000001 -18.123419 3.648181 -4.905662 -0.000004 0.000000 -0.000002 4.876653 5.026838 20.440256 70.566589 6.607736 24.948311 -0.449741 34.394409 -0.214785 -14.979527 5.304427 -2.201650 2.243540 -5.255033 -3.180156 14.282877 -0.826594 6.952496 -0.000000 -12.690593 -0.000001 15.704282 -17.857513 3.029509 1.665665 -1.955920 -2.878297 4.727794 -4.170584 4.993919 11.020511 0.000001 -0.000000 12.109032 -3.735715 -2.866778 0.000000 -0.000000 0.000000 1.291985 -1.928548 -1.498088 14.800115 0.567467 3.865604 14.242553 -1.341738 -6.660648 19.631935 0.143921 -0.648243 49.985027 -0.689226 -6.160165 0.353029 -1.511150 -0.031940 20.222769 3.684305 2.316629 18.787249 0.000001 -0.000001 10.751608 -0.479870 1.397903 0.000000 -0.000000 0.000000 3.273804 0.305947 -0.580110 21.486790 11.830364 2.266131 8.162915 0.000000 -0.000000 18.399052 -3.798986 -4.940567 0.000003 0.000000 -0.000001 13.141780 4.621845 0.397785 -0.016313 -0.563966 6.517287 -15.033653 -4.846872 -0.989057 1.655626 -1.975805 -1.935578 0.000000 -0.000000 0.000002 -6.998024 -13.485000 1.935165 -0.008105 0.195074 12.028526 10.219769 -8.737638 -9.502110 -1.403694 1.052145 -1.472899 0.000000 -0.000000 -0.000001
0.000000 0.000000 0.000000 0.000000 -0.000000 0.000000 -0.661576 -1.283762 0.939117 -172.375153 86.071309 -175.398804 0.896658 -0.099744 0.037013 -0.568726 0.088499 -5.214547 -0.937191 -1.677779 12.781477 -9.899207 7.156123 4.156696 3.677282 12.955294 -2.986772 0.920155 16.335117 -0.051464 0.000077 -0.000022 0.000006 0.009746 -0.171545 -0.038346 0.795100 -3.875525 -10.530758 -0.777785 3.544834 -10.499413 -5.998524 -3.618837 20.160183 -71.865669 -4.440331 8.813928 0.158393 -34.790001 -0.160195 -3.923593 -3.965178 -8.521936 -5.882102 9.861279 0.702590 -10.936861 -0.360574 7.156197 0.000000 8.774815 -0.000000 -16.156008 18.461597 6.085114 -1.844031 2.498503 -2.507276 -10.163590 4.678941 4.621104 -20.975996 -0.000001 0.000001 -21.226254 2.451698 -3.593995 0.000000 -0.000006 -0.000000 -1.362681 2.240797 -0.746323 -21.334892 0.584910 3.008319 -13.821196 -0.000001 0.000001 -23.887129 -0.249075 -0.839485 -60.237625 2.758044 -1.261675 -0.294025 1.679686 0.833255 -14.218195 0.093215 1.300579 -34.212002 -0.287561 0.967166 -20.033176 0.964536 1.212838 0.000000 -0.000000 0.000000 -3.440387 0.788233 0.501655 -15.928172 -3.167306 2.999703 -6.338817 -0.000000 0.000001 -18.123419 3.648181 -4.905662 -0.000004 0.000000 -0.000002 4.645882 5.318075 20.405121 70.917480 6.417418 24.727270 -0.437692 34.498531 -0.209838 -14.967803 5.346957 -2.621313 2.243540 -5.255033 -3.180156 14.282877 -0.826594 6.952496 -0.000000 -12.690593 -0.000001 15.675609 -17.842949 3.031752 1.665665 -1.955920 -2.878297 4.727794 -4.170584 4.993919 11.020511 0.000001 -0.000000 12.109032 -3.735715 -2.866778 0.000000 -0.000000 0.000000 1.291985 -1.928548 -1.498088 14.800115 0.567467 3.865604 14.242553 -1.341738 -6.660648 19.631935 0.143921 -0.648243 49.947891 -0.707523 -6.172414 0.353029 -1.511150 -0.031940 20.222769 3.684305 2.316629 18.787249 0.000001 -0.000001 10.751608 -0.479870 1.397903 0.000000 -0.000000 0.000000 3.273804 0.305947 -0.580110 21.486790 11.830364 2.266131 8.162915 0.000000 -0.000000 18.399052 -3.798986 -4.940567 0.000003 0.000000 -0.000001 13.075279 4.541924 0.339138 -0.015779 -0.594612 6.415497 -14.988108 -4.722148 -0.939623 1.657174 -1.993999 -1.945167 0.000000 -0.000000 0.000002 -7.015198 -13.508974 1.887767 -0.005255 0.196238 11.934328 10.266975 -8.761660 -9.441811 -1.403583 1.055067 -1.445979 0.000000 -0.000000 -0.000001
0.000000 0.000000 0.000000 0.000000 -0.000000 0.000000 -0.661576 -1.262957 0.939117 -172.572134 86.071832 -175.534547 0.959385 -0.074904 0.058282 -0.555340 0.208778 -5.188188 -0.913538 -1.529794 12.662879 -10.969138 7.513440 3.394380 4.035927 14.090178 -2.867948 0.863236 17.988741 -0.197995 0.000077 -0.000022 0.000006 0.008141 -0.152754 -0.038408 0.793710 -3.866572 -10.534503 -0.779878 3.573998 -10.509529 -6.097787 -3.428077 19.932262 -71.885330 -4.223867 8.976931 0.250778 -35.036644 -0.201512 -4.034975 -4.155295 -8.826852 -5.882102 9.861279 0.702590 -10.936861 -0.360574 7.156197 0.000000 8.774815 -0.000000 -16.163309 18.433029 6.076788 -1.844031 2.498503 -2.507276 -10.163590 4.678941 4.621104 -20.975996 -0.000001 0.000001 -21.226254 2.451698 -3.593995 0.000000 -0.000006 -0.000000 -1.362681 2.240797 -0.746323 -21.334892 0.584910 3.008319 -13.821196 -0.000001 0.000001 -23.887129 -0.249075 -0.839485 -60.201351 2.744460 -1.263013 -0.294025 1.679686 0.833255 -14.218195 0.093215 1.300579 -34.212002 -0.287561 0.967166 -20.033176 0.964536 1.212838 0.000000 -0.000000 0.000000 -3.440387 0.788233 0.501655 -15.928172 -3.167306 2.999703 -6.338817 -0.000000 0.000001 -18.123419 3.648181 -4.905662 -0.000004 0.000000 -0.000002 4.398776 5.654867 20.330721 71.246704 6.226698 24.582403 -0.382367 34.604103 -0.179447 -14.936639 5.398156 -2.931953 2.243540 -5.255033 -3.180156 14.282877 -0.826594 6.952496 -0.000000 -12.690593 -0.000001 15.634651 -17.832298 3.024986 1.665665 -1.955920 -2.878297 4.727794 -4.170584 4.993919 11.020511 0.000001 -0.000000 12.109032 -3.735715 -2.866778 0.000000 -0.000000 0.000000 1.291985 -1.928548 -1.498088 14.800115 0.567467 3.865604 14.242553 -1.341738 -6.660648 19.631935 0.143921 -0.648243 49.896637 -0.737466 -6.198091 0.353029 -1.511150 -0.031940 20.222769 3.684305 2.316629 18.787249 0.000001 -0.000001 10.751608 -0.479870 1.397903 0.000000 -0.000000 0.000000 3.273804 0.305947 -0.580110 21.486790 11.830364 2.266131 8.162915 0.000000 -0.000000 18.399052 -3.798986 -4.940567 0.000003 0.000000 -0.000001 13.000411 4.465961 0.330539 -0.011680 -0.610850 6.326184 -14.924253 -4.554221 -0.934672 1.657552 -2.020275 -1.929673 0.000000 -0.000000 0.000002 -7.036388 -13.494160 1.885093 -0.002990 0.194992 11.768588 10.271960 -8.748784 -9.337697 -1.405813 1.052052 -1.430923 0.000000 -0.000000 -0.000001
0.000000 0.000000 0.000000 0.000000 -0.000000 0.000000 -0.661576 -1.249697 0.939117 -172.541876 86.071464 -175.481386 1.035521 -0.051823 0.079828 -0.537795 0.362860 -5.165898 -0.890812 -1.386296 12.579973 -11.997396 7.830935 2.627896 4.363991 15.202948 -2.741866 0.882378 19.546871 -0.385856 0.000077 -0.000022 0.000006 0.006592 -0.141571 -0.044077 0.794815 -3.866643 -10.554618 -0.784253 3.595949 -10.533180 -6.248735 -3.215603 19.705143 -71.858490 -4.081744 8.853952 0.342751 -35.196712 -0.224573 -4.079696 -4.282380 -9.154006 -5.882102 9.861279 0.702590 -10.936861 -0.360574 7.156197 0.000000 8.774815 -0.000000 -16.186863 18.420994 6.079014 -1.844031 2.498503 -2.507276 -10.163590 4.678941 4.621104 -20.975996 -0.000001 0.000001 -21.226254 2.451698 -3.593995 0.000000 -0.000006 -0.000000 -1.362681 2.240797 -0.746323 -21.334892 0.584910 3.008319 -13.821196 -0.000001 0.000001 -23.887129 -0.249075 -0.839485 -60.197758 2.744073 -1.294190 -0.294025 1.679686 0.833255 -14.218195 0.093215 1.300579 -34.212002 -0.287561 0.967166 -20.033176 0.964536 1.212838 0.000000 -0.000000 0.000000 -3.440387 0.788233 0.501655 -15.928172 -3.167306 2.999703 -6.338817 -0.000000 0.000001 -18.123419 3.648181 -4.905662 -0.000004 0.000000 -0.000002 4.155982 5.991431 20.259548 71.532478 6.114496 24.515991 -0.268211 34.667034 -0.122427 -14.900160 5.388023 -3.056856 2.243540 -5.255033 -3.180156 14.282877 -0.826594 6.952496 -0.000000 -12.690593 -0.000001 15.582841 -17.828512 3.029205 1.665665 -1.955920 -2.878297 4.727794 -4.170584 4.993919 11.020511 0.000001 -0.000000 12.109032 -3.735715 -2.866778 0.000000 -0.000000 0.000000 1.291985 -1.928548 -1.498088 14.800115 0.567467 3.865604 14.242553 -1.341738 -6.660648 19.631935 0.143921 -0.648243 49.832600 -0.758458 -6.213484 0.353029 -1.511150 -0.031940 20.222769 3.684305 2.316629 18.787249 0.000001 -0.000001 10.751608 -0.479870 1.397903 0.000000 -0.000000 0.000000 3.273804 0.305947 -0.580110 21.486790 11.830364 2.266131 8.162915 0.000000 -0.000000 18.399052 -3.798986 -4.940567 0.000003 0.000000 -0.000001 12.932059 4.428512 0.294698 -0.007076 -0.613383 6.294173 -14.831228 -4.412758 -0.964574 1.656281 -2.041171 -1.872508 0.000000 -0.000000 0.000002 -7.056306 -13.444792 1.924023 -0.003061 0.192665 11.597487 10.260771 -8.736311 -9.234798 -1.409150 1.047119 -1.405762 0.000000 -0.000000 -0.000001
0.000000 0.000000 0.000000 0.000000 -0.000000 0.000000 -0.661576 -1.243677 0.939117 -172.444637 86.071043 -175.396672 1.112385 -0.033749 0.106998 -0.515597 0.533088 -5.150145 -0.868425 -1.243533 12.529296 -12.970280 8.104316 1.859201 4.660080 16.218443 -2.621958 0.984089 20.927008 -0.603101 0.000077 -0.000022 0.000006 0.006318 -0.144191 -0.054988 0.798708 -3.877781 -10.583404 -0.788801 3.601109 -10.560918 -6.466598 -3.005412 19.509209 -71.780952 -4.022391 8.470933 0.414001 -35.300808 -0.241166 -4.069107 -4.314556 -9.590765 -5.882102 9.861279 0.702590 -10.936861 -0.360574 7.156197 0.000000 8.774815 -0.000000 -16.209812 18.405899 6.088520 -1.844031 2.498503 -2.507276 -10.163590 4.678941 4.621104 -20.975996 -0.000001 0.000001 -21.226254 2.451698 -3.593995 0.000000 -0.000006 -0.000000 -1.362681 2.240797 -0.746323 -21.334892 0.584910 3.008319 -13.821196 -0.000001 0.000001 -23.887129 -0.249075 -0.839485 -60.221390 2.743034 -1.339509 -0.294025 1.679686 0.833255 -14.218195 0.093215 1.300579 -34.212002 -0.287561 0.967166 -20.033176 0.964536 1.212838 0.000000 -0.000000 0.000000 -3.440387 0.788233 0.501655 -15.928172 -3.167306 2.999703 -6.338817 -0.000000 0.000001 -18.123419 3.648181 -4.905662 -0.000004 0.000000 -0.000002 3.930198 6.310812 20.203205 71.772469 6.119012 24.564255 -0.157062 34.635242 -0.073945 -14.883826 5.289689 -3.055166 2.243540 -5.255033 -3.180156 14.282877 -0.826594 6.952496 -0.000000 -12.690593 -0.000001 15.542521 -17.848877 3.037815 1.665665 -1.955920 -2.878297 4.727794 -4.170584 4.993919 11.020511 0.000001 -0.000000 12.109032 -3.735715 -2.866778 0.000000 -0.000000 0.000000 1.291985 -1.928548 -1.498088 14.800115 0.567467 3.865604 14.242553 -1.341738 -6.660648 19.631935 0.143921 -0.648243 49.786182 -0.772718 -6.221509 0.353029 -1.511150 -0.031940 20.222769 3.684305 2.316629 18.787249 0.000001 -0.000001 10.751608 -0.479870 1.397903 0.000000 -0.000000 0.000000 3.273804 0.305947 -0.580110 21.486790 11.830364 2.266131 8.162915 0.000000 -0.000000 18.399052 -3.798986 -4.940567 0.000003 0.000000 -0.000001 12.879190 4.417808 0.333853 -0.000799 -0.607498 6.338668 -14.729479 -4.346239 -1.074676 1.652817 -2.052141 -1.800707 0.000000 -0.000000 0.000002 -7.084560 -13.332960 1.988504 -0.002439 0.193571 11.455529 10.245246 -8.787490 -9.149996 -1.412835 1.042967 -1.363918 0.000000 -0.000000 -0.000001
0.000000 0.000000 0.000000 0.000000 -0.000000 0.000000 -0.661576 -1.246706 0.939117 -172.460675 86.071702 -175.475838 1.174331 -0.013315 0.163107 -0.498503 0.684779 -5.127181 -0.848225 -1.104008 12.508841 -13.822524 8.304395 1.111279 4.921673 17.089537 -2.519341 1.140599 22.124269 -0.871930 0.000077 -0.000022 0.000006 0.006211 -0.159426 -0.069126 0.802466 -3.899706 -10.619506 -0.792718 3.591538 -10.592568 -6.693501 -2.801896 19.362219 -71.697044 -4.067204 7.849992 0.375355 -35.384319 -0.228632 -3.978749 -4.275559 -9.995884 -5.882102 9.861279 0.702590 -10.936861 -0.360574 7.156197 0.000000 8.774815 -0.000000 -16.241922 18.387081 6.101255 -1.844031 2.498503 -2.507276 -10.163590 4.678941 4.621104 -20.975996 -0.000001 0.000001 -21.226254 2.451698 -3.593995 0.000000 -0.000006 -0.000000 -1.362681 2.240797 -0.746323 -21.334892 0.584910 3.008319 -13.821196 -0.000001 0.000001 -23.887129 -0.249075 -0.839485 -60.283470 2.748252 -1.380760 -0.294025 1.679686 0.833255 -14.218195 0.093215 1.300579 -34.212002 -0.287561 0.967166 -20.033176 0.964536 1.212838 0.000000 -0.000000 0.000000 -3.440387 0.788233 0.501655 -15.928172 -3.167306 2.999703 -6.338817 -0.000000 0.000001 -18.123419 3.648181 -4.905662 -0.000004 0.000000 -0.000002 3.711489 6.603819 20.190638 71.995102 6.263904 24.703581 -0.081314 34.504902 -0.050812 -14.901157 5.126403 -2.990607 2.243540 -5.255033 -3.180156 14.282877 -0.826594 6.952496 -0.000000 -12.690593 -0.000001 15.529797 -17.871174 3.051691 1.665665 -1.955920 -2.878297 4.727794 -4.170584 4.993919 11.020511 0.000001 -0.000000 12.109032 -3.735715 -2.866778 0.000000 -0.000000 0.000000 1.291985 -1.928548 -1.498088 14.800115 0.567467 3.865604 14.242553 -1.341738 -6.660648 19.631935 0.143921 -0.648243 49.780560 -0.779254 -6.219005 0.353029 -1.511150 -0.031940 20.222769 3.684305 2.316629 18.787249 0.000001 -0.000001 10.751608 -0.479870 1.397903 0.000000 -0.000000 0.000000 3.273804 0.305947 -0.580110 21.486790 11.830364 2.266131 8.162915 0.000000 -0.000000 18.399052 -3.798986 -4.940567 0.000003 0.000000 -0.000001 12.821010 4.430658 0.367199 0.006351 -0.596166 6.475243 -14.633614 -4.362715 -1.211871 1.648894 -2.059461 -1.725575 0.000000 -0.000000 0.000002 -7.142332 -13.206272 2.083789 0.001021 0.194399 11.378693 10.245824 -8.882252 -9.102149 -1.414474 1.033321 -1.330256 0.000000 -0.000000 -0.000001
0.000000 0.000000 0.000000 0.000000 -0.000000 0.000000 -0.661576 -1.256121 0.939117 -172.996601 86.075141 -176.094940 1.194700 0.012226 0.234665 -0.488643 0.794885 -5.097490 -0.846258 -0.971814 12.508578 -14.456018 8.412668 0.462660 5.127971 17.745201 -2.430702 1.284205 23.075155 -1.157628 0.000077 -0.000022 0.000006 0.006948 -0.185282 -0.078913 0.803426 -3.929685 -10.646649 -0.792081 3.569222 -10.612445 -6.843108 -2.646091 19.249752 -71.670311 -4.183949 7.186705 0.241185 -35.465824 -0.162338 -3.879205 -4.241821 -10.178558 -5.882102 9.861279 0.702590 -10.936861 -0.360574 7.156197 0.000000 8.774815 -0.000000 -16.271793 18.357956 6.116233 -1.844031 2.498503 -2.507276 -10.163590 4.678941 4.621104 -20.975996 -0.000001 0.000001 -21.226254 2.451698 -3.593995 0.000000 -0.000006 -0.000000 -1.362681 2.240797 -0.746323 -21.334892 0.584910 3.008319 -13.821196 -0.000001 0.000001 -23.887129 -0.249075 -0.839485 -60.358860 2.752430 -1.393641 -0.294025 1.679686 0.833255 -14.218195 0.093215 1.300579 -34.212002 -0.287561 0.967166 -20.033176 0.964536 1.212838 0.000000 -0.000000 0.000000 -3.440387 0.788233 0.501655 -15.928172 -3.167306 2.999703 -6.338817 -0.000000 0.000001 -18.123419 3.648181 -4.905662 -0.000004 0.000000 -0.000002 3.513873 6.850728 20.230585 72.191040 6.496594 24.833719 -0.035130 34.346107 -0.038632 -14.913062 4.958540 -3.008941 2.243540 -5.255033 -3.180156 14.282877 -0.826594 6.952496 -0.000000 -12.690593 -0.000001 15.533912 -17.871840 3.071847 1.665665 -1.955920 -2.878297 4.727794 -4.170584 4.993919 11.020511 0.000001 -0.000000 12.109032 -3.735715 -2.866778 0.000000 -0.000000 0.000000 1.291985 -1.928548 -1.498088 14.800115 0.567467 3.865604 14.242553 -1.341738 -6.660648 19.631935 0.143921 -0.648243 49.797039 -0.784440 -6.185391 0.353029 -1.511150 -0.031940 20.222769 3.684305 2.316629 18.787249 0.000001 -0.000001 10.751608 -0.479870 1.397903 0.000000 -0.000000 0.000000 3.273804 0.305947 -0.580110 21.486790 11.830364 2.266131 8.162915 0.000000 -0.000000 18.399052 -3.798986 -4.940567 0.000003 0.000000 -0.000001 12.716658 4.444667 0.404635 0.009889 -0.584619 6.593314 -14.530598 -4.432724 -1.337583 1.645156 -2.053670 -1.647877 0.000000 -0.000000 0.000002 -7.254208 -13.112861 2.160099 0.005670 0.183037 11.405227 10.272751 -8.993774 -9.108229 -1.411807 1.028869 -1.302902 0.000000 -0.000000 -0.000001
0.000000 0.000000 0.000000 0.000000 0.000000 0.000000 -0.661576 -1.262211 0.939117 -174.061348 86.079967 -177.232110 1.167191 0.067172 0.343375 -0.475042 0.884161 -5.059533 -0.905607 -0.811449 12.508655 -14.735104 8.453718 0.047380 5.304734 18.291120 -2.357691 1.471799 23.883124 -1.614983 0.000077 -0.000022 0.000006 0.004913 -0.198648 -0.083199 0.795539 -3.946714 -10.654168 -0.787854 3.558621 -10.606810 -6.874045 -2.543869 19.289444 -71.616221 -4.626804 6.630634 0.110332 -35.647893 -0.101280 -4.037142 -4.267278 -10.444914 -5.882102 9.861279 0.702590 -10.936861 -0.360574 7.156197 0.000000 8.774815 0.000000 -16.327810 18.252831 6.107587 -1.844031 2.498503 -2.507276 -10.163590 4.678941 4.621104 -20.975996 -0.000001 0.000001 -21.226254 2.451698 -3.593995 0.000000 -0.000006 0.000000 -1.362681 2.240797 -0.746323 -21.334892 0.584910 3.008319 -13.821196 -0.000001 0.000001 -23.887129 -0.249075 -0.839485 -60.320657 2.736295 -1.334468 -0.294025 1.679686 0.833255 -14.218195 0.093215 1.300579 -34.212002 -0.287561 0.967166 -20.033176 0.964536 1.212838 0.000000 0.000000 0.000000 -3.440387 0.788233 0.501655 -15.928172 -3.167306 2.999703 -6.338817 0.000000 0.000001 -18.123419 3.648181 -4.905662 -0.000004 0.000000 -0.000002 3.306406 7.186041 20.397292 72.456085 6.800623 24.862354 -0.057063 34.401198 -0.032492 -14.761704 4.624672 -2.949013 2.243540 -5.255033 -3.180156 14.282877 -0.826594 6.952496 0.000000 -12.690593 -0.000001 15.587482 -17.861872 3.053527 1.665665 -1.955920 -2.878297 4.727794 -4.170584 4.993919 11.020511 0.000001 -0.000000 12.109032 -3.735715 -2.866778 0.000000 0.000000 0.000000 1.291985 -1.928548 -1.498088 14.800115 0.567467 3.865604 14.242553 -1.341738 -6.660648 19.631935 0.143921 -0.648243 49.844490 -0.787422 -6.161671 0.353029 -1.511150 -0.031940 20.222769 3.684305 2.316629 18.787249 0.000001 -0.000001 10.751608 -0.479870 1.397903 0.000000 0.000000 0.000000 3.273804 0.305947 -0.580110 21.486790 11.830364 2.266131 8.162915 0.000000 0.000000 18.399052 -3.798986 -4.940567 0.000003 0.000000 -0.000001 12.523277 4.516921 0.203958 0.010010 -0.592083 6.955011 -14.407900 -4.833294 -1.438962 1.642167 -2.031014 -1.645258 0.000000 0.000000 0.000002 -7.459754 -13.132046 2.380400 0.011292 0.169121 11.243170 10.313644 -9.365353 -9.084282 -1.410102 1.016215 -1.196267 0.000000 0.000000 -0.000001
0.000000 0.000000 0.000000 0.000000 0.000000 0.000000 -0.661576 -1.247006 0.939117 -174.465792 86.081369 -177.660264 1.118145 0.068732 0.415783 -0.468195 0.934700 -5.048952 -0.974228 -0.685274 12.576056 -14.442794 8.304549 0.074614 5.252133 18.496163 -2.350001 1.680782 23.937340 -1.918214 0.000077 -0.000022 0.000006 0.003294 -0.194349 -0.077419 0.793228 -3.943036 -10.657679 -0.788682 3.564271 -10.605233 -6.816004 -2.551549 19.322880 -71.533634 -5.150405 6.421170 0.092952 -35.793453 -0.111633 -4.327701 -4.265193 -10.840388 -5.882102 9.861279 0.702590 -10.936861 -0.360574 7.156197 0.000000 8.774815 0.000000 -16.261394 18.218165 6.140815 -1.844031 2.498503 -2.507276 -10.163590 4.678941 4.621104 -20.975996 -0.000001 0.000001 -21.226254 2.451698 -3.593995 0.000000 -0.000006 0.000000 -1.362681 2.240797 -0.746323 -21.334892 0.584910 3.008319 -13.821196 -0.000001 0.000001 -23.887129 -0.249075 -0.839485 -60.353225 2.744766 -1.298441 -0.294025 1.679686 0.833255 -14.218195 0.093215 1.300579 -34.212002 -0.287561 0.967166 -20.033176 0.964536 1.212838 0.000000 0.000000 0.000000 -3.440387 0.788233 0.501655 -15.928172 -3.167306 2.999703 -6.338817 0.000000 0.000001 -18.123419 3.648181 -4.905662 -0.000004 0.000000 -0.000002 3.194461 7.282556 20.445693 72.644445 7.008126 24.851884 -0.032125 34.507605 -0.036592 -14.596429 4.398897 -2.769578 2.243540 -5.255033 -3.180156 14.282877 -0.826594 6.952496 0.000000 -12.690593 -0.000001 15.607540 -17.778175 3.077389 1.665665 -1.955920 -2.878297 4.727794 -4.170584 4.993919 11.020511 0.000001 -0.000000 12.109032 -3.735715 -2.866778 0.000000 0.000000 0.000000 1.291985 -1.928548 -1.498088 14.800115 0.567467 3.865604 14.242553 -1.341738 -6.660648 19.631935 0.143921 -0.648243 49.863101 -0.806114 -6.119359 0.353029 -1.511150 -0.031940 20.222769 3.684305 2.316629 18.787249 0.000001 -0.000001 10.751608 -0.479870 1.397903 0.000000 0.000000 0.000000 3.273804 0.305947 -0.580110 21.486790 11.830364 2.266131 8.162915 0.000000 0.000000 18.399052 -3.798986 -4.940567 0.000003 0.000000 -0.000001 12.381514 4.521562 -0.198877 0.001790 -0.610746 7.416107 -14.345776 -5.498273 -1.410646 1.648839 -2.013539 -1.680057 0.000000 0.000000 0.000002 -7.616872 -13.358208 2.780626 0.009922 0.153036 10.727033 10.401394 -9.789483 -8.935256 -1.407301 1.031155 -1.129198 0.000000 0.000000 -0.000001
0.000000 0.000000 0.000000 0.000000 0.000000 0.000000 -0.661576 -1.233862 0.939117 -174.885124 86.082609 -178.107101 1.061867 0.075899 0.470288 -0.483572 0.967343 -5.048922 -1.055780 -0.595956 12.691078 -13.781331 8.087653 0.512226 5.154578 18.315502 -2.388402 1.922799 23.501089 -2.152992 0.000077 -0.000022 0.000006 -0.001981 -0.172411 -0.072251 0.783492 -3.919720 -10.639290 -0.789436 3.584937 -10.579455 -6.780343 -2.500242 19.397963 -71.382358 -5.624783 6.286089 0.124866 -36.029023 -0.126042 -4.601842 -4.270126 -11.313901 -5.882102 9.861279 0.702590 -10.936861 -0.360574 7.156197 0.000000 8.774815 0.000000 -16.227455 18.133387 6.149743 -1.844031 2.498503 -2.507276 -10.163590 4.678941 4.621104 -20.975996 -0.000001 0.000001 -21.226254 2.451698 -3.593995 0.000000 -0.000006 0.000000 -1.362681 2.240797 -0.746323 -21.334892 0.584910 3.008319 -13.821196 -0.000001 0.000001 -23.887129 -0.249075 -0.839485 -60.302687 2.727139 -1.262334 -0.294025 1.679686 0.833255 -14.218195 0.093215 1.300579 -34.212002 -0.287561 0.967166 -20.033176 0.964536 1.212838 0.000000 0.000000 0.000000 -3.440387 0.788233 0.501655 -15.928172 -3.167306 2.999703 -6.338817 0.000000 0.000001 -18.123419 3.648181 -4.905662 -0.000004 0.000000 -0.000002 3.186758 7.385207 20.553808 72.767231 7.198004 24.689297 0.000339 34.641986 -0.033046 -14.390636 4.263280 -2.651423 2.243540 -5.255033 -3.180156 14.282877 -0.826594 6.952496 0.000000 -12.690593 -0.000001 15.614827 -17.752715 3.069728 1.665665 -1.955920 -2.878297 4.727794 -4.170584 4.993919 11.020511 0.000001 -0.000000 12.109032 -3.735715 -2.866778 0.000000 0.000000 0.000000 1.291985 -1.928548 -1.498088 14.800115 0.567467 3.865604 14.242553 -1.341738 -6.660648 19.631935 0.143921 -0.648243 49.862646 -0.820568 -6.135459 0.353029 -1.511150 -0.031940 20.222769 3.684305 2.316629 18.787249 0.000001 -0.000001 10.751608 -0.479870 1.397903 0.000000 0.000000 0.000000 3.273804 0.305947 -0.580110 21.486790 11.830364 2.266131 8.162915 0.000000 0.000000 18.399052 -3.798986 -4.940567 0.000003 0.000000 -0.000001 12.244577 4.565465 -0.548318 -0.003339 -0.622048 7.843445 -14.319672 -6.101629 -1.386744 1.650611 -2.002041 -1.746246 0.000000 0.000000 0.000002 -7.783869 -13.566859 3.191149 0.008496 0.146406 10.202164 10.448336 -10.172412 -8.771421 -1.408491 1.037106 -1.097533 0.000000 0.000000 -0.000001
0.000000 0.000000 0.000000 0.000000 0.000000 0.000000 -0.661576 -1.227167 0.939117 -175.033325 86.083328 -178.322151 1.004168 0.072908 0.514503 -0.511431 1.006123 -5.064979 -1.138361 -0.514077 12.879175 -12.807494 7.778908 1.299776 4.956064 17.761241 -2.484411 2.204370 22.467302 -2.325591 0.000077 -0.000022 0.000006 -0.008645 -0.142012 -0.066376 0.769935 -3.887560 -10.615976 -0.789238 3.613547 -10.549014 -6.810606 -2.406303 19.528243 -71.176508 -6.091659 6.006579 0.112662 -36.285083 -0.121501 -4.814446 -4.235862 -11.857095 -5.882102 9.861279 0.702590 -10.936861 -0.360574 7.156197 0.000000 8.774815 0.000000 -16.185637 18.053236 6.166887 -1.844031 2.498503 -2.507276 -10.163590 4.678941 4.621104 -20.975996 -0.000001 0.000001 -21.226254 2.451698 -3.593995 0.000000 -0.000006 0.000000 -1.362681 2.240797 -0.746323 -21.334892 0.584910 3.008319 -13.821196 -0.000001 0.000001 -23.887129 -0.249075 -0.839485 -60.226447 2.703470 -1.235054 -0.294025 1.679686 0.833255 -14.218195 0.093215 1.300579 -34.212002 -0.287561 0.967166 -20.033176 0.964536 1.212838 0.000000 0.000000 0.000000 -3.440387 0.788233 0.501655 -15.928172 -3.167306 2.999703 -6.338817 0.000000 0.000001 -18.123419 3.648181 -4.905662 -0.000004 0.000000 -0.000002 3.242248 7.446120 20.716899 72.839207 7.479003 24.523852 0.046209 34.695505 -0.022083 -14.146226 4.165855 -2.501484 2.243540 -5.255033 -3.180156 14.282877 -0.826594 6.952496 0.000000 -12.690593 -0.000001 15.610577 -17.726496 3.068077 1.665665 -1.955920 -2.878297 4.727794 -4.170584 4.993919 11.020511 0.000001 -0.000000 12.109032 -3.735715 -2.866778 0.000000 0.000000 0.000000 1.291985 -1.928548 -1.498088 14.800115 0.567467 3.865604 14.242553 -1.341738 -6.660648 19.631935 0.143921 -0.648243 49.854931 -0.825344 -6.152036 0.353029 -1.511150 -0.031940 20.222769 3.684305 2.316629 18.787249 0.000001 -0.000001 10.751608 -0.479870 1.397903 0.000000 0.000000 0.000000 3.273804 0.305947 -0.580110 21.486790 11.830364 2.266131 8.162915 0.000000 0.000000 18.399052 -3.798986 -4.940567 0.000003 0.000000 -0.000001 12.138902 4.683406 -0.780563 -0.009332 -0.629239 8.248388 -14.302944 -6.639885 -1.421036 1.650816 -2.001480 -1.789106 0.000000 0.000000 0.000002 -7.951930 -13.736405 3.629596 0.004507 0.138636 9.670317 10.499238 -10.415079 -8.584721 -1.412372 1.036166 -1.077619 0.000000 0.000000 -0.000001
0.000000 0.000000 0.000000 0.000000 0.000000 0.000000 -0.661576 -1.225304 0.939117 -175.104383 86.084133 -178.506924 0.936282 0.066448 0.537517 -0.548078 1.042373 -5.094096 -1.243342 -0.442708 13.132333 -11.538110 7.385301 2.364338 4.657800 16.800321 -2.626689 2.528693 20.791996 -2.437315 0.000077 -0.000022 0.000006 -0.015280 -0.112327 -0.060516 0.755474 -3.854302 -10.590465 -0.788160 3.639462 -10.514195 -6.892260 -2.262054 19.724097 -70.938642 -6.539196 5.524268 0.032165 -36.514331 -0.088595 -4.994948 -4.120317 -12.302453 -5.882102 9.861279 0.702590 -10.936861 -0.360574 7.156197 0.000000 8.774815 0.000000 -16.141154 17.990857 6.185319 -1.844031 2.498503 -2.507276 -10.163590 4.678941 4.621104 -20.975996 -0.000001 0.000001 -21.226254 2.451698 -3.593995 0.000000 -0.000006 0.000000 -1.362681 2.240797 -0.746323 -21.334892 0.584910 3.008319 -13.821196 -0.000001 0.000001 -23.887129 -0.249075 -0.839485 -60.144772 2.688808 -1.228869 -0.294025 1.679686 0.833255 -14.218195 0.093215 1.300579 -34.212002 -0.287561 0.967166 -20.033176 0.964536 1.212838 0.000000 0.000000 0.000000 -3.440387 0.788233 0.501655 -15.928172 -3.167306 2.999703 -6.338817 0.000000 0.000001 -18.123419 3.648181 -4.905662 -0.000004 0.000000 -0.000002 3.325423 7.469966 20.900781 72.901521 7.859218 24.492628 0.062314 34.605033 -0.024585 -13.824105 4.049952 -2.248589 2.243540 -5.255033 -3.180156 14.282877 -0.826594 6.952496 0.000000 -12.690593 -0.000001 15.598680 -17.697554 3.076861 1.665665 -1.955920 -2.878297 4.727794 -4.170584 4.993919 11.020511 0.000001 -0.000000 12.109032 -3.735715 -2.866778 0.000000 0.000000 0.000000 1.291985 -1.928548 -1.498088 14.800115 0.567467 3.865604 14.242553 -1.341738 -6.660648 19.631935 0.143921 -0.648243 49.855336 -0.815374 -6.161574 0.353029 -1.511150 -0.031940 20.222769 3.684305 2.316629 18.787249 0.000001 -0.000001 10.751608 -0.479870 1.397903 0.000000 0.000000 0.000000 3.273804 0.305947 -0.580110 21.486790 11.830364 2.266131 8.162915 0.000000 0.000000 18.399052 -3.798986 -4.940567 0.000003 0.000000 -0.000001 12.050879 4.874558 -0.870620 -0.013319 -0.624380 8.650999 -14.253363 -7.051939 -1.527616 1.650510 -2.004763 -1.824527 0.000000 0.000000 0.000002 -8.189523 -13.819923 4.141721 -0.000394 0.128019 9.141101 10.619685 -10.466426 -8.339738 -1.417559 1.029862 -1.064698 0.000000 0.000000 -0.000001
