HIERARCHY
ROOT Root
{
  OFFSET 0.000000 0.000000 0.000000
  CHANNELS 6 Xposition Yposition Zposition Zrotation Yrotation Xrotation
  JOINT Hips
  {
    OFFSET 0.000000 100.000000 0.000000
    CHANNELS 6 Xposition Yposition Zposition Zrotation Yrotation Xrotation
    JOINT Spine1
    {
      OFFSET -0.013727 5.003763 -0.053727
      CHANNELS 3 Zrotation Yrotation Xrotation
      JOINT Spine2
      {
        OFFSET -0.000000 7.125301 -0.029825
        CHANNELS 3 Zrotation Yrotation Xrotation
        JOINT Chest
        {
          OFFSET -0.000001 7.550063 -0.815971
          CHANNELS 3 Zrotation Yrotation Xrotation
          JOINT Neck1
          {
            OFFSET -0.181677 26.311295 -0.553348
            CHANNELS 3 Zrotation Yrotation Xrotation
            JOINT Neck2
            {
              OFFSET -0.000003 7.709397 2.302585
              CHANNELS 3 Zrotation Yrotation Xrotation
              JOINT Head
              {
                OFFSET -0.000005 6.128916 1.953709
                CHANNELS 3 Zrotation Yrotation Xrotation
                JOINT HeadEnd
                {
                  OFFSET 0.003598 16.065403 -1.835379
                  CHANNELS 3 Zrotation Yrotation Xrotation
                }
                JOINT Jaw
                {
                  OFFSET 0.002637 0.475592 3.094941
                  CHANNELS 3 Zrotation Yrotation Xrotation
                }
                JOINT LeftEye
                {
                  OFFSET 3.206381 5.380205 7.586883
                  CHANNELS 3 Zrotation Yrotation Xrotation
                }
                JOINT RightEye
                {
                  OFFSET -3.222440 5.361869 7.558234
                  CHANNELS 3 Zrotation Yrotation Xrotation
                }
              }
            }
          }
          JOINT LeftShoulder
          {
            OFFSET 1.621652 23.237164 5.113413
            CHANNELS 3 Zrotation Yrotation Xrotation
            JOINT LeftArm
            {
              OFFSET 14.919846 0.000002 -5.502326
              CHANNELS 3 Zrotation Yrotation Xrotation
              JOINT LeftForeArm
              {
                OFFSET 28.739307 0.000000 -0.002588
                CHANNELS 3 Zrotation Yrotation Xrotation
                JOINT LeftHand
                {
                  OFFSET 27.093981 -0.000001 0.002609
                  CHANNELS 3 Zrotation Yrotation Xrotation
                  JOINT LeftHandThumb1
                  {
                    OFFSET 2.276482 -1.392045 3.191413
                    CHANNELS 3 Zrotation Yrotation Xrotation
                    JOINT LeftHandThumb2
                    {
                      OFFSET 4.012836 -1.828127 1.641654
                      CHANNELS 3 Zrotation Yrotation Xrotation
                      JOINT LeftHandThumb3
                      {
                        OFFSET 2.798515 0.000000 -0.000003
                        CHANNELS 3 Zrotation Yrotation Xrotation
                        JOINT LeftHandThumbEnd
                        {
                          OFFSET 3.180793 -0.000004 0.000004
                          CHANNELS 3 Zrotation Yrotation Xrotation
                        }
                      }
                    }
                  }
                  JOINT LeftHandIndex1
                  {
                    OFFSET 3.247555 -0.531998 2.296169
                    CHANNELS 3 Zrotation Yrotation Xrotation
                    JOINT LeftHandIndex2
                    {
                      OFFSET 6.364578 0.012060 0.178600
                      CHANNELS 3 Zrotation Yrotation Xrotation
                      JOINT LeftHandIndex3
                      {
                        OFFSET 3.662364 0.000000 0.000000
                        CHANNELS 3 Zrotation Yrotation Xrotation
                        JOINT LeftHandIndex4
                        {
                          OFFSET 2.329242 0.000004 0.000004
                          CHANNELS 3 Zrotation Yrotation Xrotation
                          JOINT LeftHandIndexEnd
                          {
                            OFFSET 2.759615 -0.180537 -0.113024
                            CHANNELS 3 Zrotation Yrotation Xrotation
                          }
                        }
                      }
                    }
                  }
                  JOINT LeftHandMiddle1
                  {
                    OFFSET 3.163495 0.240981 1.000332
                    CHANNELS 3 Zrotation Yrotation Xrotation
                    JOINT LeftHandMiddle2
                    {
                      OFFSET 6.190780 -0.259278 -1.002548
                      CHANNELS 3 Zrotation Yrotation Xrotation
                      JOINT LeftHandMiddle3
                      {
                        OFFSET 4.356520 -0.000004 -0.000001
                        CHANNELS 3 Zrotation Yrotation Xrotation
                        JOINT LeftHandMiddle4
                        {
                          OFFSET 2.996877 -0.000008 0.000000
                          CHANNELS 3 Zrotation Yrotation Xrotation
                          JOINT LeftHandMiddleEnd
                          {
                            OFFSET 2.304287 -0.294569 -0.031741
                            CHANNELS 3 Zrotation Yrotation Xrotation
                          }
                        }
                      }
                    }
                  }
                  JOINT LeftHandRing1
                  {
                    OFFSET 2.882643 -0.053652 -0.322543
                    CHANNELS 3 Zrotation Yrotation Xrotation
                    JOINT LeftHandRing2
                    {
                      OFFSET 5.854541 -0.486202 -1.373841
                      CHANNELS 3 Zrotation Yrotation Xrotation
                      JOINT LeftHandRing3
                      {
                        OFFSET 4.350578 0.000000 0.000003
                        CHANNELS 3 Zrotation Yrotation Xrotation
                        JOINT LeftHandRing4
                        {
                          OFFSET 2.651321 0.000007 0.000002
                          CHANNELS 3 Zrotation Yrotation Xrotation
                          JOINT LeftHandRingEnd
                          {
                            OFFSET 1.936105 0.077687 -0.000071
                            CHANNELS 3 Zrotation Yrotation Xrotation
                          }
                        }
                      }
                    }
                  }
                  JOINT LeftHandPinky1
                  {
                    OFFSET 2.865500 -0.310005 -1.600378
                    CHANNELS 3 Zrotation Yrotation Xrotation
                    JOINT LeftHandPinky2
                    {
                      OFFSET 5.087849 -1.331141 -1.771230
                      CHANNELS 3 Zrotation Yrotation Xrotation
                      JOINT LeftHandPinky3
                      {
                        OFFSET 3.070974 0.000004 0.000000
                        CHANNELS 3 Zrotation Yrotation Xrotation
                        JOINT LeftHandPinky4
                        {
                          OFFSET 1.549672 0.000000 0.000001
                          CHANNELS 3 Zrotation Yrotation Xrotation
                          JOINT LeftHandPinkyEnd
                          {
                            OFFSET 1.944893 -0.157802 0.057219
                            CHANNELS 3 Zrotation Yrotation Xrotation
                          }
                        }
                      }
                    }
                  }
                }
              }
            }
          }
          JOINT RightShoulder
          {
            OFFSET -1.380118 23.180309 5.214158
            CHANNELS 3 Zrotation Yrotation Xrotation
            JOINT RightArm
            {
              OFFSET -15.037196 0.000012 -5.545604
              CHANNELS 3 Zrotation Yrotation Xrotation
              JOINT RightForeArm
              {
                OFFSET -28.736639 0.000002 -0.002597
                CHANNELS 3 Zrotation Yrotation Xrotation
                JOINT RightHand
                {
                  OFFSET -27.133619 -0.000000 0.002613
                  CHANNELS 3 Zrotation Yrotation Xrotation
                  JOINT RightHandThumb1
                  {
                    OFFSET -2.274032 -1.383988 3.163127
                    CHANNELS 3 Zrotation Yrotation Xrotation
                    JOINT RightHandThumb2
                    {
                      OFFSET -4.011429 -1.827466 1.640914
                      CHANNELS 3 Zrotation Yrotation Xrotation
                      JOINT RightHandThumb3
                      {
                        OFFSET -2.794935 -0.000004 -0.000003
                        CHANNELS 3 Zrotation Yrotation Xrotation
                        JOINT RightHandThumbEnd
                        {
                          OFFSET -3.183852 0.000004 0.000001
                          CHANNELS 3 Zrotation Yrotation Xrotation
                        }
                      }
                    }
                  }
                  JOINT RightHandIndex1
                  {
                    OFFSET -3.253266 -0.520057 2.282866
                    CHANNELS 3 Zrotation Yrotation Xrotation
                    JOINT RightHandIndex2
                    {
                      OFFSET -6.341917 0.012471 0.178266
                      CHANNELS 3 Zrotation Yrotation Xrotation
                      JOINT RightHandIndex3
                      {
                        OFFSET -3.654871 -0.000008 -0.000000
                        CHANNELS 3 Zrotation Yrotation Xrotation
                        JOINT RightHandIndex4
                        {
                          OFFSET -2.327586 0.000000 0.000001
                          CHANNELS 3 Zrotation Yrotation Xrotation
                          JOINT RightHandIndexEnd
                          {
                            OFFSET -2.761790 -0.180656 -0.113078
                            CHANNELS 3 Zrotation Yrotation Xrotation
                          }
                        }
                      }
                    }
                  }
                  JOINT RightHandMiddle1
                  {
                    OFFSET -3.168106 0.246593 1.001030
                    CHANNELS 3 Zrotation Yrotation Xrotation
                    JOINT RightHandMiddle2
                    {
                      OFFSET -6.180828 -0.258836 -1.000895
                      CHANNELS 3 Zrotation Yrotation Xrotation
                      JOINT RightHandMiddle3
                      {
                        OFFSET -4.348901 0.000000 -0.000000
                        CHANNELS 3 Zrotation Yrotation Xrotation
                        JOINT RightHandMiddle4
                        {
                          OFFSET -3.000240 -0.000004 -0.000002
                          CHANNELS 3 Zrotation Yrotation Xrotation
                          JOINT RightHandMiddleEnd
                          {
                            OFFSET -2.302520 -0.294370 -0.031706
                            CHANNELS 3 Zrotation Yrotation Xrotation
                          }
                        }
                      }
                    }
                  }
                  JOINT RightHandRing1
                  {
                    OFFSET -2.885690 -0.067952 -0.308858
                    CHANNELS 3 Zrotation Yrotation Xrotation
                    JOINT RightHandRing2
                    {
                      OFFSET -5.854198 -0.486130 -1.373731
                      CHANNELS 3 Zrotation Yrotation Xrotation
                      JOINT RightHandRing3
                      {
                        OFFSET -4.338810 -0.000004 -0.000000
                        CHANNELS 3 Zrotation Yrotation Xrotation
                        JOINT RightHandRing4
                        {
                          OFFSET -2.654903 -0.000004 0.000004
                          CHANNELS 3 Zrotation Yrotation Xrotation
                          JOINT RightHandRingEnd
                          {
                            OFFSET -1.933568 0.077527 -0.000052
                            CHANNELS 3 Zrotation Yrotation Xrotation
                          }
                        }
                      }
                    }
                  }
                  JOINT RightHandPinky1
                  {
                    OFFSET -2.866425 -0.342796 -1.584145
                    CHANNELS 3 Zrotation Yrotation Xrotation
                    JOINT RightHandPinky2
                    {
                      OFFSET -5.091371 -1.332055 -1.772385
                      CHANNELS 3 Zrotation Yrotation Xrotation
                      JOINT RightHandPinky3
                      {
                        OFFSET -3.062664 -0.000004 0.000001
                        CHANNELS 3 Zrotation Yrotation Xrotation
                        JOINT RightHandPinky4
                        {
                          OFFSET -1.546529 0.000004 -0.000002
                          CHANNELS 3 Zrotation Yrotation Xrotation
                          JOINT RightHandPinkyEnd
                          {
                            OFFSET -1.945119 -0.157718 0.057211
                            CHANNELS 3 Zrotation Yrotation Xrotation
                          }
                        }
                      }
                    }
                  }
                }
              }
            }
          }
        }
      }
    }
    JOINT LeftLeg
    {
      OFFSET 10.043214 -8.434526 2.595655
      CHANNELS 3 Zrotation Yrotation Xrotation
      JOINT LeftShin
      {
        OFFSET -0.000001 -43.221752 -0.802913
        CHANNELS 3 Zrotation Yrotation Xrotation
        JOINT LeftFoot
        {
          OFFSET 0.000001 -42.155094 -3.481523
          CHANNELS 3 Zrotation Yrotation Xrotation
          JOINT LeftToeBase
          {
            OFFSET 0.000000 -5.059472 13.231529
            CHANNELS 3 Zrotation Yrotation Xrotation
            JOINT LeftToeEnd
            {
              OFFSET -0.009607 -1.647619 6.513017
              CHANNELS 3 Zrotation Yrotation Xrotation
            }
          }
        }
      }
    }
    JOINT RightLeg
    {
      OFFSET -10.047278 -8.295260 2.620317
      CHANNELS 3 Zrotation Yrotation Xrotation
      JOINT RightShin
      {
        OFFSET 0.000001 -43.362206 -0.805556
        CHANNELS 3 Zrotation Yrotation Xrotation
        JOINT RightFoot
        {
          OFFSET 0.000002 -42.117393 -3.478398
          CHANNELS 3 Zrotation Yrotation Xrotation
          JOINT RightToeBase
          {
            OFFSET -0.000000 -5.079609 13.284196
            CHANNELS 3 Zrotation Yrotation Xrotation
            JOINT RightToeEnd
            {
              OFFSET 0.009532 -1.634378 6.460591
              CHANNELS 3 Zrotation Yrotation Xrotation
            }
          }
        }
      }
    }
  }
}
MOTION
Frames: 34
Frame Time: 0.03333333
0.000000 0.000000 0.000000 0.000000 -0.000000 0.000000 15.724936 -0.289292 -301.564347 1.059105 2.964686 -4.830414 -2.511984 -0.511771 3.943041 -0.804925 -2.470969 -3.112618 -0.520195 -4.722768 11.336304 2.213936 1.843737 5.374072 -0.639760 0.224216 -3.738640 1.723431 -0.409685 -15.080606 0.000077 -0.000022 0.000006 0.018283 -0.031019 0.024892 0.682607 -3.784117 -10.695030 -0.651788 3.726237 -10.718610 -11.425207 -10.912557 13.766030 -47.300472 -15.240828 -5.006640 -0.661820 -46.179050 0.912571 0.135346 3.689444 -5.578872 -5.882102 9.861279 0.702590 -10.936861 -0.360574 7.156197 0.000000 8.774815 -0.000000 -15.676889 18.529902 6.397674 -1.844031 2.498503 -2.507276 -10.163590 4.678941 4.621104 -20.975996 -0.000001 0.000001 -21.226254 2.451698 -3.593995 0.000000 -0.000006 -0.000000 -1.362681 2.240797 -0.746323 -21.334892 0.584910 3.008319 -13.821196 -0.000001 0.000001 -23.887129 -0.249075 -0.839485 -60.723427 2.578172 -0.922980 -0.294025 1.679686 0.833255 -14.218195 0.093215 1.300579 -34.212002 -0.287561 0.967166 -20.033176 0.964536 1.212838 0.000000 -0.000000 0.000000 -3.440387 0.788233 0.501655 -15.928172 -3.167306 2.999703 -6.338817 -0.000000 0.000001 -18.123419 3.648181 -4.905662 -0.000004 0.000000 -0.000002 14.568821 4.324366 15.667521 67.459511 -5.354491 -5.406828 -0.091291 16.450541 0.005028 4.429132 -2.609718 -11.913868 2.243540 -5.255033 -3.180156 14.282877 -0.826594 6.952496 -0.000000 -12.690593 -0.000001 15.428009 -17.198490 3.067246 1.665665 -1.955920 -2.878297 4.727794 -4.170584 4.993919 11.020511 0.000001 -0.000000 12.109032 -3.735715 -2.866778 0.000000 -0.000000 0.000000 1.291985 -1.928548 -1.498088 14.800115 0.567467 3.865604 14.242553 -1.341738 -6.660648 19.631935 0.143921 -0.648243 49.880894 -0.546713 -6.127622 0.353029 -1.511150 -0.031940 20.222769 3.684305 2.316629 18.787249 0.000001 -0.000001 10.751608 -0.479870 1.397903 0.000000 -0.000000 0.000000 3.273804 0.305947 -0.580110 21.486790 11.830364 2.266131 8.162915 0.000000 -0.000000 18.399052 -3.798986 -4.940567 0.000003 0.000000 -0.000001 -1.819165 -2.396230 -6.434501 0.071602 0.011772 20.228834 -2.697757 9.893017 -8.669062 1.657380 -2.134871 0.599139 0.000000 -0.000000 0.000002 -8.608177 -7.213981 -13.301799 0.167539 0.021608 56.236900 3.928551 -4.187719 2.542532 -1.487008 0.956753 -2.219992 0.000000 -0.000000 -0.000001
0.000000 0.000000 0.000000 0.000000 -0.000000 0.000000 15.724936 -0.715371 -301.564347 1.128016 2.968786 -4.740311 -2.262637 -0.445169 3.611591 -0.789343 -2.301386 -3.289943 -0.279575 -4.504578 11.117406 1.836502 1.926028 5.733195 -0.566408 0.412826 -3.716518 1.570868 0.095849 -14.829195 0.000077 -0.000022 0.000006 0.014884 -0.036384 0.028858 0.682913 -3.792861 -10.704794 -0.660825 3.723520 -10.724325 -10.817306 -10.342541 13.719599 -47.433849 -14.986462 -6.452911 -0.486465 -49.652821 0.851663 0.148821 3.828743 -4.401752 -5.882102 9.861279 0.702590 -10.936861 -0.360574 7.156197 0.000000 8.774815 -0.000000 -15.659384 18.591711 6.434561 -1.844031 2.498503 -2.507276 -10.163590 4.678941 4.621104 -20.975996 -0.000001 0.000001 -21.226254 2.451698 -3.593995 0.000000 -0.000006 -0.000000 -1.362681 2.240797 -0.746323 -21.334892 0.584910 3.008319 -13.821196 -0.000001 0.000001 -23.887129 -0.249075 -0.839485 -60.810314 2.546871 -0.928076 -0.294025 1.679686 0.833255 -14.218195 0.093215 1.300579 -34.212002 -0.287561 0.967166 -20.033176 0.964536 1.212838 0.000000 -0.000000 0.000000 -3.440387 0.788233 0.501655 -15.928172 -3.167306 2.999703 -6.338817 -0.000000 0.000001 -18.123419 3.648181 -4.905662 -0.000004 0.000000 -0.000002 14.471484 4.168700 15.806506 67.717751 -7.228655 -5.712705 0.017712 15.183552 0.030124 5.003726 -3.168467 -10.906056 2.243540 -5.255033 -3.180156 14.282877 -0.826594 6.952496 -0.000000 -12.690593 -0.000001 15.419729 -17.095270 3.018918 1.665665 -1.955920 -2.878297 4.727794 -4.170584 4.993919 11.020511 0.000001 -0.000000 12.109032 -3.735715 -2.866778 0.000000 -0.000000 0.000000 1.291985 -1.928548 -1.498088 14.800115 0.567467 3.865604 14.242553 -1.341738 -6.660648 19.631935 0.143921 -0.648243 49.880756 -0.503320 -6.044626 0.353029 -1.511150 -0.031940 20.222769 3.684305 2.316629 18.787249 0.000001 -0.000001 10.751608 -0.479870 1.397903 0.000000 -0.000000 0.000000 3.273804 0.305947 -0.580110 21.486790 11.830364 2.266131 8.162915 0.000000 -0.000000 18.399052 -3.798986 -4.940567 0.000003 0.000000 -0.000001 -1.783862 -1.715830 -9.793873 0.083175 0.084848 22.756533 -2.537607 9.709843 -8.060950 1.642379 -2.151787 0.809584 0.000000 -0.000000 0.000002 -9.516939 -6.512535 -7.858489 0.272776 0.197026 58.098328 5.051027 -0.768636 4.519680 -1.453391 0.947332 -2.801950 0.000000 -0.000000 -0.000001
0.000000 0.000000 0.000000 0.000000 -0.000000 0.000000 15.724936 -1.301415 -301.564347 1.325160 2.983164 -4.647079 -1.983650 -0.352354 3.261494 -0.766952 -1.956351 -3.490084 -0.096759 -4.141155 10.927319 1.271870 2.092070 6.128600 -0.496320 0.590911 -3.680556 1.363430 0.474249 -14.607965 0.000077 -0.000022 0.000006 0.015626 -0.014265 0.036442 0.680725 -3.775863 -10.700897 -0.658934 3.750236 -10.716458 -10.461564 -9.546743 13.640955 -47.834251 -14.385468 -7.685366 -0.435206 -53.021893 0.911786 0.073978 3.883406 -3.587332 -5.882102 9.861279 0.702590 -10.936861 -0.360574 7.156197 0.000000 8.774815 -0.000000 -15.608328 18.652016 6.463534 -1.844031 2.498503 -2.507276 -10.163590 4.678941 4.621104 -20.975996 -0.000001 0.000001 -21.226254 2.451698 -3.593995 0.000000 -0.000006 -0.000000 -1.362681 2.240797 -0.746323 -21.334892 0.584910 3.008319 -13.821196 -0.000001 0.000001 -23.887129 -0.249075 -0.839485 -60.810936 2.515505 -0.909283 -0.294025 1.679686 0.833255 -14.218195 0.093215 1.300579 -34.212002 -0.287561 0.967166 -20.033176 0.964536 1.212838 0.000000 -0.000000 0.000000 -3.440387 0.788233 0.501655 -15.928172 -3.167306 2.999703 -6.338817 -0.000000 0.000001 -18.123419 3.648181 -4.905662 -0.000004 0.000000 -0.000002 14.399845 4.196892 15.972807 67.746895 -8.290383 -6.004691 0.063467 14.135031 0.027500 5.223028 -3.970065 -9.380182 2.243540 -5.255033 -3.180156 14.282877 -0.826594 6.952496 -0.000000 -12.690593 -0.000001 15.441505 -17.054081 2.955205 1.665665 -1.955920 -2.878297 4.727794 -4.170584 4.993919 11.020511 0.000001 -0.000000 12.109032 -3.735715 -2.866778 0.000000 -0.000000 0.000000 1.291985 -1.928548 -1.498088 14.800115 0.567467 3.865604 14.242553 -1.341738 -6.660648 19.631935 0.143921 -0.648243 49.911816 -0.440297 -5.961447 0.353029 -1.511150 -0.031940 20.222769 3.684305 2.316629 18.787249 0.000001 -0.000001 10.751608 -0.479870 1.397903 0.000000 -0.000000 0.000000 3.273804 0.305947 -0.580110 21.486790 11.830364 2.266131 8.162915 0.000000 -0.000000 18.399052 -3.798986 -4.940567 0.000003 0.000000 -0.000001 -1.781124 -1.065530 -13.196754 0.097164 0.167984 25.254017 -2.310751 9.885431 -7.344407 1.624498 -2.173228 1.052525 0.000000 -0.000000 0.000002 -10.395408 -5.270149 -1.774643 0.322344 0.536451 57.152000 6.076665 1.873354 6.438184 -1.403509 0.926591 -3.338962 0.000000 -0.000000 -0.000001
0.000000 0.000000 0.000000 0.000000 -0.000000 0.000000 15.724936 -1.933686 -301.564347 1.653895 3.003385 -4.408871 -1.663392 -0.250269 2.833029 -0.706073 -1.465540 -3.708438 -0.022752 -3.596144 10.810584 0.487376 2.427084 6.316895 -0.438704 0.782854 -3.630895 1.218183 0.645571 -14.435207 0.000077 -0.000022 0.000006 0.021656 0.025226 0.031975 0.675106 -3.739516 -10.684660 -0.642682 3.792422 -10.696044 -10.603922 -8.567735 13.507702 -48.378510 -13.287072 -8.957367 -0.581111 -56.308075 1.129422 0.041474 3.748712 -3.228075 -5.882102 9.861279 0.702590 -10.936861 -0.360574 7.156197 0.000000 8.774815 -0.000000 -15.546108 18.700321 6.502769 -1.844031 2.498503 -2.507276 -10.163590 4.678941 4.621104 -20.975996 -0.000001 0.000001 -21.226254 2.451698 -3.593995 0.000000 -0.000006 -0.000000 -1.362681 2.240797 -0.746323 -21.334892 0.584910 3.008319 -13.821196 -0.000001 0.000001 -23.887129 -0.249075 -0.839485 -60.823383 2.485522 -0.872779 -0.294025 1.679686 0.833255 -14.218195 0.093215 1.300579 -34.212002 -0.287561 0.967166 -20.033176 0.964536 1.212838 0.000000 -0.000000 0.000000 -3.440387 0.788233 0.501655 -15.928172 -3.167306 2.999703 -6.338817 -0.000000 0.000001 -18.123419 3.648181 -4.905662 -0.000004 0.000000 -0.000002 14.459500 4.469460 16.185184 67.536613 -8.474651 -6.278433 -0.042860 13.540649 0.019334 5.077377 -4.602089 -7.933300 2.243540 -5.255033 -3.180156 14.282877 -0.826594 6.952496 -0.000000 -12.690593 -0.000001 15.475358 -17.085182 2.896786 1.665665 -1.955920 -2.878297 4.727794 -4.170584 4.993919 11.020511 0.000001 -0.000000 12.109032 -3.735715 -2.866778 0.000000 -0.000000 0.000000 1.291985 -1.928548 -1.498088 14.800115 0.567467 3.865604 14.242553 -1.341738 -6.660648 19.631935 0.143921 -0.648243 49.893879 -0.403637 -5.983348 0.353029 -1.511150 -0.031940 20.222769 3.684305 2.316629 18.787249 0.000001 -0.000001 10.751608 -0.479870 1.397903 0.000000 -0.000000 0.000000 3.273804 0.305947 -0.580110 21.486790 11.830364 2.266131 8.162915 0.000000 -0.000000 18.399052 -3.798986 -4.940567 0.000003 0.000000 -0.000001 -1.768427 -0.669919 -16.545015 0.110386 0.217296 27.099649 -2.099152 10.774077 -6.150592 1.616373 -2.233773 1.296016 0.000000 -0.000000 0.000002 -11.069435 -3.627125 4.450068 0.268842 0.958813 52.823948 6.558265 3.224638 8.067937 -1.345915 0.893606 -3.881937 0.000000 -0.000000 -0.000001
0.000000 0.000000 0.000000 0.000000 -0.000000 0.000000 15.724936 -2.433261 -301.564347 2.015369 3.015914 -3.958439 -1.262082 -0.126548 2.401165 -0.600054 -0.917868 -3.896088 -0.048007 -2.922471 10.754609 -0.506110 2.923503 6.183785 -0.391482 1.008834 -3.569108 1.142190 0.658376 -14.340631 0.000077 -0.000022 0.000006 0.028639 0.056484 0.015361 0.668139 -3.704891 -10.647351 -0.622886 3.818760 -10.657554 -11.121077 -7.540262 13.350067 -49.224380 -11.804132 -10.453639 -0.970805 -59.392384 1.483680 0.259927 3.376917 -3.592927 -5.882102 9.861279 0.702590 -10.936861 -0.360574 7.156197 0.000000 8.774815 -0.000000 -15.575045 18.708549 6.529563 -1.844031 2.498503 -2.507276 -10.163590 4.678941 4.621104 -20.975996 -0.000001 0.000001 -21.226254 2.451698 -3.593995 0.000000 -0.000006 -0.000000 -1.362681 2.240797 -0.746323 -21.334892 0.584910 3.008319 -13.821196 -0.000001 0.000001 -23.887129 -0.249075 -0.839485 -60.940758 2.477379 -0.869009 -0.294025 1.679686 0.833255 -14.218195 0.093215 1.300579 -34.212002 -0.287561 0.967166 -20.033176 0.964536 1.212838 0.000000 -0.000000 0.000000 -3.440387 0.788233 0.501655 -15.928172 -3.167306 2.999703 -6.338817 -0.000000 0.000001 -18.123419 3.648181 -4.905662 -0.000004 0.000000 -0.000002 14.442302 5.040065 16.407413 67.346497 -7.721213 -6.437099 -0.296574 13.524411 0.002282 4.811495 -4.863405 -6.746422 2.243540 -5.255033 -3.180156 14.282877 -0.826594 6.952496 -0.000000 -12.690593 -0.000001 15.533128 -17.149063 2.850087 1.665665 -1.955920 -2.878297 4.727794 -4.170584 4.993919 11.020511 0.000001 -0.000000 12.109032 -3.735715 -2.866778 0.000000 -0.000000 0.000000 1.291985 -1.928548 -1.498088 14.800115 0.567467 3.865604 14.242553 -1.341738 -6.660648 19.631935 0.143921 -0.648243 49.825420 -0.397961 -6.099169 0.353029 -1.511150 -0.031940 20.222769 3.684305 2.316629 18.787249 0.000001 -0.000001 10.751608 -0.479870 1.397903 0.000000 -0.000000 0.000000 3.273804 0.305947 -0.580110 21.486790 11.830364 2.266131 8.162915 0.000000 -0.000000 18.399052 -3.798986 -4.940567 0.000003 0.000000 -0.000001 -1.582186 -0.410263 -19.877554 0.107310 0.218646 28.146158 -1.881858 12.208282 -4.288710 1.620969 -2.314958 1.637380 0.000000 -0.000000 0.000002 -11.420815 -1.957086 10.316978 0.104180 1.331512 45.144630 6.496502 3.676609 9.429319 -1.293137 0.838619 -4.896166 0.000000 -0.000000 -0.000001
0.000000 0.000000 0.000000 0.000000 -0.000000 0.000000 15.724936 -2.948818 -301.564347 2.240066 3.004768 -3.267151 -0.760575 0.084321 2.032006 -0.470671 -0.382768 -4.007195 -0.037252 -2.239564 10.747248 -1.675706 3.483691 5.748227 -0.324949 1.254444 -3.520771 1.063623 0.637574 -14.343490 0.000077 -0.000022 0.000006 0.030627 0.061229 0.001007 0.662947 -3.693172 -10.599626 -0.615011 3.814078 -10.609717 -11.806967 -6.516912 13.131786 -50.434925 -10.125057 -11.991080 -1.510094 -62.057671 1.843939 0.731847 2.786971 -4.807759 -5.882102 9.861279 0.702590 -10.936861 -0.360574 7.156197 0.000000 8.774815 -0.000000 -15.767199 18.731043 6.528740 -1.844031 2.498503 -2.507276 -10.163590 4.678941 4.621104 -20.975996 -0.000001 0.000001 -21.226254 2.451698 -3.593995 0.000000 -0.000006 -0.000000 -1.362681 2.240797 -0.746323 -21.334892 0.584910 3.008319 -13.821196 -0.000001 0.000001 -23.887129 -0.249075 -0.839485 -61.178394 2.557584 -0.950235 -0.294025 1.679686 0.833255 -14.218195 0.093215 1.300579 -34.212002 -0.287561 0.967166 -20.033176 0.964536 1.212838 0.000000 -0.000000 0.000000 -3.440387 0.788233 0.501655 -15.928172 -3.167306 2.999703 -6.338817 -0.000000 0.000001 -18.123419 3.648181 -4.905662 -0.000004 0.000000 -0.000002 14.216618 5.918018 16.533386 67.166985 -6.040804 -6.008241 -0.573785 14.112422 -0.022035 4.677638 -4.786577 -5.931648 2.243540 -5.255033 -3.180156 14.282877 -0.826594 6.952496 -0.000000 -12.690593 -0.000001 15.600094 -17.210964 2.829981 1.665665 -1.955920 -2.878297 4.727794 -4.170584 4.993919 11.020511 0.000001 -0.000000 12.109032 -3.735715 -2.866778 0.000000 -0.000000 0.000000 1.291985 -1.928548 -1.498088 14.800115 0.567467 3.865604 14.242553 -1.341738 -6.660648 19.631935 0.143921 -0.648243 49.668289 -0.389675 -6.228222 0.353029 -1.511150 -0.031940 20.222769 3.684305 2.316629 18.787249 0.000001 -0.000001 10.751608 -0.479870 1.397903 0.000000 -0.000000 0.000000 3.273804 0.305947 -0.580110 21.486790 11.830364 2.266131 8.162915 0.000000 -0.000000 18.399052 -3.798986 -4.940567 0.000003 0.000000 -0.000001 -1.030571 0.014495 -23.272100 0.079262 0.162612 28.530382 -1.598699 13.840546 -1.849459 1.620762 -2.343955 2.132412 0.000000 -0.000000 0.000002 -11.362255 -0.610969 15.609879 -0.108765 1.493929 34.641357 5.918542 3.792855 9.869131 -1.275460 0.741788 -8.354197 0.000000 -0.000000 -0.000001
0.000000 0.000000 0.000000 0.000000 -0.000000 0.000000 15.724936 -3.601741 -301.564347 2.179263 2.960653 -2.203294 -0.231516 0.346080 1.699207 -0.344530 0.171154 -4.072532 0.190497 -1.694718 10.771423 -2.959511 4.007868 5.036491 -0.214371 1.518271 -3.543987 0.872646 0.614026 -14.486579 0.000077 -0.000022 0.000006 0.028526 0.063572 0.010156 0.657857 -3.689066 -10.577742 -0.616178 3.813760 -10.584270 -12.597476 -5.478351 12.900651 -51.784412 -8.523538 -12.866771 -1.499468 -63.955776 1.662381 1.218479 2.187390 -6.060760 -5.882102 9.861279 0.702590 -10.936861 -0.360574 7.156197 0.000000 8.774815 -0.000000 -15.937722 18.775604 6.558055 -1.844031 2.498503 -2.507276 -10.163590 4.678941 4.621104 -20.975996 -0.000001 0.000001 -21.226254 2.451698 -3.593995 0.000000 -0.000006 -0.000000 -1.362681 2.240797 -0.746323 -21.334892 0.584910 3.008319 -13.821196 -0.000001 0.000001 -23.887129 -0.249075 -0.839485 -61.330025 2.724492 -1.071387 -0.294025 1.679686 0.833255 -14.218195 0.093215 1.300579 -34.212002 -0.287561 0.967166 -20.033176 0.964536 1.212838 0.000000 -0.000000 0.000000 -3.440387 0.788233 0.501655 -15.928172 -3.167306 2.999703 -6.338817 -0.000000 0.000001 -18.123419 3.648181 -4.905662 -0.000004 0.000000 -0.000002 13.978724 7.073929 16.491425 66.597298 -3.503901 -4.511726 -0.680182 15.317775 -0.002758 4.663319 -4.517817 -5.463850 2.243540 -5.255033 -3.180156 14.282877 -0.826594 6.952496 -0.000000 -12.690593 -0.000001 15.763505 -17.375782 2.762610 1.665665 -1.955920 -2.878297 4.727794 -4.170584 4.993919 11.020511 0.000001 -0.000000 12.109032 -3.735715 -2.866778 0.000000 -0.000000 0.000000 1.291985 -1.928548 -1.498088 14.800115 0.567467 3.865604 14.242553 -1.341738 -6.660648 19.631935 0.143921 -0.648243 49.534512 -0.310939 -6.331146 0.353029 -1.511150 -0.031940 20.222769 3.684305 2.316629 18.787249 0.000001 -0.000001 10.751608 -0.479870 1.397903 0.000000 -0.000000 0.000000 3.273804 0.305947 -0.580110 21.486790 11.830364 2.266131 8.162915 0.000000 -0.000000 18.399052 -3.798986 -4.940567 0.000003 0.000000 -0.000001 -0.018701 0.825674 -26.880688 0.038961 0.053218 28.139254 -1.409486 15.050202 1.297405 1.597830 -2.264169 2.659249 0.000000 -0.000000 0.000002 -10.873374 0.019545 19.780100 -0.246207 1.486216 22.798367 5.698988 4.050861 7.112461 -1.362709 0.644385 -17.023533 0.000000 -0.000000 -0.000001
0.000000 0.000000 0.000000 0.000000 -0.000000 0.000000 15.724936 -4.150287 -301.564347 1.592324 2.905603 -1.069561 0.493147 0.300549 1.546385 -0.180776 0.727481 -4.135648 0.587726 -1.113201 10.951295 -4.324516 4.482341 4.251607 -0.130620 1.828796 -3.614965 0.641142 0.482420 -15.110640 0.000077 -0.000022 0.000006 0.033671 0.094040 0.023921 0.655319 -3.663959 -10.586744 -0.604340 3.850789 -10.596455 -13.610688 -4.488091 12.752002 -52.887486 -7.243674 -13.105626 -1.257009 -64.665367 1.216391 1.733159 1.800283 -6.625841 -5.882102 9.861279 0.702590 -10.936861 -0.360574 7.156197 0.000000 8.774815 -0.000000 -15.970716 18.611010 6.547688 -1.844031 2.498503 -2.507276 -10.163590 4.678941 4.621104 -20.975996 -0.000001 0.000001 -21.226254 2.451698 -3.593995 0.000000 -0.000006 -0.000000 -1.362681 2.240797 -0.746323 -21.334892 0.584910 3.008319 -13.821196 -0.000001 0.000001 -23.887129 -0.249075 -0.839485 -60.971241 2.719507 -1.125785 -0.294025 1.679686 0.833255 -14.218195 0.093215 1.300579 -34.212002 -0.287561 0.967166 -20.033176 0.964536 1.212838 0.000000 -0.000000 0.000000 -3.440387 0.788233 0.501655 -15.928172 -3.167306 2.999703 -6.338817 -0.000000 0.000001 -18.123419 3.648181 -4.905662 -0.000004 0.000000 -0.000002 14.010599 8.525043 16.341728 65.289024 -0.189180 -2.134187 -0.584295 16.978846 0.082024 4.415963 -3.941028 -4.991028 2.243540 -5.255033 -3.180156 14.282877 -0.826594 6.952496 -0.000000 -12.690593 -0.000001 15.987499 -17.563589 2.660384 1.665665 -1.955920 -2.878297 4.727794 -4.170584 4.993919 11.020511 0.000001 -0.000000 12.109032 -3.735715 -2.866778 0.000000 -0.000000 0.000000 1.291985 -1.928548 -1.498088 14.800115 0.567467 3.865604 14.242553 -1.341738 -6.660648 19.631935 0.143921 -0.648243 49.503399 -0.367992 -6.372012 0.353029 -1.511150 -0.031940 20.222769 3.684305 2.316629 18.787249 0.000001 -0.000001 10.751608 -0.479870 1.397903 0.000000 -0.000000 0.000000 3.273804 0.305947 -0.580110 21.486790 11.830364 2.266131 8.162915 0.000000 -0.000000 18.399052 -3.798986 -4.940567 0.000003 0.000000 -0.000001 1.549974 2.014276 -30.178495 0.046762 -0.022574 26.332895 -1.332819 15.129810 5.817450 1.608626 -2.152501 2.472417 0.000000 -0.000000 0.000002 -9.749879 -0.301264 21.853458 -0.278710 1.361708 13.112339 6.572814 3.663792 -0.750854 -1.436159 0.707981 -16.147657 0.000000 -0.000000 -0.000001
0.000000 0.000000 0.000000 0.000000 -0.000000 0.000000 15.724936 -4.207553 -301.564347 0.034523 2.875256 -0.763471 1.760024 0.074197 1.919656 0.072932 1.008458 -3.960263 1.346635 -0.704922 11.559135 -5.798519 5.054927 3.405257 -0.304974 1.998691 -3.631282 0.459851 0.388536 -15.738660 0.000077 -0.000022 0.000006 0.051590 0.126116 -0.003005 0.672068 -3.632640 -10.607160 -0.585210 3.890315 -10.639639 -14.920648 -3.494571 12.897407 -54.063213 -6.536552 -13.297905 -1.168433 -63.616528 0.900021 2.275153 1.612781 -6.644972 -5.882102 9.861279 0.702590 -10.936861 -0.360574 7.156197 0.000000 8.774815 -0.000000 -16.033396 18.384295 6.399967 -1.844031 2.498503 -2.507276 -10.163590 4.678941 4.621104 -20.975996 -0.000001 0.000001 -21.226254 2.451698 -3.593995 0.000000 -0.000006 -0.000000 -1.362681 2.240797 -0.746323 -21.334892 0.584910 3.008319 -13.821196 -0.000001 0.000001 -23.887129 -0.249075 -0.839485 -60.615158 2.588432 -1.125980 -0.294025 1.679686 0.833255 -14.218195 0.093215 1.300579 -34.212002 -0.287561 0.967166 -20.033176 0.964536 1.212838 0.000000 -0.000000 0.000000 -3.440387 0.788233 0.501655 -15.928172 -3.167306 2.999703 -6.338817 -0.000000 0.000001 -18.123419 3.648181 -4.905662 -0.000004 0.000000 -0.000002 14.078347 10.199920 16.179016 62.925919 4.183825 1.050205 -0.442588 18.729946 0.100959 3.781294 -3.297676 -3.477199 2.243540 -5.255033 -3.180156 14.282877 -0.826594 6.952496 -0.000000 -12.690593 -0.000001 16.111080 -17.889973 2.622375 1.665665 -1.955920 -2.878297 4.727794 -4.170584 4.993919 11.020511 0.000001 -0.000000 12.109032 -3.735715 -2.866778 0.000000 -0.000000 0.000000 1.291985 -1.928548 -1.498088 14.800115 0.567467 3.865604 14.242553 -1.341738 -6.660648 19.631935 0.143921 -0.648243 49.348648 -0.562217 -6.609623 0.353029 -1.511150 -0.031940 20.222769 3.684305 2.316629 18.787249 0.000001 -0.000001 10.751608 -0.479870 1.397903 0.000000 -0.000000 0.000000 3.273804 0.305947 -0.580110 21.486790 11.830364 2.266131 8.162915 0.000000 -0.000000 18.399052 -3.798986 -4.940567 0.000003 0.000000 -0.000001 4.021090 3.617519 -31.457085 0.104344 0.038296 21.804781 -1.553179 14.157608 12.959785 1.703681 -2.142033 1.642846 0.000000 -0.000000 0.000002 -7.252223 -0.853701 20.878201 -0.203493 0.879701 8.981853 6.792610 3.228245 -8.370991 -1.451813 0.828566 -8.924507 0.000000 -0.000000 -0.000001
0.000000 0.000000 0.000000 0.000000 -0.000000 0.000000 15.724936 -4.029794 -301.564347 -1.595505 2.850691 -0.906460 2.898229 0.049897 2.581711 0.242851 1.035397 -3.674594 2.175276 -0.501190 11.922523 -6.931600 5.412153 3.158027 -0.276387 2.014801 -3.633276 0.096141 0.794754 -16.256826 0.000077 -0.000022 0.000006 0.049147 0.104675 -0.030298 0.681066 -3.648179 -10.661992 -0.596528 3.866161 -10.701906 -14.936712 -2.580764 13.615097 -56.873302 -6.371288 -12.451638 -0.398022 -60.384003 0.080358 2.469367 1.436509 -5.705924 -5.882102 9.861279 0.702590 -10.936861 -0.360574 7.156197 0.000000 8.774815 -0.000000 -16.008066 18.258581 6.354848 -1.844031 2.498503 -2.507276 -10.163590 4.678941 4.621104 -20.975996 -0.000001 0.000001 -21.226254 2.451698 -3.593995 0.000000 -0.000006 -0.000000 -1.362681 2.240797 -0.746323 -21.334892 0.584910 3.008319 -13.821196 -0.000001 0.000001 -23.887129 -0.249075 -0.839485 -60.641201 2.703802 -0.955513 -0.294025 1.679686 0.833255 -14.218195 0.093215 1.300579 -34.212002 -0.287561 0.967166 -20.033176 0.964536 1.212838 0.000000 -0.000000 0.000000 -3.440387 0.788233 0.501655 -15.928172 -3.167306 2.999703 -6.338817 -0.000000 0.000001 -18.123419 3.648181 -4.905662 -0.000004 0.000000 -0.000002 13.212491 11.891578 16.097946 61.061516 9.279546 3.254008 -0.094000 20.235973 0.073920 3.122944 -2.568556 -2.250295 2.243540 -5.255033 -3.180156 14.282877 -0.826594 6.952496 -0.000000 -12.690593 -0.000001 16.296867 -17.709713 2.525717 1.665665 -1.955920 -2.878297 4.727794 -4.170584 4.993919 11.020511 0.000001 -0.000000 12.109032 -3.735715 -2.866778 0.000000 -0.000000 0.000000 1.291985 -1.928548 -1.498088 14.800115 0.567467 3.865604 14.242553 -1.341738 -6.660648 19.631935 0.143921 -0.648243 49.286217 -0.637043 -6.570910 0.353029 -1.511150 -0.031940 20.222769 3.684305 2.316629 18.787249 0.000001 -0.000001 10.751608 -0.479870 1.397903 0.000000 -0.000000 0.000000 3.273804 0.305947 -0.580110 21.486790 11.830364 2.266131 8.162915 0.000000 -0.000000 18.399052 -3.798986 -4.940567 0.000003 0.000000 -0.000001 6.751264 5.348084 -30.872612 -0.099791 -0.079155 14.910875 -3.653124 12.465832 20.954451 1.751675 -2.160491 0.710188 0.000000 -0.000000 0.000002 -4.367180 -1.154598 16.520041 -0.181823 0.638738 11.149807 6.488403 3.079477 -14.100823 -1.448740 0.926508 -5.008826 0.000000 -0.000000 -0.000001
0.000000 0.000000 0.000000 0.000000 -0.000000 0.000000 15.724936 -3.881455 -301.564347 -2.606314 2.820869 -1.251362 3.739120 -0.054636 3.288164 0.264779 1.265632 -3.383640 2.493711 -0.474657 11.894477 -7.396136 5.501244 3.341765 -0.166596 2.067946 -3.584708 -0.268207 1.127223 -16.697878 0.000077 -0.000022 0.000006 0.038622 0.042390 -0.007095 0.676781 -3.721169 -10.691083 -0.613005 3.811408 -10.713472 -13.863276 -1.813575 14.386914 -60.405632 -5.854974 -10.041351 0.422907 -55.746941 -0.421604 2.219770 1.639427 -3.815210 -5.882102 9.861279 0.702590 -10.936861 -0.360574 7.156197 0.000000 8.774815 -0.000000 -15.744533 18.018944 6.354780 -1.844031 2.498503 -2.507276 -10.163590 4.678941 4.621104 -20.975996 -0.000001 0.000001 -21.226254 2.451698 -3.593995 0.000000 -0.000006 -0.000000 -1.362681 2.240797 -0.746323 -21.334892 0.584910 3.008319 -13.821196 -0.000001 0.000001 -23.887129 -0.249075 -0.839485 -60.453758 2.736538 -0.903437 -0.294025 1.679686 0.833255 -14.218195 0.093215 1.300579 -34.212002 -0.287561 0.967166 -20.033176 0.964536 1.212838 0.000000 -0.000000 0.000000 -3.440387 0.788233 0.501655 -15.928172 -3.167306 2.999703 -6.338817 -0.000000 0.000001 -18.123419 3.648181 -4.905662 -0.000004 0.000000 -0.000002 11.756896 13.328560 15.881833 59.599628 13.917848 5.136587 0.141056 22.551754 0.013863 2.959725 -1.794545 -1.400157 2.243540 -5.255033 -3.180156 14.282877 -0.826594 6.952496 -0.000000 -12.690593 -0.000001 16.434242 -17.478056 2.491235 1.665665 -1.955920 -2.878297 4.727794 -4.170584 4.993919 11.020511 0.000001 -0.000000 12.109032 -3.735715 -2.866778 0.000000 -0.000000 0.000000 1.291985 -1.928548 -1.498088 14.800115 0.567467 3.865604 14.242553 -1.341738 -6.660648 19.631935 0.143921 -0.648243 49.487095 -0.728690 -6.318250 0.353029 -1.511150 -0.031940 20.222769 3.684305 2.316629 18.787249 0.000001 -0.000001 10.751608 -0.479870 1.397903 0.000000 -0.000000 0.000000 3.273804 0.305947 -0.580110 21.486790 11.830364 2.266131 8.162915 0.000000 -0.000000 18.399052 -3.798986 -4.940567 0.000003 0.000000 -0.000001 9.157513 6.283565 -29.768509 -0.257618 -0.258738 9.099781 -10.432937 11.116355 25.190374 1.667221 -2.214829 -0.174073 0.000000 -0.000000 0.000002 -2.563844 -2.296667 12.353765 -0.042052 0.434040 13.742130 6.229781 3.726875 -17.860872 -1.442138 0.947388 -2.164243 0.000000 -0.000000 -0.000001
0.000000 0.000000 0.000000 0.000000 -0.000000 0.000000 15.724936 -3.540558 -301.564347 -2.853580 2.792929 -1.715550 4.095824 -0.086069 3.849066 0.253669 1.351259 -3.120474 2.418494 -0.464168 11.763535 -7.546230 5.407135 3.503535 -0.123608 1.906624 -3.593716 -0.342764 1.347870 -17.025070 0.000077 -0.000022 0.000006 0.016543 -0.046895 0.051789 0.649122 -3.810784 -10.657215 -0.630007 3.720528 -10.656229 -13.665910 -1.289240 15.087479 -62.672920 -4.888083 -7.232679 0.837777 -50.255413 -0.638806 1.824037 1.867809 -2.051533 -5.882102 9.861279 0.702590 -10.936861 -0.360574 7.156197 0.000000 8.774815 -0.000000 -15.645082 17.864187 6.331433 -1.844031 2.498503 -2.507276 -10.163590 4.678941 4.621104 -20.975996 -0.000001 0.000001 -21.226254 2.451698 -3.593995 0.000000 -0.000006 -0.000000 -1.362681 2.240797 -0.746323 -21.334892 0.584910 3.008319 -13.821196 -0.000001 0.000001 -23.887129 -0.249075 -0.839485 -60.220242 2.642670 -0.859428 -0.294025 1.679686 0.833255 -14.218195 0.093215 1.300579 -34.212002 -0.287561 0.967166 -20.033176 0.964536 1.212838 0.000000 -0.000000 0.000000 -3.440387 0.788233 0.501655 -15.928172 -3.167306 2.999703 -6.338817 -0.000000 0.000001 -18.123419 3.648181 -4.905662 -0.000004 0.000000 -0.000002 10.997887 14.157941 15.466608 57.258980 17.454683 6.216526 0.250302 25.380354 -0.095751 3.438717 -0.771401 -0.870784 2.243540 -5.255033 -3.180156 14.282877 -0.826594 6.952496 -0.000000 -12.690593 -0.000001 16.321215 -17.321709 2.621676 1.665665 -1.955920 -2.878297 4.727794 -4.170584 4.993919 11.020511 0.000001 -0.000000 12.109032 -3.735715 -2.866778 0.000000 -0.000000 0.000000 1.291985 -1.928548 -1.498088 14.800115 0.567467 3.865604 14.242553 -1.341738 -6.660648 19.631935 0.143921 -0.648243 49.781578 -0.905647 -6.106354 0.353029 -1.511150 -0.031940 20.222769 3.684305 2.316629 18.787249 0.000001 -0.000001 10.751608 -0.479870 1.397903 0.000000 -0.000000 0.000000 3.273804 0.305947 -0.580110 21.486790 11.830364 2.266131 8.162915 0.000000 -0.000000 18.399052 -3.798986 -4.940567 0.000003 0.000000 -0.000001 10.365298 6.467352 -29.515379 -0.346290 -0.584895 8.873832 -18.235533 10.364510 21.971754 1.524148 -2.287874 -0.570589 0.000000 -0.000000 0.000002 -1.624524 -3.704937 9.044227 -0.020968 0.402717 15.776477 5.479884 4.268101 -19.704565 -1.423611 0.952684 -0.374347 0.000000 -0.000000 -0.000001
0.000000 0.000000 0.000000 0.000000 -0.000000 0.000000 15.724936 -2.798813 -301.564347 -2.650095 2.772783 -2.272036 4.024268 -0.142139 4.151162 0.240622 1.331512 -2.962869 2.235653 -0.571685 11.947547 -7.309569 5.295553 3.464963 -0.050058 1.865737 -3.543571 -0.491888 1.344308 -17.240650 0.000077 -0.000022 0.000006 0.011661 -0.089884 0.090119 0.660856 -3.859311 -10.658395 -0.650205 3.683737 -10.660048 -14.591923 -1.057383 15.645328 -63.699177 -4.094573 -4.856075 0.790523 -43.105049 -0.670633 1.628601 2.352605 -1.171435 -5.882102 9.861279 0.702590 -10.936861 -0.360574 7.156197 0.000000 8.774815 -0.000000 -15.819016 17.723293 6.192235 -1.844031 2.498503 -2.507276 -10.163590 4.678941 4.621104 -20.975996 -0.000001 0.000001 -21.226254 2.451698 -3.593995 0.000000 -0.000006 -0.000000 -1.362681 2.240797 -0.746323 -21.334892 0.584910 3.008319 -13.821196 -0.000001 0.000001 -23.887129 -0.249075 -0.839485 -60.500648 2.478471 -0.548037 -0.294025 1.679686 0.833255 -14.218195 0.093215 1.300579 -34.212002 -0.287561 0.967166 -20.033176 0.964536 1.212838 0.000000 -0.000000 0.000000 -3.440387 0.788233 0.501655 -15.928172 -3.167306 2.999703 -6.338817 -0.000000 0.000001 -18.123419 3.648181 -4.905662 -0.000004 0.000000 -0.000002 10.942298 14.542897 15.198001 54.004665 20.501453 5.972554 0.363278 28.141262 -0.077604 4.027335 0.099081 -0.852533 2.243540 -5.255033 -3.180156 14.282877 -0.826594 6.952496 -0.000000 -12.690593 -0.000001 15.951404 -17.260382 2.779287 1.665665 -1.955920 -2.878297 4.727794 -4.170584 4.993919 11.020511 0.000001 -0.000000 12.109032 -3.735715 -2.866778 0.000000 -0.000000 0.000000 1.291985 -1.928548 -1.498088 14.800115 0.567467 3.865604 14.242553 -1.341738 -6.660648 19.631935 0.143921 -0.648243 49.681808 -0.951493 -6.007722 0.353029 -1.511150 -0.031940 20.222769 3.684305 2.316629 18.787249 0.000001 -0.000001 10.751608 -0.479870 1.397903 0.000000 -0.000000 0.000000 3.273804 0.305947 -0.580110 21.486790 11.830364 2.266131 8.162915 0.000000 -0.000000 18.399052 -3.798986 -4.940567 0.000003 0.000000 -0.000001 10.172709 6.972002 -30.438517 -0.378683 -0.632764 15.629312 -16.945023 8.998625 17.676039 1.600837 -2.265506 -1.010341 0.000000 -0.000000 0.000002 -1.003290 -4.457623 6.784094 -0.077261 0.339590 16.575941 4.368666 3.943774 -18.983873 -1.416479 0.904361 0.513253 0.000000 -0.000000 -0.000001
0.000000 0.000000 0.000000 0.000000 -0.000000 0.000000 15.724936 -1.930016 -301.564347 -2.238753 2.760177 -2.989063 3.929783 -0.102991 4.308619 0.171987 1.297487 -2.863675 1.796307 -0.691015 12.022186 -6.792394 5.187057 3.723009 -0.006080 1.934912 -3.532620 -0.547368 1.070795 -17.203859 0.000077 -0.000022 0.000006 0.014541 -0.087356 0.102744 0.671908 -3.858629 -10.639262 -0.653125 3.686619 -10.641789 -15.239235 -1.084025 16.046917 -64.835274 -3.196726 -2.524975 0.504136 -34.643555 -0.510930 0.626399 3.181836 -1.011617 -5.882102 9.861279 0.702590 -10.936861 -0.360574 7.156197 0.000000 8.774815 -0.000000 -16.160917 17.692610 6.031623 -1.844031 2.498503 -2.507276 -10.163590 4.678941 4.621104 -20.975996 -0.000001 0.000001 -21.226254 2.451698 -3.593995 0.000000 -0.000006 -0.000000 -1.362681 2.240797 -0.746323 -21.334892 0.584910 3.008319 -13.821196 -0.000001 0.000001 -23.887129 -0.249075 -0.839485 -60.898998 2.370701 -0.450229 -0.294025 1.679686 0.833255 -14.218195 0.093215 1.300579 -34.212002 -0.287561 0.967166 -20.033176 0.964536 1.212838 0.000000 -0.000000 0.000000 -3.440387 0.788233 0.501655 -15.928172 -3.167306 2.999703 -6.338817 -0.000000 0.000001 -18.123419 3.648181 -4.905662 -0.000004 0.000000 -0.000002 10.284522 14.725811 14.821160 51.844398 22.882446 4.748803 0.298391 30.641479 0.068732 4.368902 0.637562 -1.287636 2.243540 -5.255033 -3.180156 14.282877 -0.826594 6.952496 -0.000000 -12.690593 -0.000001 15.615257 -17.281294 2.870455 1.665665 -1.955920 -2.878297 4.727794 -4.170584 4.993919 11.020511 0.000001 -0.000000 12.109032 -3.735715 -2.866778 0.000000 -0.000000 0.000000 1.291985 -1.928548 -1.498088 14.800115 0.567467 3.865604 14.242553 -1.341738 -6.660648 19.631935 0.143921 -0.648243 49.439137 -0.917908 -6.096346 0.353029 -1.511150 -0.031940 20.222769 3.684305 2.316629 18.787249 0.000001 -0.000001 10.751608 -0.479870 1.397903 0.000000 -0.000000 0.000000 3.273804 0.305947 -0.580110 21.486790 11.830364 2.266131 8.162915 0.000000 -0.000000 18.399052 -3.798986 -4.940567 0.000003 0.000000 -0.000001 9.765762 7.055367 -31.069950 -0.342823 -0.567104 26.160748 -13.710000 8.130635 12.282222 1.695181 -2.244238 -1.377941 0.000000 -0.000000 0.000002 -0.556946 -4.289909 5.848063 -0.084116 0.312079 15.551979 3.385428 2.646472 -16.992281 -1.414540 0.822205 0.961930 0.000000 -0.000000 -0.000001
0.000000 0.000000 0.000000 0.000000 -0.000000 0.000000 15.724936 -1.112275 -301.564347 -1.706361 2.766984 -3.661386 3.825671 0.035602 4.395444 0.112951 1.306420 -2.872660 1.214810 -0.765751 11.984536 -6.297256 5.111001 3.925135 -0.021608 1.845357 -3.547145 -0.480428 0.601016 -16.986433 0.000077 -0.000022 0.000006 0.016217 -0.058412 0.095585 0.660841 -3.826815 -10.603928 -0.636489 3.710376 -10.606146 -16.067553 -1.179824 16.345062 -65.595909 -1.786202 -0.007926 0.336382 -27.224161 -0.322291 -2.177518 4.417276 -1.315250 -5.882102 9.861279 0.702590 -10.936861 -0.360574 7.156197 0.000000 8.774815 -0.000000 -16.541161 17.790503 5.970863 -1.844031 2.498503 -2.507276 -10.163590 4.678941 4.621104 -20.975996 -0.000001 0.000001 -21.226254 2.451698 -3.593995 0.000000 -0.000006 -0.000000 -1.362681 2.240797 -0.746323 -21.334892 0.584910 3.008319 -13.821196 -0.000001 0.000001 -23.887129 -0.249075 -0.839485 -61.475029 2.315932 -0.540514 -0.294025 1.679686 0.833255 -14.218195 0.093215 1.300579 -34.212002 -0.287561 0.967166 -20.033176 0.964536 1.212838 0.000000 -0.000000 0.000000 -3.440387 0.788233 0.501655 -15.928172 -3.167306 2.999703 -6.338817 -0.000000 0.000001 -18.123419 3.648181 -4.905662 -0.000004 0.000000 -0.000002 9.373494 14.785777 14.419846 50.329056 24.287491 3.128062 0.087646 33.508869 0.268382 4.366366 0.864261 -2.455785 2.243540 -5.255033 -3.180156 14.282877 -0.826594 6.952496 -0.000000 -12.690593 -0.000001 15.450819 -17.387686 2.917879 1.665665 -1.955920 -2.878297 4.727794 -4.170584 4.993919 11.020511 0.000001 -0.000000 12.109032 -3.735715 -2.866778 0.000000 -0.000000 0.000000 1.291985 -1.928548 -1.498088 14.800115 0.567467 3.865604 14.242553 -1.341738 -6.660648 19.631935 0.143921 -0.648243 49.350559 -0.907695 -6.223224 0.353029 -1.511150 -0.031940 20.222769 3.684305 2.316629 18.787249 0.000001 -0.000001 10.751608 -0.479870 1.397903 0.000000 -0.000000 0.000000 3.273804 0.305947 -0.580110 21.486790 11.830364 2.266131 8.162915 0.000000 -0.000000 18.399052 -3.798986 -4.940567 0.000003 0.000000 -0.000001 9.344076 6.621311 -31.156647 -0.303698 -0.486692 37.849499 -11.910799 7.687160 7.015430 1.767645 -2.221278 -1.718648 0.000000 -0.000000 0.000002 -0.315685 -3.539405 5.384150 -0.071695 0.263707 13.790889 2.595509 0.988153 -14.643042 -1.417537 0.717636 1.067175 0.000000 -0.000000 -0.000001
0.000000 0.000000 0.000000 0.000000 -0.000000 0.000000 15.724936 -0.468537 -301.564347 -1.174448 2.792682 -4.033221 3.735748 0.212777 4.312718 0.093066 1.350346 -2.990090 0.613027 -0.862961 11.944484 -5.964037 5.087805 3.864058 -0.144667 1.557067 -3.588319 -0.366626 -0.013730 -16.824080 0.000077 -0.000022 0.000006 0.016134 -0.044428 0.075203 0.638452 -3.808670 -10.566417 -0.612792 3.718476 -10.566914 -17.175709 -1.029217 16.592192 -65.917442 0.113013 2.322803 0.193121 -22.257809 -0.135254 -5.927577 6.016740 -1.512641 -5.882102 9.861279 0.702590 -10.936861 -0.360574 7.156197 0.000000 8.774815 -0.000000 -16.641226 18.014881 6.158520 -1.844031 2.498503 -2.507276 -10.163590 4.678941 4.621104 -20.975996 -0.000001 0.000001 -21.226254 2.451698 -3.593995 0.000000 -0.000006 -0.000000 -1.362681 2.240797 -0.746323 -21.334892 0.584910 3.008319 -13.821196 -0.000001 0.000001 -23.887129 -0.249075 -0.839485 -62.240784 2.341434 -0.614125 -0.294025 1.679686 0.833255 -14.218195 0.093215 1.300579 -34.212002 -0.287561 0.967166 -20.033176 0.964536 1.212838 0.000000 -0.000000 0.000000 -3.440387 0.788233 0.501655 -15.928172 -3.167306 2.999703 -6.338817 -0.000000 0.000001 -18.123419 3.648181 -4.905662 -0.000004 0.000000 -0.000002 8.629540 14.840866 14.139826 48.785812 24.778711 1.172719 -0.014620 36.932659 0.491107 4.198816 0.954266 -4.219428 2.243540 -5.255033 -3.180156 14.282877 -0.826594 6.952496 -0.000000 -12.690593 -0.000001 15.391065 -17.509842 2.968618 1.665665 -1.955920 -2.878297 4.727794 -4.170584 4.993919 11.020511 0.000001 -0.000000 12.109032 -3.735715 -2.866778 0.000000 -0.000000 0.000000 1.291985 -1.928548 -1.498088 14.800115 0.567467 3.865604 14.242553 -1.341738 -6.660648 19.631935 0.143921 -0.648243 49.409386 -0.929861 -6.282484 0.353029 -1.511150 -0.031940 20.222769 3.684305 2.316629 18.787249 0.000001 -0.000001 10.751608 -0.479870 1.397903 0.000000 -0.000000 0.000000 3.273804 0.305947 -0.580110 21.486790 11.830364 2.266131 8.162915 0.000000 -0.000000 18.399052 -3.798986 -4.940567 0.000003 0.000000 -0.000001 8.839526 6.126771 -30.586956 -0.293056 -0.449839 48.583939 -11.967093 6.344436 3.510611 1.826693 -2.174525 -1.947349 0.000000 -0.000000 0.000002 -0.239272 -2.870798 4.373666 -0.070501 0.170921 12.589681 2.004155 -0.354760 -12.545161 -1.427024 0.640603 0.966808 0.000000 -0.000000 -0.000001
0.000000 0.000000 0.000000 0.000000 -0.000000 0.000000 15.724936 -0.063111 -301.564347 -0.803916 2.816349 -4.183253 3.697033 0.364260 4.131579 0.107836 1.371812 -3.140354 0.113408 -0.955759 11.935961 -5.751643 5.041086 3.628278 -0.330807 1.235801 -3.642323 -0.302795 -0.644808 -16.909430 0.000077 -0.000022 0.000006 0.015003 -0.044001 0.057455 0.620969 -3.804472 -10.533869 -0.596595 3.713978 -10.531436 -18.148710 -0.657027 16.885502 -66.197975 1.991559 3.943847 0.023015 -19.248970 0.015715 -9.220061 7.461953 -1.321054 -5.882102 9.861279 0.702590 -10.936861 -0.360574 7.156197 0.000000 8.774815 -0.000000 -16.495840 18.288441 6.466866 -1.844031 2.498503 -2.507276 -10.163590 4.678941 4.621104 -20.975996 -0.000001 0.000001 -21.226254 2.451698 -3.593995 0.000000 -0.000006 -0.000000 -1.362681 2.240797 -0.746323 -21.334892 0.584910 3.008319 -13.821196 -0.000001 0.000001 -23.887129 -0.249075 -0.839485 -62.882984 2.424284 -0.627734 -0.294025 1.679686 0.833255 -14.218195 0.093215 1.300579 -34.212002 -0.287561 0.967166 -20.033176 0.964536 1.212838 0.000000 -0.000000 0.000000 -3.440387 0.788233 0.501655 -15.928172 -3.167306 2.999703 -6.338817 -0.000000 0.000001 -18.123419 3.648181 -4.905662 -0.000004 0.000000 -0.000002 8.085858 14.860834 13.971507 47.151886 24.674877 -0.792009 0.145726 40.350517 0.735587 3.962104 1.063833 -6.042017 2.243540 -5.255033 -3.180156 14.282877 -0.826594 6.952496 -0.000000 -12.690593 -0.000001 15.373419 -17.621382 2.979559 1.665665 -1.955920 -2.878297 4.727794 -4.170584 4.993919 11.020511 0.000001 -0.000000 12.109032 -3.735715 -2.866778 0.000000 -0.000000 0.000000 1.291985 -1.928548 -1.498088 14.800115 0.567467 3.865604 14.242553 -1.341738 -6.660648 19.631935 0.143921 -0.648243 49.464989 -0.984266 -6.316570 0.353029 -1.511150 -0.031940 20.222769 3.684305 2.316629 18.787249 0.000001 -0.000001 10.751608 -0.479870 1.397903 0.000000 -0.000000 0.000000 3.273804 0.305947 -0.580110 21.486790 11.830364 2.266131 8.162915 0.000000 -0.000000 18.399052 -3.798986 -4.940567 0.000003 0.000000 -0.000001 8.446689 5.614441 -29.238308 -0.279573 -0.428479 57.602612 -12.624503 4.094261 1.901728 1.871830 -2.123240 -2.263705 0.000000 -0.000000 0.000002 -0.184858 -2.689528 2.517212 -0.070604 0.073839 12.647992 1.603434 -1.231753 -10.974226 -1.437898 0.616630 0.815453 0.000000 -0.000000 -0.000001
0.000000 0.000000 0.000000 0.000000 -0.000000 0.000000 15.724936 0.082137 -301.564347 -0.688829 2.822393 -4.372893 3.724123 0.454248 3.968845 0.137661 1.313017 -3.257092 -0.205230 -1.005480 11.989667 -5.572497 4.988301 3.461391 -0.499806 0.877562 -3.676533 -0.296187 -1.141947 -17.272272 0.000077 -0.000022 0.000006 0.012571 -0.047018 0.052951 0.610682 -3.804565 -10.496945 -0.590451 3.707695 -10.487856 -18.799286 -0.187470 17.193451 -66.601364 3.578566 5.010548 -0.062774 -17.331406 0.099401 -11.555971 8.475562 -0.984741 -5.882102 9.861279 0.702590 -10.936861 -0.360574 7.156197 0.000000 8.774815 -0.000000 -16.314690 18.504023 6.699898 -1.844031 2.498503 -2.507276 -10.163590 4.678941 4.621104 -20.975996 -0.000001 0.000001 -21.226254 2.451698 -3.593995 0.000000 -0.000006 -0.000000 -1.362681 2.240797 -0.746323 -21.334892 0.584910 3.008319 -13.821196 -0.000001 0.000001 -23.887129 -0.249075 -0.839485 -63.066948 2.538745 -0.626070 -0.294025 1.679686 0.833255 -14.218195 0.093215 1.300579 -34.212002 -0.287561 0.967166 -20.033176 0.964536 1.212838 0.000000 -0.000000 0.000000 -3.440387 0.788233 0.501655 -15.928172 -3.167306 2.999703 -6.338817 -0.000000 0.000001 -18.123419 3.648181 -4.905662 -0.000004 0.000000 -0.000002 7.636940 14.829186 13.921072 45.515923 24.357901 -2.365891 0.497009 43.064331 0.990148 3.624403 1.270230 -7.336605 2.243540 -5.255033 -3.180156 14.282877 -0.826594 6.952496 -0.000000 -12.690593 -0.000001 15.361451 -17.713562 2.953124 1.665665 -1.955920 -2.878297 4.727794 -4.170584 4.993919 11.020511 0.000001 -0.000000 12.109032 -3.735715 -2.866778 0.000000 -0.000000 0.000000 1.291985 -1.928548 -1.498088 14.800115 0.567467 3.865604 14.242553 -1.341738 -6.660648 19.631935 0.143921 -0.648243 49.451336 -1.061821 -6.321774 0.353029 -1.511150 -0.031940 20.222769 3.684305 2.316629 18.787249 0.000001 -0.000001 10.751608 -0.479870 1.397903 0.000000 -0.000000 0.000000 3.273804 0.305947 -0.580110 21.486790 11.830364 2.266131 8.162915 0.000000 -0.000000 18.399052 -3.798986 -4.940567 0.000003 0.000000 -0.000001 8.382529 5.007569 -26.871603 -0.269284 -0.404008 64.946198 -13.176311 1.943693 1.997172 1.904726 -2.080949 -2.826653 0.000000 -0.000000 0.000002 -0.168239 -3.028175 -0.092255 -0.060326 0.020775 14.354365 1.529535 -1.666826 -9.904913 -1.443755 0.627583 0.783652 0.000000 -0.000000 -0.000001
0.000000 0.000000 0.000000 0.000000 -0.000000 0.000000 15.724936 -0.014908 -301.564347 -0.875359 2.803538 -4.681188 3.802304 0.453383 3.809326 0.180062 1.161633 -3.349893 -0.304961 -1.030031 12.116443 -5.333370 4.999805 3.606725 -0.618707 0.464745 -3.692831 -0.317049 -1.417257 -17.820269 0.000077 -0.000022 0.000006 0.009091 -0.059623 0.054363 0.606558 -3.812158 -10.447531 -0.592411 3.691006 -10.430323 -19.169662 0.217746 17.422321 -67.010223 4.887327 5.525126 -0.023292 -16.224466 0.138118 -12.650220 8.792172 -1.279274 -5.882102 9.861279 0.702590 -10.936861 -0.360574 7.156197 0.000000 8.774815 -0.000000 -16.193058 18.547718 6.791131 -1.844031 2.498503 -2.507276 -10.163590 4.678941 4.621104 -20.975996 -0.000001 0.000001 -21.226254 2.451698 -3.593995 0.000000 -0.000006 -0.000000 -1.362681 2.240797 -0.746323 -21.334892 0.584910 3.008319 -13.821196 -0.000001 0.000001 -23.887129 -0.249075 -0.839485 -62.782177 2.672298 -0.676478 -0.294025 1.679686 0.833255 -14.218195 0.093215 1.300579 -34.212002 -0.287561 0.967166 -20.033176 0.964536 1.212838 0.000000 -0.000000 0.000000 -3.440387 0.788233 0.501655 -15.928172 -3.167306 2.999703 -6.338817 -0.000000 0.000001 -18.123419 3.648181 -4.905662 -0.000004 0.000000 -0.000002 7.288467 14.734829 13.978958 44.030273 24.034451 -3.295629 0.844223 44.406197 1.166281 3.317271 1.614766 -7.814552 2.243540 -5.255033 -3.180156 14.282877 -0.826594 6.952496 -0.000000 -12.690593 -0.000001 15.368733 -17.782593 2.889099 1.665665 -1.955920 -2.878297 4.727794 -4.170584 4.993919 11.020511 0.000001 -0.000000 12.109032 -3.735715 -2.866778 0.000000 -0.000000 0.000000 1.291985 -1.928548 -1.498088 14.800115 0.567467 3.865604 14.242553 -1.341738 -6.660648 19.631935 0.143921 -0.648243 49.396992 -1.089896 -6.333933 0.353029 -1.511150 -0.031940 20.222769 3.684305 2.316629 18.787249 0.000001 -0.000001 10.751608 -0.479870 1.397903 0.000000 -0.000000 0.000000 3.273804 0.305947 -0.580110 21.486790 11.830364 2.266131 8.162915 0.000000 -0.000000 18.399052 -3.798986 -4.940567 0.000003 0.000000 -0.000001 8.797454 4.451643 -23.348377 -0.269397 -0.364801 70.243156 -12.922745 0.949823 2.978571 1.938902 -2.051711 -3.417235 0.000000 -0.000000 0.000002 0.080367 -3.668909 -2.731834 -0.046319 0.000984 16.524401 1.591972 -1.845491 -9.140424 -1.441314 0.666795 0.856757 0.000000 -0.000000 -0.000001
0.000000 0.000000 0.000000 0.000000 -0.000000 0.000000 15.724936 -0.250580 -301.564347 -1.231321 2.767075 -5.035902 3.841751 0.377318 3.585125 0.218302 0.946511 -3.471525 -0.259614 -1.143212 12.271567 -4.956366 5.004967 4.168876 -0.728816 0.007512 -3.690515 -0.276868 -1.571116 -18.385447 0.000077 -0.000022 0.000006 0.005498 -0.075426 0.057926 0.605368 -3.822399 -10.400094 -0.597346 3.670651 -10.378821 -19.200251 0.432005 17.609138 -67.344978 5.806248 5.574007 0.076664 -15.725587 0.171583 -12.628395 8.577291 -2.254659 -5.882102 9.861279 0.702590 -10.936861 -0.360574 7.156197 0.000000 8.774815 -0.000000 -16.082119 18.348724 6.792620 -1.844031 2.498503 -2.507276 -10.163590 4.678941 4.621104 -20.975996 -0.000001 0.000001 -21.226254 2.451698 -3.593995 0.000000 -0.000006 -0.000000 -1.362681 2.240797 -0.746323 -21.334892 0.584910 3.008319 -13.821196 -0.000001 0.000001 -23.887129 -0.249075 -0.839485 -62.398670 2.803192 -0.751271 -0.294025 1.679686 0.833255 -14.218195 0.093215 1.300579 -34.212002 -0.287561 0.967166 -20.033176 0.964536 1.212838 0.000000 -0.000000 0.000000 -3.440387 0.788233 0.501655 -15.928172 -3.167306 2.999703 -6.338817 -0.000000 0.000001 -18.123419 3.648181 -4.905662 -0.000004 0.000000 -0.000002 6.963770 14.549026 14.129549 43.233292 23.809975 -3.762628 1.071545 44.030540 1.186182 2.966921 1.971811 -7.667907 2.243540 -5.255033 -3.180156 14.282877 -0.826594 6.952496 -0.000000 -12.690593 -0.000001 15.379478 -17.803495 2.831380 1.665665 -1.955920 -2.878297 4.727794 -4.170584 4.993919 11.020511 0.000001 -0.000000 12.109032 -3.735715 -2.866778 0.000000 -0.000000 0.000000 1.291985 -1.928548 -1.498088 14.800115 0.567467 3.865604 14.242553 -1.341738 -6.660648 19.631935 0.143921 -0.648243 49.304012 -1.017176 -6.341386 0.353029 -1.511150 -0.031940 20.222769 3.684305 2.316629 18.787249 0.000001 -0.000001 10.751608 -0.479870 1.397903 0.000000 -0.000000 0.000000 3.273804 0.305947 -0.580110 21.486790 11.830364 2.266131 8.162915 0.000000 -0.000000 18.399052 -3.798986 -4.940567 0.000003 0.000000 -0.000001 9.515859 4.075156 -18.666759 -0.316269 -0.403037 72.654640 -11.916366 1.056111 4.528238 1.978034 -2.032001 -3.770456 0.000000 -0.000000 0.000002 0.406004 -4.400497 -5.258762 -0.033953 -0.018680 18.574919 1.872369 -2.055762 -8.333621 -1.433115 0.738332 0.932594 0.000000 -0.000000 -0.000001
0.000000 0.000000 0.000000 0.000000 -0.000000 0.000000 15.724936 -0.542451 -301.564347 -1.580607 2.727486 -5.369109 3.781249 0.230868 3.244286 0.235673 0.693012 -3.639524 -0.224495 -1.397081 12.419123 -4.376959 4.899500 5.053286 -0.837785 -0.452224 -3.678346 -0.138119 -1.717428 -18.655142 0.000077 -0.000022 0.000006 0.005821 -0.061511 0.060273 0.599473 -3.807458 -10.378807 -0.589564 3.684028 -10.360757 -18.892771 0.332983 17.865688 -67.495789 6.212615 5.609776 0.117008 -15.667001 0.220162 -12.107785 8.287846 -3.365849 -5.882102 9.861279 0.702590 -10.936861 -0.360574 7.156197 0.000000 8.774815 -0.000000 -15.943425 18.015598 6.805092 -1.844031 2.498503 -2.507276 -10.163590 4.678941 4.621104 -20.975996 -0.000001 0.000001 -21.226254 2.451698 -3.593995 0.000000 -0.000006 -0.000000 -1.362681 2.240797 -0.746323 -21.334892 0.584910 3.008319 -13.821196 -0.000001 0.000001 -23.887129 -0.249075 -0.839485 -62.150414 2.863038 -0.796515 -0.294025 1.679686 0.833255 -14.218195 0.093215 1.300579 -34.212002 -0.287561 0.967166 -20.033176 0.964536 1.212838 0.000000 -0.000000 0.000000 -3.440387 0.788233 0.501655 -15.928172 -3.167306 2.999703 -6.338817 -0.000000 0.000001 -18.123419 3.648181 -4.905662 -0.000004 0.000000 -0.000002 6.717585 14.174829 14.327978 43.482841 23.643900 -3.674424 0.950207 42.216904 1.008065 2.529826 2.125257 -7.147636 2.243540 -5.255033 -3.180156 14.282877 -0.826594 6.952496 -0.000000 -12.690593 -0.000001 15.408533 -17.799700 2.823365 1.665665 -1.955920 -2.878297 4.727794 -4.170584 4.993919 11.020511 0.000001 -0.000000 12.109032 -3.735715 -2.866778 0.000000 -0.000000 0.000000 1.291985 -1.928548 -1.498088 14.800115 0.567467 3.865604 14.242553 -1.341738 -6.660648 19.631935 0.143921 -0.648243 49.236565 -0.914526 -6.334051 0.353029 -1.511150 -0.031940 20.222769 3.684305 2.316629 18.787249 0.000001 -0.000001 10.751608 -0.479870 1.397903 0.000000 -0.000000 0.000000 3.273804 0.305947 -0.580110 21.486790 11.830364 2.266131 8.162915 0.000000 -0.000000 18.399052 -3.798986 -4.940567 0.000003 0.000000 -0.000001 10.238194 3.689816 -13.000443 -0.388504 -0.630691 71.328110 -11.370470 1.015344 6.559529 2.017714 -2.013220 -3.953481 0.000000 -0.000000 0.000002 0.623291 -4.994690 -7.670015 -0.024943 -0.036591 20.243895 2.260463 -2.649821 -7.286147 -1.422985 0.802381 0.970879 0.000000 -0.000000 -0.000001
0.000000 0.000000 0.000000 0.000000 -0.000000 0.000000 15.724936 -0.860535 -301.564347 -1.850913 2.697942 -5.508958 3.594118 0.063140 2.800299 0.239021 0.373822 -3.844414 -0.257731 -1.729749 12.465864 -3.636309 4.674896 5.948923 -0.935556 -0.902573 -3.664582 0.068306 -1.849752 -18.492580 0.000077 -0.000022 0.000006 0.002805 -0.041729 0.065948 0.583806 -3.791380 -10.383858 -0.578958 3.707128 -10.368908 -18.420418 -0.129319 18.075243 -67.303154 6.263583 5.722590 0.039832 -16.039606 0.259408 -11.997004 7.945162 -4.873118 -5.882102 9.861279 0.702590 -10.936861 -0.360574 7.156197 0.000000 8.774815 -0.000000 -15.907753 17.812168 6.784788 -1.844031 2.498503 -2.507276 -10.163590 4.678941 4.621104 -20.975996 -0.000001 0.000001 -21.226254 2.451698 -3.593995 0.000000 -0.000006 -0.000000 -1.362681 2.240797 -0.746323 -21.334892 0.584910 3.008319 -13.821196 -0.000001 0.000001 -23.887129 -0.249075 -0.839485 -62.075233 2.824441 -0.857430 -0.294025 1.679686 0.833255 -14.218195 0.093215 1.300579 -34.212002 -0.287561 0.967166 -20.033176 0.964536 1.212838 0.000000 -0.000000 0.000000 -3.440387 0.788233 0.501655 -15.928172 -3.167306 2.999703 -6.338817 -0.000000 0.000001 -18.123419 3.648181 -4.905662 -0.000004 0.000000 -0.000002 6.761587 13.564256 14.513189 44.552322 23.359215 -3.093671 0.537352 39.690811 0.788121 2.186457 2.025185 -6.299964 2.243540 -5.255033 -3.180156 14.282877 -0.826594 6.952496 -0.000000 -12.690593 -0.000001 15.457717 -17.793154 2.852525 1.665665 -1.955920 -2.878297 4.727794 -4.170584 4.993919 11.020511 0.000001 -0.000000 12.109032 -3.735715 -2.866778 0.000000 -0.000000 0.000000 1.291985 -1.928548 -1.498088 14.800115 0.567467 3.865604 14.242553 -1.341738 -6.660648 19.631935 0.143921 -0.648243 49.269714 -0.837239 -6.316575 0.353029 -1.511150 -0.031940 20.222769 3.684305 2.316629 18.787249 0.000001 -0.000001 10.751608 -0.479870 1.397903 0.000000 -0.000000 0.000000 3.273804 0.305947 -0.580110 21.486790 11.830364 2.266131 8.162915 0.000000 -0.000000 18.399052 -3.798986 -4.940567 0.000003 0.000000 -0.000001 10.722215 3.078688 -6.912498 -0.391631 -0.957150 66.097656 -11.498373 0.670853 8.336023 2.025582 -1.985529 -4.357096 0.000000 -0.000000 0.000002 0.631934 -5.349640 -10.205751 -0.017010 -0.050963 21.519844 2.583436 -3.683877 -5.877230 -1.419754 0.829940 1.033574 0.000000 -0.000000 -0.000001
0.000000 0.000000 0.000000 0.000000 -0.000000 0.000000 15.724936 -1.242417 -301.564347 -2.080367 2.684093 -5.293563 3.281486 -0.085347 2.246382 0.238543 0.027715 -4.078388 -0.293479 -2.148980 12.412904 -2.839925 4.359611 6.587282 -0.998152 -1.349388 -3.644560 0.275215 -2.010214 -17.998232 0.000077 -0.000022 0.000006 -0.004971 -0.035078 0.076626 0.565736 -3.788134 -10.396029 -0.575652 3.716787 -10.382987 -18.241806 -0.866803 18.072830 -66.337936 6.084919 5.723404 -0.193159 -16.836302 0.286453 -12.404788 7.435479 -6.780944 -5.882102 9.861279 0.702590 -10.936861 -0.360574 7.156197 0.000000 8.774815 -0.000000 -15.968841 17.829073 6.724448 -1.844031 2.498503 -2.507276 -10.163590 4.678941 4.621104 -20.975996 -0.000001 0.000001 -21.226254 2.451698 -3.593995 0.000000 -0.000006 -0.000000 -1.362681 2.240797 -0.746323 -21.334892 0.584910 3.008319 -13.821196 -0.000001 0.000001 -23.887129 -0.249075 -0.839485 -62.112526 2.718782 -0.954854 -0.294025 1.679686 0.833255 -14.218195 0.093215 1.300579 -34.212002 -0.287561 0.967166 -20.033176 0.964536 1.212838 0.000000 -0.000000 0.000000 -3.440387 0.788233 0.501655 -15.928172 -3.167306 2.999703 -6.338817 -0.000000 0.000001 -18.123419 3.648181 -4.905662 -0.000004 0.000000 -0.000002 7.463720 12.726711 14.780840 45.704754 22.683239 -2.311995 0.040796 37.231380 0.610152 2.004807 2.024952 -5.339138 2.243540 -5.255033 -3.180156 14.282877 -0.826594 6.952496 -0.000000 -12.690593 -0.000001 15.537543 -17.856501 2.909457 1.665665 -1.955920 -2.878297 4.727794 -4.170584 4.993919 11.020511 0.000001 -0.000000 12.109032 -3.735715 -2.866778 0.000000 -0.000000 0.000000 1.291985 -1.928548 -1.498088 14.800115 0.567467 3.865604 14.242553 -1.341738 -6.660648 19.631935 0.143921 -0.648243 49.409298 -0.747370 -6.325769 0.353029 -1.511150 -0.031940 20.222769 3.684305 2.316629 18.787249 0.000001 -0.000001 10.751608 -0.479870 1.397903 0.000000 -0.000000 0.000000 3.273804 0.305947 -0.580110 21.486790 11.830364 2.266131 8.162915 0.000000 -0.000000 18.399052 -3.798986 -4.940567 0.000003 0.000000 -0.000001 10.922155 2.235289 -0.882382 -0.273144 -1.223431 57.197067 -12.027184 0.049418 8.792569 1.995856 -1.931376 -6.110589 0.000000 -0.000000 0.000002 0.447919 -5.505563 -13.096258 0.005291 -0.072593 22.531609 2.819179 -4.921543 -4.161944 -1.426328 0.840388 1.161951 0.000000 -0.000000 -0.000001
0.000000 0.000000 0.000000 0.000000 -0.000000 0.000000 15.724936 -1.759797 -301.564347 -2.426250 2.679179 -4.673022 2.964984 -0.300845 1.609612 0.230582 -0.279811 -4.321652 -0.225639 -2.604834 12.323908 -1.999360 3.951477 6.737540 -1.001599 -1.737849 -3.620009 0.381092 -2.265959 -17.432056 0.000077 -0.000022 0.000006 -0.011015 -0.040322 0.086651 0.557329 -3.792849 -10.402313 -0.578511 3.711741 -10.388674 -18.580799 -1.774313 17.935993 -64.501099 5.481184 5.686624 -0.386939 -18.037518 0.264149 -12.689121 6.719145 -9.152426 -5.882102 9.861279 0.702590 -10.936861 -0.360574 7.156197 0.000000 8.774815 -0.000000 -16.004402 17.976114 6.672278 -1.844031 2.498503 -2.507276 -10.163590 4.678941 4.621104 -20.975996 -0.000001 0.000001 -21.226254 2.451698 -3.593995 0.000000 -0.000006 -0.000000 -1.362681 2.240797 -0.746323 -21.334892 0.584910 3.008319 -13.821196 -0.000001 0.000001 -23.887129 -0.249075 -0.839485 -62.161087 2.542092 -0.966566 -0.294025 1.679686 0.833255 -14.218195 0.093215 1.300579 -34.212002 -0.287561 0.967166 -20.033176 0.964536 1.212838 0.000000 -0.000000 0.000000 -3.440387 0.788233 0.501655 -15.928172 -3.167306 2.999703 -6.338817 -0.000000 0.000001 -18.123419 3.648181 -4.905662 -0.000004 0.000000 -0.000002 8.946427 11.671304 15.320830 46.448906 21.418442 -1.705870 -0.397777 35.607147 0.396753 2.025215 2.368522 -4.877595 2.243540 -5.255033 -3.180156 14.282877 -0.826594 6.952496 -0.000000 -12.690593 -0.000001 15.630304 -17.966482 2.950066 1.665665 -1.955920 -2.878297 4.727794 -4.170584 4.993919 11.020511 0.000001 -0.000000 12.109032 -3.735715 -2.866778 0.000000 -0.000000 0.000000 1.291985 -1.928548 -1.498088 14.800115 0.567467 3.865604 14.242553 -1.341738 -6.660648 19.631935 0.143921 -0.648243 49.525822 -0.677463 -6.351010 0.353029 -1.511150 -0.031940 20.222769 3.684305 2.316629 18.787249 0.000001 -0.000001 10.751608 -0.479870 1.397903 0.000000 -0.000000 0.000000 3.273804 0.305947 -0.580110 21.486790 11.830364 2.266131 8.162915 0.000000 -0.000000 18.399052 -3.798986 -4.940567 0.000003 0.000000 -0.000001 10.928022 1.271953 4.653604 -0.144609 -1.314748 45.577854 -11.838778 -0.102235 6.477595 2.052021 -1.831096 -12.924170 0.000000 -0.000000 0.000002 0.218845 -5.652921 -16.345684 -0.018158 -0.148786 23.266163 3.135303 -6.067951 -2.295994 -1.437824 0.840855 1.354046 0.000000 -0.000000 -0.000001
0.000000 0.000000 0.000000 0.000000 -0.000000 0.000000 15.724936 -2.506478 -301.564347 -2.816213 2.695741 -3.709973 2.636219 -0.478596 1.020618 0.187909 -0.701154 -4.526229 -0.003552 -3.050450 12.242992 -1.082374 3.417983 6.398814 -0.966739 -1.986591 -3.620038 0.386593 -2.653180 -17.208326 0.000077 -0.000022 0.000006 -0.009465 -0.046571 0.079471 0.563491 -3.805156 -10.427799 -0.580931 3.713529 -10.403269 -18.997992 -2.795196 17.677593 -62.393688 4.146270 5.652961 -0.415068 -19.411884 0.211637 -12.200048 5.782511 -12.010967 -5.882102 9.861279 0.702590 -10.936861 -0.360574 7.156197 0.000000 8.774815 -0.000000 -16.128004 18.281511 6.579047 -1.844031 2.498503 -2.507276 -10.163590 4.678941 4.621104 -20.975996 -0.000001 0.000001 -21.226254 2.451698 -3.593995 0.000000 -0.000006 -0.000000 -1.362681 2.240797 -0.746323 -21.334892 0.584910 3.008319 -13.821196 -0.000001 0.000001 -23.887129 -0.249075 -0.839485 -62.133343 2.426606 -0.944763 -0.294025 1.679686 0.833255 -14.218195 0.093215 1.300579 -34.212002 -0.287561 0.967166 -20.033176 0.964536 1.212838 0.000000 -0.000000 0.000000 -3.440387 0.788233 0.501655 -15.928172 -3.167306 2.999703 -6.338817 -0.000000 0.000001 -18.123419 3.648181 -4.905662 -0.000004 0.000000 -0.000002 10.600410 10.573003 15.721142 47.024029 19.286819 -1.466760 -0.150037 34.883617 0.430689 2.411710 2.919935 -4.977499 2.243540 -5.255033 -3.180156 14.282877 -0.826594 6.952496 -0.000000 -12.690593 -0.000001 15.714898 -18.022015 2.921664 1.665665 -1.955920 -2.878297 4.727794 -4.170584 4.993919 11.020511 0.000001 -0.000000 12.109032 -3.735715 -2.866778 0.000000 -0.000000 0.000000 1.291985 -1.928548 -1.498088 14.800115 0.567467 3.865604 14.242553 -1.341738 -6.660648 19.631935 0.143921 -0.648243 49.508167 -0.637153 -6.352664 0.353029 -1.511150 -0.031940 20.222769 3.684305 2.316629 18.787249 0.000001 -0.000001 10.751608 -0.479870 1.397903 0.000000 -0.000000 0.000000 3.273804 0.305947 -0.580110 21.486790 11.830364 2.266131 8.162915 0.000000 -0.000000 18.399052 -3.798986 -4.940567 0.000003 0.000000 -0.000001 10.283552 -0.038248 9.132197 -0.009331 -1.288080 33.700363 -10.543974 0.967657 -1.493856 2.163265 -1.860593 -18.723780 0.000000 -0.000000 0.000002 -0.116571 -6.135047 -20.219213 -0.065890 -0.172592 24.407814 3.548102 -6.871329 -0.427664 -1.450052 0.813281 1.387641 0.000000 -0.000000 -0.000001
0.000000 0.000000 0.000000 0.000000 -0.000000 0.000000 15.724936 -3.169770 -301.564347 -2.294001 2.759471 -2.937449 1.723630 -0.510358 0.919890 0.005847 -1.114358 -4.525037 0.038124 -3.480468 12.268185 0.060974 2.768720 5.624341 -1.051558 -2.119601 -3.681243 0.386952 -3.054434 -17.547529 0.000077 -0.000022 0.000006 -0.003090 -0.046718 0.057464 0.580821 -3.808623 -10.459923 -0.585390 3.719376 -10.437826 -18.937624 -4.000436 17.399565 -60.403900 1.656450 5.423859 -0.487263 -20.656527 0.197081 -10.408961 4.863689 -14.648879 -5.882102 9.861279 0.702590 -10.936861 -0.360574 7.156197 0.000000 8.774815 -0.000000 -16.285513 18.281845 6.354926 -1.844031 2.498503 -2.507276 -10.163590 4.678941 4.621104 -20.975996 -0.000001 0.000001 -21.226254 2.451698 -3.593995 0.000000 -0.000006 -0.000000 -1.362681 2.240797 -0.746323 -21.334892 0.584910 3.008319 -13.821196 -0.000001 0.000001 -23.887129 -0.249075 -0.839485 -61.876503 2.384855 -1.011867 -0.294025 1.679686 0.833255 -14.218195 0.093215 1.300579 -34.212002 -0.287561 0.967166 -20.033176 0.964536 1.212838 0.000000 -0.000000 0.000000 -3.440387 0.788233 0.501655 -15.928172 -3.167306 2.999703 -6.338817 -0.000000 0.000001 -18.123419 3.648181 -4.905662 -0.000004 0.000000 -0.000002 11.911203 9.591224 15.664177 48.237209 16.514778 -1.345786 0.441715 34.131359 0.508503 3.096909 3.325565 -4.909853 2.243540 -5.255033 -3.180156 14.282877 -0.826594 6.952496 -0.000000 -12.690593 -0.000001 15.809755 -18.003485 2.858293 1.665665 -1.955920 -2.878297 4.727794 -4.170584 4.993919 11.020511 0.000001 -0.000000 12.109032 -3.735715 -2.866778 0.000000 -0.000000 0.000000 1.291985 -1.928548 -1.498088 14.800115 0.567467 3.865604 14.242553 -1.341738 -6.660648 19.631935 0.143921 -0.648243 49.572941 -0.574239 -6.321787 0.353029 -1.511150 -0.031940 20.222769 3.684305 2.316629 18.787249 0.000001 -0.000001 10.751608 -0.479870 1.397903 0.000000 -0.000000 0.000000 3.273804 0.305947 -0.580110 21.486790 11.830364 2.266131 8.162915 0.000000 -0.000000 18.399052 -3.798986 -4.940567 0.000003 0.000000 -0.000001 8.015661 -2.016678 11.381562 0.120827 -1.065288 25.038635 -9.510497 3.159408 -11.476315 2.028648 -2.063163 -12.632294 0.000000 -0.000000 0.000002 -1.501333 -7.301742 -23.531090 -0.056490 -0.045971 24.676685 3.995777 -7.141949 2.060072 -1.458097 0.846014 0.932965 0.000000 -0.000000 -0.000001
0.000000 0.000000 0.000000 0.000000 -0.000000 0.000000 15.724936 -3.595055 -301.564347 -0.655793 2.843910 -2.716200 0.198687 -0.489855 1.461792 -0.198821 -1.347588 -4.292228 -0.532984 -3.757529 12.570348 1.461682 2.200911 4.544871 -1.342931 -2.320969 -3.717278 0.522353 -3.440693 -18.311831 0.000077 -0.000022 0.000006 0.010833 -0.024343 0.045825 0.609749 -3.778664 -10.475334 -0.589304 3.734289 -10.457580 -17.844822 -5.490550 17.255033 -58.999046 -2.235008 4.936945 -0.447214 -21.545095 0.083843 -7.857521 4.627337 -15.622861 -5.882102 9.861279 0.702590 -10.936861 -0.360574 7.156197 0.000000 8.774815 -0.000000 -16.344139 18.073013 6.159705 -1.844031 2.498503 -2.507276 -10.163590 4.678941 4.621104 -20.975996 -0.000001 0.000001 -21.226254 2.451698 -3.593995 0.000000 -0.000006 -0.000000 -1.362681 2.240797 -0.746323 -21.334892 0.584910 3.008319 -13.821196 -0.000001 0.000001 -23.887129 -0.249075 -0.839485 -61.527267 2.377728 -1.041500 -0.294025 1.679686 0.833255 -14.218195 0.093215 1.300579 -34.212002 -0.287561 0.967166 -20.033176 0.964536 1.212838 0.000000 -0.000000 0.000000 -3.440387 0.788233 0.501655 -15.928172 -3.167306 2.999703 -6.338817 -0.000000 0.000001 -18.123419 3.648181 -4.905662 -0.000004 0.000000 -0.000002 12.523381 8.826621 15.684588 50.874855 14.152741 -1.063173 0.534565 32.280746 0.331501 3.425982 3.055706 -4.666610 2.243540 -5.255033 -3.180156 14.282877 -0.826594 6.952496 -0.000000 -12.690593 -0.000001 16.030140 -17.909023 2.766403 1.665665 -1.955920 -2.878297 4.727794 -4.170584 4.993919 11.020511 0.000001 -0.000000 12.109032 -3.735715 -2.866778 0.000000 -0.000000 0.000000 1.291985 -1.928548 -1.498088 14.800115 0.567467 3.865604 14.242553 -1.341738 -6.660648 19.631935 0.143921 -0.648243 49.739132 -0.461752 -6.326884 0.353029 -1.511150 -0.031940 20.222769 3.684305 2.316629 18.787249 0.000001 -0.000001 10.751608 -0.479870 1.397903 0.000000 -0.000000 0.000000 3.273804 0.305947 -0.580110 21.486790 11.830364 2.266131 8.162915 0.000000 -0.000000 18.399052 -3.798986 -4.940567 0.000003 0.000000 -0.000001 4.407408 -4.424608 11.088617 0.089916 -0.707066 20.547628 -9.101410 6.162064 -17.827007 1.897606 -2.230821 -6.374928 0.000000 -0.000000 0.000002 -4.149721 -8.909914 -25.345003 0.021528 0.044109 23.120972 4.789723 -6.612165 5.433952 -1.465086 0.884116 0.193630 0.000000 -0.000000 -0.000001
0.000000 0.000000 0.000000 0.000000 -0.000000 0.000000 15.724936 -3.599900 -301.564347 1.326999 2.942678 -2.898318 -1.354775 -0.574695 2.406146 -0.490076 -1.380074 -3.851104 -1.225141 -3.876430 12.823235 2.532480 1.956620 3.656639 -1.486474 -2.699828 -3.653097 0.560245 -3.521563 -19.462332 0.000077 -0.000022 0.000006 0.012428 -0.026705 0.043168 0.633870 -3.785077 -10.501744 -0.611540 3.735677 -10.506931 -15.815529 -7.127103 17.248793 -58.607353 -6.421137 3.713941 -0.186118 -22.661070 -0.090209 -5.714728 4.404520 -15.469018 -5.882102 9.861279 0.702590 -10.936861 -0.360574 7.156197 0.000000 8.774815 -0.000000 -16.462791 17.878525 6.022497 -1.844031 2.498503 -2.507276 -10.163590 4.678941 4.621104 -20.975996 -0.000001 0.000001 -21.226254 2.451698 -3.593995 0.000000 -0.000006 -0.000000 -1.362681 2.240797 -0.746323 -21.334892 0.584910 3.008319 -13.821196 -0.000001 0.000001 -23.887129 -0.249075 -0.839485 -61.184933 2.347189 -1.110299 -0.294025 1.679686 0.833255 -14.218195 0.093215 1.300579 -34.212002 -0.287561 0.967166 -20.033176 0.964536 1.212838 0.000000 -0.000000 0.000000 -3.440387 0.788233 0.501655 -15.928172 -3.167306 2.999703 -6.338817 -0.000000 0.000001 -18.123419 3.648181 -4.905662 -0.000004 0.000000 -0.000002 12.242179 8.213350 15.826859 54.900803 12.510062 -1.108758 0.304068 29.370070 0.170146 2.975543 2.216785 -4.819052 2.243540 -5.255033 -3.180156 14.282877 -0.826594 6.952496 -0.000000 -12.690593 -0.000001 16.217154 -17.800514 2.638922 1.665665 -1.955920 -2.878297 4.727794 -4.170584 4.993919 11.020511 0.000001 -0.000000 12.109032 -3.735715 -2.866778 0.000000 -0.000000 0.000000 1.291985 -1.928548 -1.498088 14.800115 0.567467 3.865604 14.242553 -1.341738 -6.660648 19.631935 0.143921 -0.648243 49.536758 -0.485569 -6.309902 0.353029 -1.511150 -0.031940 20.222769 3.684305 2.316629 18.787249 0.000001 -0.000001 10.751608 -0.479870 1.397903 0.000000 -0.000000 0.000000 3.273804 0.305947 -0.580110 21.486790 11.830364 2.266131 8.162915 0.000000 -0.000000 18.399052 -3.798986 -4.940567 0.000003 0.000000 -0.000001 0.916872 -6.043288 8.606560 0.013849 -0.399058 19.873466 -8.049349 8.205280 -21.249468 1.813149 -2.294339 -2.209003 0.000000 -0.000000 0.000002 -7.285659 -10.361730 -25.764757 0.235088 0.201322 19.484402 6.750016 -5.738664 9.565148 -1.467975 0.900234 -0.789390 0.000000 -0.000000 -0.000001
0.000000 0.000000 0.000000 0.000000 -0.000000 0.000000 15.724936 -3.423882 -301.564347 2.753410 3.032444 -3.209688 -2.575500 -0.468316 3.304155 -0.659864 -1.554552 -3.471944 -1.510601 -3.823103 12.962105 2.838825 1.862630 3.114401 -1.499876 -2.723406 -3.620205 0.503533 -3.475256 -20.057804 0.000077 -0.000022 0.000006 0.019455 0.008085 0.050135 0.652060 -3.753497 -10.510286 -0.617026 3.775250 -10.530133 -14.028324 -8.555303 16.897243 -57.878349 -9.533980 2.751645 -0.027802 -24.923922 -0.121033 -4.278368 4.216075 -14.817704 -5.882102 9.861279 0.702590 -10.936861 -0.360574 7.156197 0.000000 8.774815 -0.000000 -16.399502 17.780127 5.839434 -1.844031 2.498503 -2.507276 -10.163590 4.678941 4.621104 -20.975996 -0.000001 0.000001 -21.226254 2.451698 -3.593995 0.000000 -0.000006 -0.000000 -1.362681 2.240797 -0.746323 -21.334892 0.584910 3.008319 -13.821196 -0.000001 0.000001 -23.887129 -0.249075 -0.839485 -60.745293 2.400390 -1.358763 -0.294025 1.679686 0.833255 -14.218195 0.093215 1.300579 -34.212002 -0.287561 0.967166 -20.033176 0.964536 1.212838 0.000000 -0.000000 0.000000 -3.440387 0.788233 0.501655 -15.928172 -3.167306 2.999703 -6.338817 -0.000000 0.000001 -18.123419 3.648181 -4.905662 -0.000004 0.000000 -0.000002 11.720156 7.873493 16.092073 59.098396 10.848814 -1.481305 0.219721 26.063635 0.071724 2.126987 1.332694 -5.545415 2.243540 -5.255033 -3.180156 14.282877 -0.826594 6.952496 -0.000000 -12.690593 -0.000001 16.291668 -17.773510 2.566598 1.665665 -1.955920 -2.878297 4.727794 -4.170584 4.993919 11.020511 0.000001 -0.000000 12.109032 -3.735715 -2.866778 0.000000 -0.000000 0.000000 1.291985 -1.928548 -1.498088 14.800115 0.567467 3.865604 14.242553 -1.341738 -6.660648 19.631935 0.143921 -0.648243 49.501602 -0.458787 -6.338544 0.353029 -1.511150 -0.031940 20.222769 3.684305 2.316629 18.787249 0.000001 -0.000001 10.751608 -0.479870 1.397903 0.000000 -0.000000 0.000000 3.273804 0.305947 -0.580110 21.486790 11.830364 2.266131 8.162915 0.000000 -0.000000 18.399052 -3.798986 -4.940567 0.000003 0.000000 -0.000001 -1.287140 -5.507866 6.122324 -0.008974 -0.238561 20.025549 -6.946571 8.540913 -22.000719 1.752781 -2.267087 -0.434239 0.000000 -0.000000 0.000002 -9.927888 -10.344217 -25.390491 0.338595 0.266864 15.562056 10.771820 -4.099021 12.222113 -1.407186 1.042415 -1.533168 0.000000 -0.000000 -0.000001
0.000000 0.000000 0.000000 0.000000 0.000000 0.000000 15.724936 -2.520383 -301.564347 2.914024 3.065057 -3.664310 -3.226053 -0.436598 4.111747 -0.697167 -1.846429 -3.153140 -1.058667 -4.062135 12.894691 2.891263 1.828848 3.012171 -1.342350 -2.359127 -3.630579 0.263801 -2.912925 -19.933185 0.000077 -0.000022 0.000006 0.019404 0.006333 0.060988 0.664891 -3.757518 -10.560373 -0.629552 3.775668 -10.581477 -12.786741 -9.966538 16.354069 -55.034507 -11.588067 0.728200 -0.135730 -31.690185 0.066379 -2.774517 3.749437 -13.110628 -5.882102 9.861279 0.702590 -10.936861 -0.360574 7.156197 0.000000 8.774815 0.000000 -16.161783 17.891936 5.920598 -1.844031 2.498503 -2.507276 -10.163590 4.678941 4.621104 -20.975996 -0.000001 0.000001 -21.226254 2.451698 -3.593995 0.000000 -0.000006 0.000000 -1.362681 2.240797 -0.746323 -21.334892 0.584910 3.008319 -13.821196 -0.000001 0.000001 -23.887129 -0.249075 -0.839485 -60.432734 2.440319 -1.220308 -0.294025 1.679686 0.833255 -14.218195 0.093215 1.300579 -34.212002 -0.287561 0.967166 -20.033176 0.964536 1.212838 0.000000 0.000000 0.000000 -3.440387 0.788233 0.501655 -15.928172 -3.167306 2.999703 -6.338817 0.000000 0.000001 -18.123419 3.648181 -4.905662 -0.000004 0.000000 -0.000002 12.611061 6.790947 16.612982 63.196699 6.937150 -1.367593 -0.164039 21.794159 -0.018173 2.055591 0.210670 -7.394464 2.243540 -5.255033 -3.180156 14.282877 -0.826594 6.952496 0.000000 -12.690593 -0.000001 16.158240 -17.700879 2.631678 1.665665 -1.955920 -2.878297 4.727794 -4.170584 4.993919 11.020511 0.000001 -0.000000 12.109032 -3.735715 -2.866778 0.000000 0.000000 0.000000 1.291985 -1.928548 -1.498088 14.800115 0.567467 3.865604 14.242553 -1.341738 -6.660648 19.631935 0.143921 -0.648243 49.592096 -0.375270 -6.317818 0.353029 -1.511150 -0.031940 20.222769 3.684305 2.316629 18.787249 0.000001 -0.000001 10.751608 -0.479870 1.397903 0.000000 0.000000 0.000000 3.273804 0.305947 -0.580110 21.486790 11.830364 2.266131 8.162915 0.000000 0.000000 18.399052 -3.798986 -4.940567 0.000003 0.000000 -0.000001 -2.163610 -4.135231 2.231835 0.014641 -0.193285 20.137310 -5.330060 8.308984 -19.096695 1.689276 -2.188475 0.068151 0.000000 0.000000 0.000002 -10.777825 -10.017309 -24.643333 0.311627 0.335607 22.379082 12.099848 -2.958133 8.922501 -1.405430 1.068975 -2.027403 0.000000 0.000000 -0.000001
0.000000 0.000000 0.000000 0.000000 0.000000 0.000000 15.724936 -1.581890 -301.564347 2.396306 3.039780 -3.881381 -3.146763 -0.508911 4.357358 -0.709786 -2.052020 -3.030370 -0.534925 -4.329970 12.742041 2.921341 1.763861 3.159221 -1.234318 -1.933931 -3.627691 0.047764 -2.397629 -19.610463 0.000077 -0.000022 0.000006 0.011464 -0.068063 0.056490 0.655966 -3.829778 -10.582035 -0.636676 3.697127 -10.615939 -11.855764 -10.675616 15.701790 -52.731561 -11.945186 -1.614741 -0.352336 -39.250827 0.384916 -1.570621 3.023801 -11.456940 -5.882102 9.861279 0.702590 -10.936861 -0.360574 7.156197 0.000000 8.774815 0.000000 -15.975005 18.043385 6.059167 -1.844031 2.498503 -2.507276 -10.163590 4.678941 4.621104 -20.975996 -0.000001 0.000001 -21.226254 2.451698 -3.593995 0.000000 -0.000006 0.000000 -1.362681 2.240797 -0.746323 -21.334892 0.584910 3.008319 -13.821196 -0.000001 0.000001 -23.887129 -0.249075 -0.839485 -60.345190 2.456650 -1.101779 -0.294025 1.679686 0.833255 -14.218195 0.093215 1.300579 -34.212002 -0.287561 0.967166 -20.033176 0.964536 1.212838 0.000000 0.000000 0.000000 -3.440387 0.788233 0.501655 -15.928172 -3.167306 2.999703 -6.338817 0.000000 0.000001 -18.123419 3.648181 -4.905662 -0.000004 0.000000 -0.000002 13.850318 5.795797 16.937115 65.893893 2.998285 -1.374549 -0.261956 18.278548 -0.007101 2.797291 -1.136942 -8.199327 2.243540 -5.255033 -3.180156 14.282877 -0.826594 6.952496 0.000000 -12.690593 -0.000001 15.912993 -17.706366 2.774536 1.665665 -1.955920 -2.878297 4.727794 -4.170584 4.993919 11.020511 0.000001 -0.000000 12.109032 -3.735715 -2.866778 0.000000 0.000000 0.000000 1.291985 -1.928548 -1.498088 14.800115 0.567467 3.865604 14.242553 -1.341738 -6.660648 19.631935 0.143921 -0.648243 49.718895 -0.426339 -6.354911 0.353029 -1.511150 -0.031940 20.222769 3.684305 2.316629 18.787249 0.000001 -0.000001 10.751608 -0.479870 1.397903 0.000000 0.000000 0.000000 3.273804 0.305947 -0.580110 21.486790 11.830364 2.266131 8.162915 0.000000 0.000000 18.399052 -3.798986 -4.940567 0.000003 0.000000 -0.000001 -2.319278 -3.424179 -1.640687 0.050743 -0.113842 20.257255 -3.939687 8.419542 -15.045319 1.669831 -2.112969 0.113735 0.000000 0.000000 0.000002 -10.544688 -9.713908 -22.884439 0.253588 0.345281 34.171352 9.960083 -2.699182 4.437453 -1.442661 1.065196 -2.358937 0.000000 0.000000 -0.000001
0.000000 0.000000 0.000000 0.000000 0.000000 0.000000 15.724936 -0.999482 -301.564347 1.863912 3.002669 -3.881628 -2.857205 -0.549595 4.243297 -0.695012 -2.139482 -3.080651 0.037281 -4.324762 12.344362 2.689594 1.706832 3.533795 -1.084517 -1.558343 -3.625874 -0.016239 -1.960477 -19.151566 0.000077 -0.000022 0.000006 0.009928 -0.093693 0.049101 0.647942 -3.855195 -10.607784 -0.632527 3.669489 -10.643149 -10.875657 -10.636124 15.243947 -51.966535 -11.221271 -4.214424 -0.573815 -47.306288 0.721081 -0.649146 2.136819 -9.924254 -5.882102 9.861279 0.702590 -10.936861 -0.360574 7.156197 0.000000 8.774815 0.000000 -15.874941 18.213477 6.206966 -1.844031 2.498503 -2.507276 -10.163590 4.678941 4.621104 -20.975996 -0.000001 0.000001 -21.226254 2.451698 -3.593995 0.000000 -0.000006 0.000000 -1.362681 2.240797 -0.746323 -21.334892 0.584910 3.008319 -13.821196 -0.000001 0.000001 -23.887129 -0.249075 -0.839485 -60.490494 2.492112 -0.997824 -0.294025 1.679686 0.833255 -14.218195 0.093215 1.300579 -34.212002 -0.287561 0.967166 -20.033176 0.964536 1.212838 0.000000 0.000000 0.000000 -3.440387 0.788233 0.501655 -15.928172 -3.167306 2.999703 -6.338817 0.000000 0.000001 -18.123419 3.648181 -4.905662 -0.000004 0.000000 -0.000002 14.652857 5.226690 17.180835 67.763705 -0.366916 -1.173620 -0.159964 15.462388 0.022475 4.526248 -2.763254 -7.580431 2.243540 -5.255033 -3.180156 14.282877 -0.826594 6.952496 0.000000 -12.690593 -0.000001 15.612593 -17.723509 2.944395 1.665665 -1.955920 -2.878297 4.727794 -4.170584 4.993919 11.020511 0.000001 -0.000000 12.109032 -3.735715 -2.866778 0.000000 0.000000 0.000000 1.291985 -1.928548 -1.498088 14.800115 0.567467 3.865604 14.242553 -1.341738 -6.660648 19.631935 0.143921 -0.648243 49.814691 -0.495954 -6.398569 0.353029 -1.511150 -0.031940 20.222769 3.684305 2.316629 18.787249 0.000001 -0.000001 10.751608 -0.479870 1.397903 0.000000 0.000000 0.000000 3.273804 0.305947 -0.580110 21.486790 11.830364 2.266131 8.162915 0.000000 0.000000 18.399052 -3.798986 -4.940567 0.000003 0.000000 -0.000001 -2.417210 -3.229760 -5.472220 0.070183 -0.039543 20.335378 -2.799765 9.101087 -11.304247 1.655059 -2.108495 0.161251 0.000000 0.000000 0.000002 -10.327359 -9.019151 -18.945270 0.218670 0.408251 45.491994 8.098916 -1.845519 0.986268 -1.464915 1.045262 -2.605871 0.000000 0.000000 -0.000001
0.000000 0.000000 0.000000 0.000000 0.000000 0.000000 15.724936 -0.932478 -301.564347 1.679947 2.983277 -3.656303 -2.539628 -0.495672 3.844677 -0.680677 -1.913854 -3.269665 0.479736 -3.959015 11.872285 2.176093 1.735454 3.944009 -0.941228 -1.253375 -3.600272 0.075371 -1.661144 -18.650257 0.000077 -0.000022 0.000006 0.015594 -0.077310 0.040800 0.645717 -3.844172 -10.627259 -0.620696 3.689555 -10.653392 -10.104398 -9.797109 14.904991 -52.526422 -9.779289 -6.491326 -0.824997 -55.651110 1.091770 0.144104 0.980508 -9.273295 -5.882102 9.861279 0.702590 -10.936861 -0.360574 7.156197 0.000000 8.774815 0.000000 -15.754232 18.324059 6.426348 -1.844031 2.498503 -2.507276 -10.163590 4.678941 4.621104 -20.975996 -0.000001 0.000001 -21.226254 2.451698 -3.593995 0.000000 -0.000006 0.000000 -1.362681 2.240797 -0.746323 -21.334892 0.584910 3.008319 -13.821196 -0.000001 0.000001 -23.887129 -0.249075 -0.839485 -60.659814 2.514506 -0.930744 -0.294025 1.679686 0.833255 -14.218195 0.093215 1.300579 -34.212002 -0.287561 0.967166 -20.033176 0.964536 1.212838 0.000000 0.000000 0.000000 -3.440387 0.788233 0.501655 -15.928172 -3.167306 2.999703 -6.338817 0.000000 0.000001 -18.123419 3.648181 -4.905662 -0.000004 0.000000 -0.000002 15.062305 5.179467 17.424278 68.681690 -2.415358 -0.277270 0.025711 13.203627 0.048505 6.994322 -4.490397 -5.474475 2.243540 -5.255033 -3.180156 14.282877 -0.826594 6.952496 0.000000 -12.690593 -0.000001 15.408982 -17.871622 3.099107 1.665665 -1.955920 -2.878297 4.727794 -4.170584 4.993919 11.020511 0.000001 -0.000000 12.109032 -3.735715 -2.866778 0.000000 0.000000 0.000000 1.291985 -1.928548 -1.498088 14.800115 0.567467 3.865604 14.242553 -1.341738 -6.660648 19.631935 0.143921 -0.648243 49.825158 -0.583291 -6.485963 0.353029 -1.511150 -0.031940 20.222769 3.684305 2.316629 18.787249 0.000001 -0.000001 10.751608 -0.479870 1.397903 0.000000 0.000000 0.000000 3.273804 0.305947 -0.580110 21.486790 11.830364 2.266131 8.162915 0.000000 0.000000 18.399052 -3.798986 -4.940567 0.000003 0.000000 -0.000001 -2.710004 -3.138227 -9.849314 0.086511 0.044936 21.286664 -1.878295 10.168887 -8.117590 1.639408 -2.146267 0.353273 0.000000 0.000000 0.000002 -10.521191 -8.027879 -12.582701 0.183349 0.537713 52.781701 7.414745 -0.026968 -0.495486 -1.471959 1.014725 -2.889965 0.000000 0.000000 -0.000001
0.000000 0.000000 0.000000 0.000000 0.000000 0.000000 15.724936 -1.377822 -301.564347 1.868236 2.983350 -3.281734 -2.179994 -0.318922 3.274591 -0.662889 -1.316297 -3.535999 0.694716 -3.202872 11.466126 1.351379 1.933443 4.353278 -0.819065 -0.973008 -3.562413 0.283242 -1.526302 -18.222824 0.000077 -0.000022 0.000006 0.024464 -0.037513 0.036382 0.642534 -3.809869 -10.622770 -0.602055 3.732857 -10.636457 -9.750319 -8.310652 14.650831 -53.992568 -7.859506 -8.126329 -1.317580 -63.552914 1.644256 0.907455 -0.464327 -9.643806 -5.882102 9.861279 0.702590 -10.936861 -0.360574 7.156197 0.000000 8.774815 0.000000 -15.661630 18.408778 6.654620 -1.844031 2.498503 -2.507276 -10.163590 4.678941 4.621104 -20.975996 -0.000001 0.000001 -21.226254 2.451698 -3.593995 0.000000 -0.000006 0.000000 -1.362681 2.240797 -0.746323 -21.334892 0.584910 3.008319 -13.821196 -0.000001 0.000001 -23.887129 -0.249075 -0.839485 -60.761734 2.531671 -0.881785 -0.294025 1.679686 0.833255 -14.218195 0.093215 1.300579 -34.212002 -0.287561 0.967166 -20.033176 0.964536 1.212838 0.000000 0.000000 0.000000 -3.440387 0.788233 0.501655 -15.928172 -3.167306 2.999703 -6.338817 0.000000 0.000001 -18.123419 3.648181 -4.905662 -0.000004 0.000000 -0.000002 15.101778 5.737225 17.726583 68.709828 -2.545456 1.227245 0.179554 11.555332 0.078371 9.278675 -6.086826 -2.844332 2.243540 -5.255033 -3.180156 14.282877 -0.826594 6.952496 0.000000 -12.690593 -0.000001 15.457645 -18.151970 3.147096 1.665665 -1.955920 -2.878297 4.727794 -4.170584 4.993919 11.020511 0.000001 -0.000000 12.109032 -3.735715 -2.866778 0.000000 0.000000 0.000000 1.291985 -1.928548 -1.498088 14.800115 0.567467 3.865604 14.242553 -1.341738 -6.660648 19.631935 0.143921 -0.648243 49.877796 -0.616511 -6.566373 0.353029 -1.511150 -0.031940 20.222769 3.684305 2.316629 18.787249 0.000001 -0.000001 10.751608 -0.479870 1.397903 0.000000 0.000000 0.000000 3.273804 0.305947 -0.580110 21.486790 11.830364 2.266131 8.162915 0.000000 0.000000 18.399052 -3.798986 -4.940567 0.000003 0.000000 -0.000001 -3.095756 -2.855907 -14.903337 0.106478 0.147339 23.211564 -1.072867 11.576338 -5.324277 1.624118 -2.210283 0.646377 0.000000 0.000000 0.000002 -11.100732 -6.527418 -4.063673 0.143258 0.810550 54.160120 7.708271 2.503939 0.208455 -1.460753 0.974658 -3.572452 0.000000 0.000000 -0.000001
