HIERARCHY
ROOT Root
{
  OFFSET 0.000000 0.000000 0.000000
  CHANNELS 6 Xposition Yposition Zposition Zrotation Yrotation Xrotation
  JOINT Hips
  {
    OFFSET 0.000000 100.000000 0.000000
    CHANNELS 6 Xposition Yposition Zposition Zrotation Yrotation Xrotation
    JOINT Spine1
    {
      OFFSET -0.013727 5.003763 -0.053727
      CHANNELS 3 Zrotation Yrotation Xrotation
      JOINT Spine2
      {
        OFFSET -0.000000 7.125301 -0.029825
        CHANNELS 3 Zrotation Yrotation Xrotation
        JOINT Chest
        {
          OFFSET -0.000001 7.550063 -0.815971
          CHANNELS 3 Zrotation Yrotation Xrotation
          JOINT Neck1
          {
            OFFSET -0.181677 26.311295 -0.553348
            CHANNELS 3 Zrotation Yrotation Xrotation
            JOINT Neck2
            {
              OFFSET -0.000003 7.709397 2.302585
              CHANNELS 3 Zrotation Yrotation Xrotation
              JOINT Head
              {
                OFFSET -0.000005 6.128916 1.953709
                CHANNELS 3 Zrotation Yrotation Xrotation
                JOINT HeadEnd
                {
                  OFFSET 0.003598 16.065403 -1.835379
                  CHANNELS 3 Zrotation Yrotation Xrotation
                }
                JOINT Jaw
                {
                  OFFSET 0.002637 0.475592 3.094941
                  CHANNELS 3 Zrotation Yrotation Xrotation
                }
                JOINT LeftEye
                {
                  OFFSET 3.206381 5.380205 7.586883
                  CHANNELS 3 Zrotation Yrotation Xrotation
                }
                JOINT RightEye
                {
                  OFFSET -3.222440 5.361869 7.558234
                  CHANNELS 3 Zrotation Yrotation Xrotation
                }
              }
            }
          }
          JOINT LeftShoulder
          {
            OFFSET 1.621652 23.237164 5.113413
            CHANNELS 3 Zrotation Yrotation Xrotation
            JOINT LeftArm
            {
              OFFSET 14.919846 0.000002 -5.502326
              CHANNELS 3 Zrotation Yrotation Xrotation
              JOINT LeftForeArm
              {
                OFFSET 28.739307 0.000000 -0.002588
                CHANNELS 3 Zrotation Yrotation Xrotation
                JOINT LeftHand
                {
                  OFFSET 27.093981 -0.000001 0.002609
                  CHANNELS 3 Zrotation Yrotation Xrotation
                  JOINT LeftHandThumb1
                  {
                    OFFSET 2.276482 -1.392045 3.191413
                    CHANNELS 3 Zrotation Yrotation Xrotation
                    JOINT LeftHandThumb2
                    {
                      OFFSET 4.012836 -1.828127 1.641654
                      CHANNELS 3 Zrotation Yrotation Xrotation
                      JOINT LeftHandThumb3
                      {
                        OFFSET 2.798515 0.000000 -0.000003
                        CHANNELS 3 Zrotation Yrotation Xrotation
                        JOINT LeftHandThumbEnd
                        {
                          OFFSET 3.180793 -0.000004 0.000004
                          CHANNELS 3 Zrotation Yrotation Xrotation
                        }
                      }
                    }
                  }
                  JOINT LeftHandIndex1
                  {
                    OFFSET 3.247555 -0.531998 2.296169
                    CHANNELS 3 Zrotation Yrotation Xrotation
                    JOINT LeftHandIndex2
                    {
                      OFFSET 6.364578 0.012060 0.178600
                      CHANNELS 3 Zrotation Yrotation Xrotation
                      JOINT LeftHandIndex3
                      {
                        OFFSET 3.662364 0.000000 0.000000
                        CHANNELS 3 Zrotation Yrotation Xrotation
                        JOINT LeftHandIndex4
                        {
                          OFFSET 2.329242 0.000004 0.000004
                          CHANNELS 3 Zrotation Yrotation Xrotation
                          JOINT LeftHandIndexEnd
                          {
                            OFFSET 2.759615 -0.180537 -0.113024
                            CHANNELS 3 Zrotation Yrotation Xrotation
                          }
                        }
                      }
                    }
                  }
                  JOINT LeftHandMiddle1
                  {
                    OFFSET 3.163495 0.240981 1.000332
                    CHANNELS 3 Zrotation Yrotation Xrotation
                    JOINT LeftHandMiddle2
                    {
                      OFFSET 6.190780 -0.259278 -1.002548
                      CHANNELS 3 Zrotation Yrotation Xrotation
                      JOINT LeftHandMiddle3
                      {
                        OFFSET 4.356520 -0.000004 -0.000001
                        CHANNELS 3 Zrotation Yrotation Xrotation
                        JOINT LeftHandMiddle4
                        {
                          OFFSET 2.996877 -0.000008 0.000000
                          CHANNELS 3 Zrotation Yrotation Xrotation
                          JOINT LeftHandMiddleEnd
                          {
                            OFFSET 2.304287 -0.294569 -0.031741
                            CHANNELS 3 Zrotation Yrotation Xrotation
                          }
                        }
                      }
                    }
                  }
                  JOINT LeftHandRing1
                  {
                    OFFSET 2.882643 -0.053652 -0.322543
                    CHANNELS 3 Zrotation Yrotation Xrotation
                    JOINT LeftHandRing2
                    {
                      OFFSET 5.854541 -0.486202 -1.373841
                      CHANNELS 3 Zrotation Yrotation Xrotation
                      JOINT LeftHandRing3
                      {
                        OFFSET 4.350578 0.000000 0.000003
                        CHANNELS 3 Zrotation Yrotation Xrotation
                        JOINT LeftHandRing4
                        {
                          OFFSET 2.651321 0.000007 0.000002
                          CHANNELS 3 Zrotation Yrotation Xrotation
                          JOINT LeftHandRingEnd
                          {
                            OFFSET 1.936105 0.077687 -0.000071
                            CHANNELS 3 Zrotation Yrotation Xrotation
                          }
                        }
                      }
                    }
                  }
                  JOINT LeftHandPinky1
                  {
                    OFFSET 2.865500 -0.310005 -1.600378
                    CHANNELS 3 Zrotation Yrotation Xrotation
                    JOINT LeftHandPinky2
                    {
                      OFFSET 5.087849 -1.331141 -1.771230
                      CHANNELS 3 Zrotation Yrotation Xrotation
                      JOINT LeftHandPinky3
                      {
                        OFFSET 3.070974 0.000004 0.000000
                        CHANNELS 3 Zrotation Yrotation Xrotation
                        JOINT LeftHandPinky4
                        {
                          OFFSET 1.549672 0.000000 0.000001
                          CHANNELS 3 Zrotation Yrotation Xrotation
                          JOINT LeftHandPinkyEnd
                          {
                            OFFSET 1.944893 -0.157802 0.057219
                            CHANNELS 3 Zrotation Yrotation Xrotation
                          }
                        }
                      }
                    }
                  }
                }
              }
            }
          }
          JOINT RightShoulder
          {
            OFFSET -1.380118 23.180309 5.214158
            CHANNELS 3 Zrotation Yrotation Xrotation
            JOINT RightArm
            {
              OFFSET -15.037196 0.000012 -5.545604
              CHANNELS 3 Zrotation Yrotation Xrotation
              JOINT RightForeArm
              {
                OFFSET -28.736639 0.000002 -0.002597
                CHANNELS 3 Zrotation Yrotation Xrotation
                JOINT RightHand
                {
                  OFFSET -27.133619 -0.000000 0.002613
                  CHANNELS 3 Zrotation Yrotation Xrotation
                  JOINT RightHandThumb1
                  {
                    OFFSET -2.274032 -1.383988 3.163127
                    CHANNELS 3 Zrotation Yrotation Xrotation
                    JOINT RightHandThumb2
                    {
                      OFFSET -4.011429 -1.827466 1.640914
                      CHANNELS 3 Zrotation Yrotation Xrotation
                      JOINT RightHandThumb3
                      {
                        OFFSET -2.794935 -0.000004 -0.000003
                        CHANNELS 3 Zrotation Yrotation Xrotation
                        JOINT RightHandThumbEnd
                        {
                          OFFSET -3.183852 0.000004 0.000001
                          CHANNELS 3 Zrotation Yrotation Xrotation
                        }
                      }
                    }
                  }
                  JOINT RightHandIndex1
                  {
                    OFFSET -3.253266 -0.520057 2.282866
                    CHANNELS 3 Zrotation Yrotation Xrotation
                    JOINT RightHandIndex2
                    {
                      OFFSET -6.341917 0.012471 0.178266
                      CHANNELS 3 Zrotation Yrotation Xrotation
                      JOINT RightHandIndex3
                      {
                        OFFSET -3.654871 -0.000008 -0.000000
                        CHANNELS 3 Zrotation Yrotation Xrotation
                        JOINT RightHandIndex4
                        {
                          OFFSET -2.327586 0.000000 0.000001
                          CHANNELS 3 Zrotation Yrotation Xrotation
                          JOINT RightHandIndexEnd
                          {
                            OFFSET -2.761790 -0.180656 -0.113078
                            CHANNELS 3 Zrotation Yrotation Xrotation
                          }
                        }
                      }
                    }
                  }
                  JOINT RightHandMiddle1
                  {
                    OFFSET -3.168106 0.246593 1.001030
                    CHANNELS 3 Zrotation Yrotation Xrotation
                    JOINT RightHandMiddle2
                    {
                      OFFSET -6.180828 -0.258836 -1.000895
                      CHANNELS 3 Zrotation Yrotation Xrotation
                      JOINT RightHandMiddle3
                      {
                        OFFSET -4.348901 0.000000 -0.000000
                        CHANNELS 3 Zrotation Yrotation Xrotation
                        JOINT RightHandMiddle4
                        {
                          OFFSET -3.000240 -0.000004 -0.000002
                          CHANNELS 3 Zrotation Yrotation Xrotation
                          JOINT RightHandMiddleEnd
                          {
                            OFFSET -2.302520 -0.294370 -0.031706
                            CHANNELS 3 Zrotation Yrotation Xrotation
                          }
                        }
                      }
                    }
                  }
                  JOINT RightHandRing1
                  {
                    OFFSET -2.885690 -0.067952 -0.308858
                    CHANNELS 3 Zrotation Yrotation Xrotation
                    JOINT RightHandRing2
                    {
                      OFFSET -5.854198 -0.486130 -1.373731
                      CHANNELS 3 Zrotation Yrotation Xrotation
                      JOINT RightHandRing3
                      {
                        OFFSET -4.338810 -0.000004 -0.000000
                        CHANNELS 3 Zrotation Yrotation Xrotation
                        JOINT RightHandRing4
                        {
                          OFFSET -2.654903 -0.000004 0.000004
                          CHANNELS 3 Zrotation Yrotation Xrotation
                          JOINT RightHandRingEnd
                          {
                            OFFSET -1.933568 0.077527 -0.000052
                            CHANNELS 3 Zrotation Yrotation Xrotation
                          }
                        }
                      }
                    }
                  }
                  JOINT RightHandPinky1
                  {
                    OFFSET -2.866425 -0.342796 -1.584145
                    CHANNELS 3 Zrotation Yrotation Xrotation
                    JOINT RightHandPinky2
                    {
                      OFFSET -5.091371 -1.332055 -1.772385
                      CHANNELS 3 Zrotation Yrotation Xrotation
                      JOINT RightHandPinky3
                      {
                        OFFSET -3.062664 -0.000004 0.000001
                        CHANNELS 3 Zrotation Yrotation Xrotation
                        JOINT RightHandPinky4
                        {
                          OFFSET -1.546529 0.000004 -0.000002
                          CHANNELS 3 Zrotation Yrotation Xrotation
                          JOINT RightHandPinkyEnd
                          {
                            OFFSET -1.945119 -0.157718 0.057211
                            CHANNELS 3 Zrotation Yrotation Xrotation
                          }
                        }
                      }
                    }
                  }
                }
              }
            }
          }
        }
      }
    }
    JOINT LeftLeg
    {
      OFFSET 10.043214 -8.434526 2.595655
      CHANNELS 3 Zrotation Yrotation Xrotation
      JOINT LeftShin
      {
        OFFSET -0.000001 -43.221752 -0.802913
        CHANNELS 3 Zrotation Yrotation Xrotation
        JOINT LeftFoot
        {
          OFFSET 0.000001 -42.155094 -3.481523
          CHANNELS 3 Zrotation Yrotation Xrotation
          JOINT LeftToeBase
          {
            OFFSET 0.000000 -5.059472 13.231529
            CHANNELS 3 Zrotation Yrotation Xrotation
            JOINT LeftToeEnd
            {
              OFFSET -0.009607 -1.647619 6.513017
              CHANNELS 3 Zrotation Yrotation Xrotation
            }
          }
        }
      }
    }
    JOINT RightLeg
    {
      OFFSET -10.047278 -8.295260 2.620317
      CHANNELS 3 Zrotation Yrotation Xrotation
      JOINT RightShin
      {
        OFFSET 0.000001 -43.362206 -0.805556
        CHANNELS 3 Zrotation Yrotation Xrotation
        JOINT RightFoot
        {
          OFFSET 0.000002 -42.117393 -3.478398
          CHANNELS 3 Zrotation Yrotation Xrotation
          JOINT RightToeBase
          {
            OFFSET -0.000000 -5.079609 13.284196
            CHANNELS 3 Zrotation Yrotation Xrotation
            JOINT RightToeEnd
            {
              OFFSET 0.009532 -1.634378 6.460591
              CHANNELS 3 Zrotation Yrotation Xrotation
            }
          }
        }
      }
    }
  }
}
MOTION
Frames: 30
Frame Time: 0.03333333
0.000000 0.000000 0.000000 0.000000 -0.000000 0.000000 -62.398120 -7.344171 687.848965 -3.221437 -6.087691 -1.877328 -0.323224 -0.830472 -0.692409 -0.488458 -5.167731 -5.271300 1.985462 -7.696794 12.511432 6.964441 0.087024 6.812999 0.728094 4.902023 -3.731479 -2.268010 5.831599 -8.341186 0.000077 -0.000022 0.000006 -0.020339 0.081942 -0.019650 0.666181 -3.613216 -10.639988 -0.704961 3.786835 -10.642920 -4.810192 -10.576273 19.320669 -55.865925 9.049078 -0.943803 -177.850342 -43.279797 178.622208 -15.921470 -14.896583 -23.225813 -5.882102 9.861279 0.702590 -10.936861 -0.360574 7.156197 0.000000 8.774815 -0.000000 -16.648203 17.819914 5.873052 -1.844031 2.498503 -2.507276 -10.163590 4.678941 4.621104 -20.975996 -0.000001 0.000001 -21.226254 2.451698 -3.593995 0.000000 -0.000006 -0.000000 -1.362681 2.240797 -0.746323 -21.334892 0.584910 3.008319 -13.821196 -0.000001 0.000001 -23.887129 -0.249075 -0.839485 -59.886131 2.486903 -1.404040 -0.294025 1.679686 0.833255 -14.218195 0.093215 1.300579 -34.212002 -0.287561 0.967166 -20.033176 0.964536 1.212838 0.000000 -0.000000 0.000000 -3.440387 0.788233 0.501655 -15.928172 -3.167306 2.999703 -6.338817 -0.000000 0.000001 -18.123419 3.648181 -4.905662 -0.000004 0.000000 -0.000002 16.035320 -5.460748 18.000093 53.383015 -18.974369 0.617249 177.352188 54.931744 178.437057 8.404107 11.777982 -15.827073 2.243540 -5.255033 -3.180156 14.282877 -0.826594 6.952496 -0.000000 -12.690593 -0.000001 16.275537 -17.760216 2.555491 1.665665 -1.955920 -2.878297 4.727794 -4.170584 4.993919 11.020511 0.000001 -0.000000 12.109032 -3.735715 -2.866778 0.000000 -0.000000 0.000000 1.291985 -1.928548 -1.498088 14.800115 0.567467 3.865604 14.242553 -1.341738 -6.660648 19.631935 0.143921 -0.648243 50.493446 -0.818218 -5.847561 0.353029 -1.511150 -0.031940 20.222769 3.684305 2.316629 18.787249 0.000001 -0.000001 10.751608 -0.479870 1.397903 0.000000 -0.000000 0.000000 3.273804 0.305947 -0.580110 21.486790 11.830364 2.266131 8.162915 0.000000 -0.000000 18.399052 -3.798986 -4.940567 0.000003 0.000000 -0.000001 12.769222 12.789882 9.159846 -0.105562 -1.181239 61.263424 -11.774440 5.188314 0.129568 1.976028 -1.981433 -3.505904 0.000000 -0.000000 0.000002 10.866390 -3.228721 -31.469509 -0.232887 -0.433712 36.278538 -7.197111 -7.460277 -3.103348 -1.417426 0.871955 0.851205 0.000000 -0.000000 -0.000001
0.000000 0.000000 0.000000 0.000000 -0.000000 0.000000 -62.398120 -7.169351 687.848965 -3.233025 -6.098871 -2.068152 -0.864924 -0.865891 -0.600574 -0.721663 -5.217285 -5.176282 2.007112 -7.688028 12.692426 8.518323 -0.628978 7.101201 0.579778 4.750379 -3.752981 -2.128355 5.588797 -7.231982 0.000077 -0.000022 0.000006 -0.028790 -0.029322 -0.049216 0.621598 -3.717490 -10.596677 -0.675607 3.667911 -10.583780 -5.805570 -10.319507 19.626783 -57.453789 9.242135 0.791198 -177.231415 -48.379318 178.127808 -17.734787 -14.215544 -22.974211 -5.882102 9.861279 0.702590 -10.936861 -0.360574 7.156197 0.000000 8.774815 -0.000000 -16.824446 18.140638 5.872829 -1.844031 2.498503 -2.507276 -10.163590 4.678941 4.621104 -20.975996 -0.000001 0.000001 -21.226254 2.451698 -3.593995 0.000000 -0.000006 -0.000000 -1.362681 2.240797 -0.746323 -21.334892 0.584910 3.008319 -13.821196 -0.000001 0.000001 -23.887129 -0.249075 -0.839485 -59.977409 2.441922 -1.316531 -0.294025 1.679686 0.833255 -14.218195 0.093215 1.300579 -34.212002 -0.287561 0.967166 -20.033176 0.964536 1.212838 0.000000 -0.000000 0.000000 -3.440387 0.788233 0.501655 -15.928172 -3.167306 2.999703 -6.338817 -0.000000 0.000001 -18.123419 3.648181 -4.905662 -0.000004 0.000000 -0.000002 19.645065 -5.829846 17.719334 51.597301 -14.272395 1.115676 177.411346 56.633999 178.402405 7.879699 11.710765 -16.077816 2.243540 -5.255033 -3.180156 14.282877 -0.826594 6.952496 -0.000000 -12.690593 -0.000001 16.470448 -17.767218 2.588754 1.665665 -1.955920 -2.878297 4.727794 -4.170584 4.993919 11.020511 0.000001 -0.000000 12.109032 -3.735715 -2.866778 0.000000 -0.000000 0.000000 1.291985 -1.928548 -1.498088 14.800115 0.567467 3.865604 14.242553 -1.341738 -6.660648 19.631935 0.143921 -0.648243 50.127056 -0.862449 -5.819950 0.353029 -1.511150 -0.031940 20.222769 3.684305 2.316629 18.787249 0.000001 -0.000001 10.751608 -0.479870 1.397903 0.000000 -0.000000 0.000000 3.273804 0.305947 -0.580110 21.486790 11.830364 2.266131 8.162915 0.000000 -0.000000 18.399052 -3.798986 -4.940567 0.000003 0.000000 -0.000001 12.077230 12.716716 2.682655 -0.164362 -1.111044 66.787964 -8.285225 10.541918 -2.877352 2.018202 -1.985512 -3.250693 0.000000 -0.000000 0.000002 10.800709 -4.425270 -28.841110 -0.288413 -0.464091 39.686184 -6.657054 -7.618476 -9.075406 -1.432062 0.870838 1.227707 0.000000 -0.000000 -0.000001
0.000000 0.000000 0.000000 0.000000 -0.000000 0.000000 -62.398120 -6.448267 687.848965 -2.607627 -6.078442 -2.187130 -1.139773 -0.864964 -0.535415 -0.923219 -4.881946 -5.054867 1.576545 -7.236351 12.338426 9.185445 -0.823902 7.069242 0.384406 4.255253 -3.737217 -1.801665 5.053676 -6.516810 0.000077 -0.000022 0.000006 -0.024429 -0.050435 -0.065657 0.613308 -3.746043 -10.613383 -0.657620 3.651588 -10.588731 -6.111087 -9.688905 19.531990 -59.513897 9.972073 2.367101 -176.590088 -54.098431 177.408768 -19.659002 -12.191528 -21.915300 -5.882102 9.861279 0.702590 -10.936861 -0.360574 7.156197 0.000000 8.774815 -0.000000 -16.888752 18.489626 5.922072 -1.844031 2.498503 -2.507276 -10.163590 4.678941 4.621104 -20.975996 -0.000001 0.000001 -21.226254 2.451698 -3.593995 0.000000 -0.000006 -0.000000 -1.362681 2.240797 -0.746323 -21.334892 0.584910 3.008319 -13.821196 -0.000001 0.000001 -23.887129 -0.249075 -0.839485 -60.369720 2.481879 -1.275266 -0.294025 1.679686 0.833255 -14.218195 0.093215 1.300579 -34.212002 -0.287561 0.967166 -20.033176 0.964536 1.212838 0.000000 -0.000000 0.000000 -3.440387 0.788233 0.501655 -15.928172 -3.167306 2.999703 -6.338817 -0.000000 0.000001 -18.123419 3.648181 -4.905662 -0.000004 0.000000 -0.000002 20.856228 -5.321634 17.578360 52.401108 -10.094161 1.771686 177.541351 57.839272 178.233170 6.896063 11.697268 -16.059160 2.243540 -5.255033 -3.180156 14.282877 -0.826594 6.952496 -0.000000 -12.690593 -0.000001 16.399605 -17.772970 2.633386 1.665665 -1.955920 -2.878297 4.727794 -4.170584 4.993919 11.020511 0.000001 -0.000000 12.109032 -3.735715 -2.866778 0.000000 -0.000000 0.000000 1.291985 -1.928548 -1.498088 14.800115 0.567467 3.865604 14.242553 -1.341738 -6.660648 19.631935 0.143921 -0.648243 49.826385 -0.757775 -5.891938 0.353029 -1.511150 -0.031940 20.222769 3.684305 2.316629 18.787249 0.000001 -0.000001 10.751608 -0.479870 1.397903 0.000000 -0.000000 0.000000 3.273804 0.305947 -0.580110 21.486790 11.830364 2.266131 8.162915 0.000000 -0.000000 18.399052 -3.798986 -4.940567 0.000003 0.000000 -0.000001 9.980690 12.873878 -3.632812 -0.191214 -0.845098 68.762581 -4.731055 15.717773 -4.614210 2.010132 -1.939478 -3.351138 0.000000 -0.000000 0.000002 9.896373 -5.121679 -24.863806 -0.331991 -0.476956 39.847675 -5.541674 -7.781159 -13.284579 -1.435130 0.864132 1.058694 0.000000 -0.000000 -0.000001
0.000000 0.000000 0.000000 0.000000 -0.000000 0.000000 -62.398120 -5.529673 687.848965 -1.542867 -6.042174 -2.493664 -1.293464 -0.761171 -0.434218 -1.034196 -4.129763 -4.950089 0.935737 -6.433424 11.823560 9.011108 -0.767179 6.816542 0.198685 3.861247 -3.674765 -1.293687 4.353891 -6.166399 0.000077 -0.000022 0.000006 -0.019791 0.008034 -0.055415 0.627627 -3.701025 -10.642691 -0.662611 3.721169 -10.625267 -6.196827 -8.616772 19.548763 -61.592285 10.932969 2.987758 -175.776184 -58.273281 176.433365 -20.443748 -10.536325 -21.329048 -5.882102 9.861279 0.702590 -10.936861 -0.360574 7.156197 0.000000 8.774815 -0.000000 -16.867388 18.676228 5.966469 -1.844031 2.498503 -2.507276 -10.163590 4.678941 4.621104 -20.975996 -0.000001 0.000001 -21.226254 2.451698 -3.593995 0.000000 -0.000006 -0.000000 -1.362681 2.240797 -0.746323 -21.334892 0.584910 3.008319 -13.821196 -0.000001 0.000001 -23.887129 -0.249075 -0.839485 -60.744629 2.538576 -1.270002 -0.294025 1.679686 0.833255 -14.218195 0.093215 1.300579 -34.212002 -0.287561 0.967166 -20.033176 0.964536 1.212838 0.000000 -0.000000 0.000000 -3.440387 0.788233 0.501655 -15.928172 -3.167306 2.999703 -6.338817 -0.000000 0.000001 -18.123419 3.648181 -4.905662 -0.000004 0.000000 -0.000002 20.398655 -4.150800 17.791029 53.763767 -6.443203 2.399680 177.853043 58.620995 178.242477 6.121668 11.786651 -15.891588 2.243540 -5.255033 -3.180156 14.282877 -0.826594 6.952496 -0.000000 -12.690593 -0.000001 16.199373 -17.720785 2.667782 1.665665 -1.955920 -2.878297 4.727794 -4.170584 4.993919 11.020511 0.000001 -0.000000 12.109032 -3.735715 -2.866778 0.000000 -0.000000 0.000000 1.291985 -1.928548 -1.498088 14.800115 0.567467 3.865604 14.242553 -1.341738 -6.660648 19.631935 0.143921 -0.648243 49.545536 -0.583942 -5.968467 0.353029 -1.511150 -0.031940 20.222769 3.684305 2.316629 18.787249 0.000001 -0.000001 10.751608 -0.479870 1.397903 0.000000 -0.000000 0.000000 3.273804 0.305947 -0.580110 21.486790 11.830364 2.266131 8.162915 0.000000 -0.000000 18.399052 -3.798986 -4.940567 0.000003 0.000000 -0.000001 7.132506 12.542444 -8.589454 -0.131469 -0.468463 67.448662 -1.761246 19.240349 -5.212165 2.010371 -1.937100 -3.643239 0.000000 -0.000000 0.000002 8.390285 -5.424311 -19.848171 -0.320092 -0.470257 38.160076 -4.314538 -7.643837 -16.483126 -1.435932 0.824886 0.655617 0.000000 -0.000000 -0.000001
0.000000 0.000000 0.000000 0.000000 -0.000000 0.000000 -62.398120 -4.786684 687.848965 -0.296834 -5.987793 -2.818330 -1.414054 -0.563939 -0.391255 -1.071083 -3.075374 -4.889446 0.295504 -5.421060 11.312546 8.360762 -0.589573 6.484009 -0.013847 3.557671 -3.623253 -0.629574 3.728930 -5.924070 0.000077 -0.000022 0.000006 -0.014926 0.092957 -0.036673 0.644549 -3.626943 -10.679193 -0.670443 3.815441 -10.678793 -6.217012 -7.386803 19.509111 -63.702076 12.320537 3.012086 -175.319305 -60.652313 175.744507 -20.113913 -10.135272 -22.508991 -5.882102 9.861279 0.702590 -10.936861 -0.360574 7.156197 0.000000 8.774815 -0.000000 -16.931116 18.708744 5.934283 -1.844031 2.498503 -2.507276 -10.163590 4.678941 4.621104 -20.975996 -0.000001 0.000001 -21.226254 2.451698 -3.593995 0.000000 -0.000006 -0.000000 -1.362681 2.240797 -0.746323 -21.334892 0.584910 3.008319 -13.821196 -0.000001 0.000001 -23.887129 -0.249075 -0.839485 -61.053265 2.503046 -1.296414 -0.294025 1.679686 0.833255 -14.218195 0.093215 1.300579 -34.212002 -0.287561 0.967166 -20.033176 0.964536 1.212838 0.000000 -0.000000 0.000000 -3.440387 0.788233 0.501655 -15.928172 -3.167306 2.999703 -6.338817 -0.000000 0.000001 -18.123419 3.648181 -4.905662 -0.000004 0.000000 -0.000002 19.267433 -2.491346 18.102468 54.071678 -3.186250 2.618361 178.012115 59.057068 178.219620 5.365248 12.156332 -15.883607 2.243540 -5.255033 -3.180156 14.282877 -0.826594 6.952496 -0.000000 -12.690593 -0.000001 16.067854 -17.686157 2.700646 1.665665 -1.955920 -2.878297 4.727794 -4.170584 4.993919 11.020511 0.000001 -0.000000 12.109032 -3.735715 -2.866778 0.000000 -0.000000 0.000000 1.291985 -1.928548 -1.498088 14.800115 0.567467 3.865604 14.242553 -1.341738 -6.660648 19.631935 0.143921 -0.648243 49.412457 -0.373069 -6.045477 0.353029 -1.511150 -0.031940 20.222769 3.684305 2.316629 18.787249 0.000001 -0.000001 10.751608 -0.479870 1.397903 0.000000 -0.000000 0.000000 3.273804 0.305947 -0.580110 21.486790 11.830364 2.266131 8.162915 0.000000 -0.000000 18.399052 -3.798986 -4.940567 0.000003 0.000000 -0.000001 4.199274 11.057531 -12.525137 -0.017364 -0.087871 64.851860 0.747143 21.872068 -5.560151 2.045945 -1.983396 -3.788475 0.000000 -0.000000 0.000002 6.589075 -5.819437 -14.491218 -0.275008 -0.471045 36.053238 -3.308320 -7.062960 -19.163385 -1.434341 0.759690 0.250989 0.000000 -0.000000 -0.000001
0.000000 0.000000 0.000000 0.000000 -0.000000 0.000000 -62.398120 -4.520126 687.848965 0.798794 -5.932604 -2.965065 -1.375422 -0.311129 -0.388240 -1.042555 -1.990675 -4.861181 -0.258651 -4.283807 10.893016 7.515407 -0.287200 6.074364 -0.194049 3.415336 -3.599716 0.071505 3.194811 -5.633162 0.000077 -0.000022 0.000006 -0.010850 0.124629 -0.023446 0.645173 -3.599239 -10.688127 -0.663801 3.850385 -10.700195 -6.587834 -6.193624 19.296080 -65.248642 14.158555 2.757994 -175.658508 -61.823227 175.840775 -19.488045 -10.597820 -24.459730 -5.882102 9.861279 0.702590 -10.936861 -0.360574 7.156197 0.000000 8.774815 -0.000000 -17.147322 18.679403 5.807583 -1.844031 2.498503 -2.507276 -10.163590 4.678941 4.621104 -20.975996 -0.000001 0.000001 -21.226254 2.451698 -3.593995 0.000000 -0.000006 -0.000000 -1.362681 2.240797 -0.746323 -21.334892 0.584910 3.008319 -13.821196 -0.000001 0.000001 -23.887129 -0.249075 -0.839485 -61.433392 2.444522 -1.334006 -0.294025 1.679686 0.833255 -14.218195 0.093215 1.300579 -34.212002 -0.287561 0.967166 -20.033176 0.964536 1.212838 0.000000 -0.000000 0.000000 -3.440387 0.788233 0.501655 -15.928172 -3.167306 2.999703 -6.338817 -0.000000 0.000001 -18.123419 3.648181 -4.905662 -0.000004 0.000000 -0.000002 18.242794 -0.296328 18.137640 52.666241 -0.227546 2.430569 178.322418 59.201874 178.552200 4.123450 12.830321 -16.250109 2.243540 -5.255033 -3.180156 14.282877 -0.826594 6.952496 -0.000000 -12.690593 -0.000001 16.017794 -17.776936 2.781851 1.665665 -1.955920 -2.878297 4.727794 -4.170584 4.993919 11.020511 0.000001 -0.000000 12.109032 -3.735715 -2.866778 0.000000 -0.000000 0.000000 1.291985 -1.928548 -1.498088 14.800115 0.567467 3.865604 14.242553 -1.341738 -6.660648 19.631935 0.143921 -0.648243 49.508373 -0.304950 -6.160242 0.353029 -1.511150 -0.031940 20.222769 3.684305 2.316629 18.787249 0.000001 -0.000001 10.751608 -0.479870 1.397903 0.000000 -0.000000 0.000000 3.273804 0.305947 -0.580110 21.486790 11.830364 2.266131 8.162915 0.000000 -0.000000 18.399052 -3.798986 -4.940567 0.000003 0.000000 -0.000001 1.882698 8.332324 -16.379822 0.097422 0.229863 63.573559 3.204656 24.809059 -5.709313 2.086795 -2.061986 -3.683712 0.000000 -0.000000 0.000002 4.876084 -6.248621 -10.280239 -0.236319 -0.469310 35.545410 -2.518391 -6.490284 -21.021841 -1.429671 0.676024 -0.226493 0.000000 -0.000000 -0.000001
0.000000 0.000000 0.000000 0.000000 -0.000000 0.000000 -62.398120 -4.898533 687.848965 1.526124 -5.899348 -2.863406 -1.020963 0.012491 -0.402674 -0.985385 -1.034186 -4.826246 -0.620870 -3.074095 10.661321 6.356005 0.212666 5.545981 -0.211926 3.301715 -3.597698 0.728630 2.753884 -5.673123 0.000077 -0.000022 0.000006 -0.006497 0.099802 -0.020898 0.651338 -3.622559 -10.681810 -0.662611 3.824664 -10.701013 -7.513024 -4.959557 18.888550 -65.950310 16.124155 2.267953 -176.783997 -62.756756 176.774353 -19.202383 -11.387263 -26.110474 -5.882102 9.861279 0.702590 -10.936861 -0.360574 7.156197 0.000000 8.774815 -0.000000 -17.216637 18.607861 5.743842 -1.844031 2.498503 -2.507276 -10.163590 4.678941 4.621104 -20.975996 -0.000001 0.000001 -21.226254 2.451698 -3.593995 0.000000 -0.000006 -0.000000 -1.362681 2.240797 -0.746323 -21.334892 0.584910 3.008319 -13.821196 -0.000001 0.000001 -23.887129 -0.249075 -0.839485 -61.504261 2.421207 -1.277194 -0.294025 1.679686 0.833255 -14.218195 0.093215 1.300579 -34.212002 -0.287561 0.967166 -20.033176 0.964536 1.212838 0.000000 -0.000000 0.000000 -3.440387 0.788233 0.501655 -15.928172 -3.167306 2.999703 -6.338817 -0.000000 0.000001 -18.123419 3.648181 -4.905662 -0.000004 0.000000 -0.000002 17.119289 2.350663 17.864189 49.928806 3.249424 2.170958 178.976532 59.455048 179.298340 2.309906 13.811927 -16.915884 2.243540 -5.255033 -3.180156 14.282877 -0.826594 6.952496 -0.000000 -12.690593 -0.000001 15.949180 -17.822233 2.893973 1.665665 -1.955920 -2.878297 4.727794 -4.170584 4.993919 11.020511 0.000001 -0.000000 12.109032 -3.735715 -2.866778 0.000000 -0.000000 0.000000 1.291985 -1.928548 -1.498088 14.800115 0.567467 3.865604 14.242553 -1.341738 -6.660648 19.631935 0.143921 -0.648243 49.693115 -0.424387 -6.208587 0.353029 -1.511150 -0.031940 20.222769 3.684305 2.316629 18.787249 0.000001 -0.000001 10.751608 -0.479870 1.397903 0.000000 -0.000000 0.000000 3.273804 0.305947 -0.580110 21.486790 11.830364 2.266131 8.162915 0.000000 -0.000000 18.399052 -3.798986 -4.940567 0.000003 0.000000 -0.000001 0.709866 5.695056 -20.824598 0.164166 0.384871 65.267700 5.039467 26.912161 -5.448062 2.085537 -2.128471 -3.398651 0.000000 -0.000000 0.000002 3.461599 -6.482093 -7.048982 -0.207018 -0.427254 36.439888 -1.651370 -5.940241 -23.134705 -1.420210 0.651710 -0.599191 0.000000 -0.000000 -0.000001
0.000000 0.000000 0.000000 0.000000 -0.000000 0.000000 -62.398120 -5.697826 687.848965 1.697409 -5.900739 -2.544539 -0.298268 0.379402 -0.423536 -0.894242 -0.148550 -4.790649 -0.701465 -1.977733 10.624226 4.767138 0.912297 5.028367 -0.124099 3.075898 -3.591484 1.383437 2.462769 -6.208794 0.000077 -0.000022 0.000006 -0.002827 0.079748 -0.024712 0.680512 -3.637406 -10.664843 -0.686557 3.800731 -10.685967 -8.712622 -3.494989 18.607733 -66.146271 17.669258 1.390086 -178.280273 -63.987297 178.074661 -18.910883 -11.927281 -26.700987 -5.882102 9.861279 0.702590 -10.936861 -0.360574 7.156197 0.000000 8.774815 -0.000000 -16.988529 18.389116 5.917874 -1.844031 2.498503 -2.507276 -10.163590 4.678941 4.621104 -20.975996 -0.000001 0.000001 -21.226254 2.451698 -3.593995 0.000000 -0.000006 -0.000000 -1.362681 2.240797 -0.746323 -21.334892 0.584910 3.008319 -13.821196 -0.000001 0.000001 -23.887129 -0.249075 -0.839485 -61.464600 2.397412 -1.119555 -0.294025 1.679686 0.833255 -14.218195 0.093215 1.300579 -34.212002 -0.287561 0.967166 -20.033176 0.964536 1.212838 0.000000 -0.000000 0.000000 -3.440387 0.788233 0.501655 -15.928172 -3.167306 2.999703 -6.338817 -0.000000 0.000001 -18.123419 3.648181 -4.905662 -0.000004 0.000000 -0.000002 15.297283 5.155467 17.323538 46.760288 7.698334 1.970875 179.531586 60.441193 179.920670 0.213858 14.804739 -17.126480 2.243540 -5.255033 -3.180156 14.282877 -0.826594 6.952496 -0.000000 -12.690593 -0.000001 15.732784 -17.836815 3.020089 1.665665 -1.955920 -2.878297 4.727794 -4.170584 4.993919 11.020511 0.000001 -0.000000 12.109032 -3.735715 -2.866778 0.000000 -0.000000 0.000000 1.291985 -1.928548 -1.498088 14.800115 0.567467 3.865604 14.242553 -1.341738 -6.660648 19.631935 0.143921 -0.648243 49.750843 -0.620479 -6.197458 0.353029 -1.511150 -0.031940 20.222769 3.684305 2.316629 18.787249 0.000001 -0.000001 10.751608 -0.479870 1.397903 0.000000 -0.000000 0.000000 3.273804 0.305947 -0.580110 21.486790 11.830364 2.266131 8.162915 0.000000 -0.000000 18.399052 -3.798986 -4.940567 0.000003 0.000000 -0.000001 0.890930 4.806832 -25.456648 0.156528 0.349459 68.219101 4.098719 25.424425 -6.352118 2.014896 -2.165437 -3.398145 0.000000 -0.000000 0.000002 2.571059 -6.082217 -3.726328 -0.184476 -0.346483 36.788998 -0.681313 -5.494806 -25.606644 -1.410989 0.668825 -0.626505 0.000000 -0.000000 -0.000001
0.000000 0.000000 0.000000 0.000000 -0.000000 0.000000 -62.398120 -6.308940 687.848965 1.780507 -5.917341 -1.898063 0.512539 0.711063 -0.540371 -0.817731 0.743628 -4.849484 -0.781938 -1.000210 10.611235 3.103332 1.647297 4.353776 0.007656 2.748110 -3.492406 1.924957 2.152837 -6.746547 0.000077 -0.000022 0.000006 -0.007406 0.110193 -0.019338 0.713082 -3.603844 -10.644013 -0.730627 3.825740 -10.677476 -9.652394 -2.030616 18.530951 -66.287231 18.824331 0.296072 -179.622330 -65.265633 179.316879 -18.249506 -11.656811 -25.269159 -5.882102 9.861279 0.702590 -10.936861 -0.360574 7.156197 0.000000 8.774815 -0.000000 -16.806711 18.118214 6.051725 -1.844031 2.498503 -2.507276 -10.163590 4.678941 4.621104 -20.975996 -0.000001 0.000001 -21.226254 2.451698 -3.593995 0.000000 -0.000006 -0.000000 -1.362681 2.240797 -0.746323 -21.334892 0.584910 3.008319 -13.821196 -0.000001 0.000001 -23.887129 -0.249075 -0.839485 -61.628017 2.270889 -1.024998 -0.294025 1.679686 0.833255 -14.218195 0.093215 1.300579 -34.212002 -0.287561 0.967166 -20.033176 0.964536 1.212838 0.000000 -0.000000 0.000000 -3.440387 0.788233 0.501655 -15.928172 -3.167306 2.999703 -6.338817 -0.000000 0.000001 -18.123419 3.648181 -4.905662 -0.000004 0.000000 -0.000002 12.687594 7.737231 16.726089 44.574875 12.654965 1.770612 179.468597 61.793697 179.925873 -1.616617 15.048686 -16.132029 2.243540 -5.255033 -3.180156 14.282877 -0.826594 6.952496 -0.000000 -12.690593 -0.000001 15.745818 -17.902435 2.979147 1.665665 -1.955920 -2.878297 4.727794 -4.170584 4.993919 11.020511 0.000001 -0.000000 12.109032 -3.735715 -2.866778 0.000000 -0.000000 0.000000 1.291985 -1.928548 -1.498088 14.800115 0.567467 3.865604 14.242553 -1.341738 -6.660648 19.631935 0.143921 -0.648243 49.702091 -0.718186 -6.188241 0.353029 -1.511150 -0.031940 20.222769 3.684305 2.316629 18.787249 0.000001 -0.000001 10.751608 -0.479870 1.397903 0.000000 -0.000000 0.000000 3.273804 0.305947 -0.580110 21.486790 11.830364 2.266131 8.162915 0.000000 -0.000000 18.399052 -3.798986 -4.940567 0.000003 0.000000 -0.000001 1.192750 5.247612 -29.856689 0.120807 0.219579 69.303436 1.532627 21.962574 -8.113896 1.903977 -2.164277 -3.614392 0.000000 -0.000000 0.000002 1.679363 -5.170246 0.543187 -0.180552 -0.277699 34.393929 0.215820 -5.333705 -27.202620 -1.418481 0.659151 -0.958113 0.000000 -0.000000 -0.000001
0.000000 0.000000 0.000000 0.000000 -0.000000 0.000000 -62.398120 -6.188724 687.848965 2.655077 -5.933775 -0.992452 0.683738 0.943393 -0.911330 -0.809675 1.705265 -5.017645 -1.310502 -0.203914 10.476941 1.772018 2.072604 3.682241 0.058532 2.404579 -3.518575 2.488103 1.369462 -6.507917 0.000077 -0.000022 0.000006 -0.011648 0.126977 -0.037458 0.717387 -3.585639 -10.671180 -0.745469 3.839343 -10.719108 -10.228740 -0.967001 18.343307 -66.108307 20.266781 -0.431699 179.677963 -66.003098 179.889557 -17.796179 -11.146210 -22.747780 -5.882102 9.861279 0.702590 -10.936861 -0.360574 7.156197 0.000000 8.774815 -0.000000 -16.724670 18.058811 6.161395 -1.844031 2.498503 -2.507276 -10.163590 4.678941 4.621104 -20.975996 -0.000001 0.000001 -21.226254 2.451698 -3.593995 0.000000 -0.000006 -0.000000 -1.362681 2.240797 -0.746323 -21.334892 0.584910 3.008319 -13.821196 -0.000001 0.000001 -23.887129 -0.249075 -0.839485 -61.781910 2.313185 -0.966954 -0.294025 1.679686 0.833255 -14.218195 0.093215 1.300579 -34.212002 -0.287561 0.967166 -20.033176 0.964536 1.212838 0.000000 -0.000000 0.000000 -3.440387 0.788233 0.501655 -15.928172 -3.167306 2.999703 -6.338817 -0.000000 0.000001 -18.123419 3.648181 -4.905662 -0.000004 0.000000 -0.000002 10.621486 9.591507 16.315248 44.055157 16.287413 1.795756 179.442688 62.244862 -179.875763 -2.572194 14.874397 -15.608354 2.243540 -5.255033 -3.180156 14.282877 -0.826594 6.952496 -0.000000 -12.690593 -0.000001 15.938404 -17.997005 2.982406 1.665665 -1.955920 -2.878297 4.727794 -4.170584 4.993919 11.020511 0.000001 -0.000000 12.109032 -3.735715 -2.866778 0.000000 -0.000000 0.000000 1.291985 -1.928548 -1.498088 14.800115 0.567467 3.865604 14.242553 -1.341738 -6.660648 19.631935 0.143921 -0.648243 49.907833 -0.933259 -6.081970 0.353029 -1.511150 -0.031940 20.222769 3.684305 2.316629 18.787249 0.000001 -0.000001 10.751608 -0.479870 1.397903 0.000000 -0.000000 0.000000 3.273804 0.305947 -0.580110 21.486790 11.830364 2.266131 8.162915 0.000000 -0.000000 18.399052 -3.798986 -4.940567 0.000003 0.000000 -0.000001 -0.048267 5.480498 -33.414886 0.118423 0.122354 66.497719 0.078837 19.989227 -8.767574 1.829220 -2.140637 -3.958347 0.000000 -0.000000 0.000002 0.002112 -4.289324 6.518185 -0.181160 -0.104807 28.010303 1.267848 -5.472228 -25.863201 -1.418675 0.708223 -2.487330 0.000000 -0.000000 -0.000001
0.000000 0.000000 0.000000 0.000000 -0.000000 0.000000 -62.398120 -5.158186 687.848965 3.754082 -5.985377 -0.008500 0.512558 1.023494 -1.595597 -0.835201 2.546659 -5.286875 -2.032934 0.499451 10.275739 0.885753 2.418947 3.163740 -0.039198 2.028985 -3.620090 3.012228 0.343402 -5.531386 0.000077 -0.000022 0.000006 -0.013344 0.129674 -0.054882 0.709403 -3.575677 -10.685127 -0.741653 3.831550 -10.745726 -10.862472 -0.202658 17.913517 -65.469238 22.137703 -0.802170 179.979370 -66.060997 179.655075 -17.720928 -11.246854 -21.231846 -5.882102 9.861279 0.702590 -10.936861 -0.360574 7.156197 0.000000 8.774815 -0.000000 -16.511209 18.130688 6.230912 -1.844031 2.498503 -2.507276 -10.163590 4.678941 4.621104 -20.975996 -0.000001 0.000001 -21.226254 2.451698 -3.593995 0.000000 -0.000006 -0.000000 -1.362681 2.240797 -0.746323 -21.334892 0.584910 3.008319 -13.821196 -0.000001 0.000001 -23.887129 -0.249075 -0.839485 -61.652390 2.372657 -0.962872 -0.294025 1.679686 0.833255 -14.218195 0.093215 1.300579 -34.212002 -0.287561 0.967166 -20.033176 0.964536 1.212838 0.000000 -0.000000 0.000000 -3.440387 0.788233 0.501655 -15.928172 -3.167306 2.999703 -6.338817 -0.000000 0.000001 -18.123419 3.648181 -4.905662 -0.000004 0.000000 -0.000002 9.871085 10.583490 16.281309 44.686974 18.099503 2.238556 179.494003 61.659035 -179.688568 -2.884714 15.003093 -15.608203 2.243540 -5.255033 -3.180156 14.282877 -0.826594 6.952496 -0.000000 -12.690593 -0.000001 16.101007 -17.934103 2.903537 1.665665 -1.955920 -2.878297 4.727794 -4.170584 4.993919 11.020511 0.000001 -0.000000 12.109032 -3.735715 -2.866778 0.000000 -0.000000 0.000000 1.291985 -1.928548 -1.498088 14.800115 0.567467 3.865604 14.242553 -1.341738 -6.660648 19.631935 0.143921 -0.648243 49.920517 -0.982773 -5.979278 0.353029 -1.511150 -0.031940 20.222769 3.684305 2.316629 18.787249 0.000001 -0.000001 10.751608 -0.479870 1.397903 0.000000 -0.000000 0.000000 3.273804 0.305947 -0.580110 21.486790 11.830364 2.266131 8.162915 0.000000 -0.000000 18.399052 -3.798986 -4.940567 0.000003 0.000000 -0.000001 -1.974371 5.087258 -35.326847 0.131521 0.135179 59.475620 -1.054160 18.634247 -8.250599 1.791252 -2.079945 -4.313257 0.000000 -0.000000 0.000002 -1.618802 -3.259161 12.306567 -0.164830 -0.065349 21.101570 2.176712 -5.777531 -20.285053 -1.405878 0.711293 -6.951323 0.000000 -0.000000 -0.000001
0.000000 0.000000 0.000000 0.000000 -0.000000 0.000000 -62.398120 -3.526162 687.848965 4.673537 -6.069833 0.945404 0.217867 1.063430 -2.474726 -0.882508 3.180768 -5.710613 -2.736062 1.145066 9.917847 0.173177 2.650597 3.030493 -0.215477 1.456368 -3.691300 3.605717 -0.530929 -4.504522 0.000077 -0.000022 0.000006 -0.010111 0.177483 -0.054499 0.716891 -3.520408 -10.683260 -0.743184 3.872122 -10.755882 -10.949004 0.013804 17.670839 -65.309608 24.073238 -0.597417 -179.658478 -65.482208 179.557434 -17.789171 -11.525303 -21.302568 -5.882102 9.861279 0.702590 -10.936861 -0.360574 7.156197 0.000000 8.774815 -0.000000 -16.302652 18.322817 6.202323 -1.844031 2.498503 -2.507276 -10.163590 4.678941 4.621104 -20.975996 -0.000001 0.000001 -21.226254 2.451698 -3.593995 0.000000 -0.000006 -0.000000 -1.362681 2.240797 -0.746323 -21.334892 0.584910 3.008319 -13.821196 -0.000001 0.000001 -23.887129 -0.249075 -0.839485 -61.424213 2.475439 -1.091337 -0.294025 1.679686 0.833255 -14.218195 0.093215 1.300579 -34.212002 -0.287561 0.967166 -20.033176 0.964536 1.212838 0.000000 -0.000000 0.000000 -3.440387 0.788233 0.501655 -15.928172 -3.167306 2.999703 -6.338817 -0.000000 0.000001 -18.123419 3.648181 -4.905662 -0.000004 0.000000 -0.000002 9.573920 10.749835 16.488794 46.974823 18.090790 3.682614 179.337646 60.201015 -179.654434 -2.785969 15.181291 -16.878225 2.243540 -5.255033 -3.180156 14.282877 -0.826594 6.952496 -0.000000 -12.690593 -0.000001 16.127611 -17.849232 2.778437 1.665665 -1.955920 -2.878297 4.727794 -4.170584 4.993919 11.020511 0.000001 -0.000000 12.109032 -3.735715 -2.866778 0.000000 -0.000000 0.000000 1.291985 -1.928548 -1.498088 14.800115 0.567467 3.865604 14.242553 -1.341738 -6.660648 19.631935 0.143921 -0.648243 49.972462 -1.093841 -5.929946 0.353029 -1.511150 -0.031940 20.222769 3.684305 2.316629 18.787249 0.000001 -0.000001 10.751608 -0.479870 1.397903 0.000000 -0.000000 0.000000 3.273804 0.305947 -0.580110 21.486790 11.830364 2.266131 8.162915 0.000000 -0.000000 18.399052 -3.798986 -4.940567 0.000003 0.000000 -0.000001 -4.003046 4.867153 -35.071083 0.232697 0.228828 48.308689 -3.060342 17.035116 -7.107196 1.775420 -2.031967 -4.239891 0.000000 -0.000000 0.000002 -3.046386 -3.089987 17.329882 -0.143420 0.008314 14.997654 2.473962 -5.640479 -10.374743 -1.411806 0.696990 -14.801201 0.000000 -0.000000 -0.000001
0.000000 0.000000 0.000000 0.000000 -0.000000 0.000000 -62.398120 -1.821428 687.848965 4.831124 -6.131066 1.626353 0.237350 1.017715 -3.273461 -0.890203 3.396742 -6.093948 -3.207243 1.721393 9.413862 -0.384212 2.653031 3.210199 -0.347989 1.126178 -3.685990 3.989944 -1.035834 -3.704261 0.000077 -0.000022 0.000006 -0.008820 0.206928 -0.019617 0.741221 -3.491335 -10.689722 -0.764871 3.902052 -10.752468 -10.099109 -0.037627 17.687218 -66.118835 25.686733 -0.078828 -179.119965 -64.566071 179.300415 -18.254484 -11.590763 -21.910141 -5.882102 9.861279 0.702590 -10.936861 -0.360574 7.156197 0.000000 8.774815 -0.000000 -16.062620 18.607182 6.167357 -1.844031 2.498503 -2.507276 -10.163590 4.678941 4.621104 -20.975996 -0.000001 0.000001 -21.226254 2.451698 -3.593995 0.000000 -0.000006 -0.000000 -1.362681 2.240797 -0.746323 -21.334892 0.584910 3.008319 -13.821196 -0.000001 0.000001 -23.887129 -0.249075 -0.839485 -61.180477 2.555721 -1.282802 -0.294025 1.679686 0.833255 -14.218195 0.093215 1.300579 -34.212002 -0.287561 0.967166 -20.033176 0.964536 1.212838 0.000000 -0.000000 0.000000 -3.440387 0.788233 0.501655 -15.928172 -3.167306 2.999703 -6.338817 -0.000000 0.000001 -18.123419 3.648181 -4.905662 -0.000004 0.000000 -0.000002 9.004629 10.402921 16.816792 50.577091 16.852423 6.339000 179.414581 58.148216 -179.633850 -1.648807 15.400649 -18.200089 2.243540 -5.255033 -3.180156 14.282877 -0.826594 6.952496 -0.000000 -12.690593 -0.000001 16.355230 -17.781553 2.590647 1.665665 -1.955920 -2.878297 4.727794 -4.170584 4.993919 11.020511 0.000001 -0.000000 12.109032 -3.735715 -2.866778 0.000000 -0.000000 0.000000 1.291985 -1.928548 -1.498088 14.800115 0.567467 3.865604 14.242553 -1.341738 -6.660648 19.631935 0.143921 -0.648243 50.161732 -1.066535 -5.846832 0.353029 -1.511150 -0.031940 20.222769 3.684305 2.316629 18.787249 0.000001 -0.000001 10.751608 -0.479870 1.397903 0.000000 -0.000000 0.000000 3.273804 0.305947 -0.580110 21.486790 11.830364 2.266131 8.162915 0.000000 -0.000000 18.399052 -3.798986 -4.940567 0.000003 0.000000 -0.000001 -5.491944 5.795146 -32.398605 0.225548 0.298439 33.734436 -7.816267 13.692616 -6.912127 1.763070 -2.020537 -3.889356 0.000000 -0.000000 0.000002 -3.656515 -3.473540 20.814728 -0.090669 0.014053 11.416440 2.416250 -5.380464 1.910852 -1.445747 0.671750 -22.051321 0.000000 -0.000000 -0.000001
0.000000 0.000000 0.000000 0.000000 -0.000000 0.000000 -62.398120 -0.510324 687.848965 3.593666 -6.108810 1.983585 1.036491 0.974357 -3.783571 -0.778521 3.208759 -6.332754 -3.110766 2.197591 8.987148 -0.881029 2.611745 3.369148 -0.512886 1.029217 -3.636620 4.057002 -1.305036 -3.035529 0.000077 -0.000022 0.000006 -0.007542 0.203153 0.009921 0.751515 -3.507201 -10.719059 -0.773181 3.908913 -10.745671 -8.881151 -0.081295 17.841864 -67.795609 26.853329 0.090867 -178.170685 -63.543301 178.930527 -18.751179 -11.557488 -23.016888 -5.882102 9.861279 0.702590 -10.936861 -0.360574 7.156197 0.000000 8.774815 -0.000000 -15.997762 18.678616 6.084702 -1.844031 2.498503 -2.507276 -10.163590 4.678941 4.621104 -20.975996 -0.000001 0.000001 -21.226254 2.451698 -3.593995 0.000000 -0.000006 -0.000000 -1.362681 2.240797 -0.746323 -21.334892 0.584910 3.008319 -13.821196 -0.000001 0.000001 -23.887129 -0.249075 -0.839485 -60.949837 2.497358 -1.412950 -0.294025 1.679686 0.833255 -14.218195 0.093215 1.300579 -34.212002 -0.287561 0.967166 -20.033176 0.964536 1.212838 0.000000 -0.000000 0.000000 -3.440387 0.788233 0.501655 -15.928172 -3.167306 2.999703 -6.338817 -0.000000 0.000001 -18.123419 3.648181 -4.905662 -0.000004 0.000000 -0.000002 7.978939 10.113833 17.215914 54.150269 14.897768 9.292264 179.381790 55.598465 -179.708405 0.583840 15.368046 -19.474773 2.243540 -5.255033 -3.180156 14.282877 -0.826594 6.952496 -0.000000 -12.690593 -0.000001 16.558538 -17.703943 2.430762 1.665665 -1.955920 -2.878297 4.727794 -4.170584 4.993919 11.020511 0.000001 -0.000000 12.109032 -3.735715 -2.866778 0.000000 -0.000000 0.000000 1.291985 -1.928548 -1.498088 14.800115 0.567467 3.865604 14.242553 -1.341738 -6.660648 19.631935 0.143921 -0.648243 50.274166 -0.873329 -5.796418 0.353029 -1.511150 -0.031940 20.222769 3.684305 2.316629 18.787249 0.000001 -0.000001 10.751608 -0.479870 1.397903 0.000000 -0.000000 0.000000 3.273804 0.305947 -0.580110 21.486790 11.830364 2.266131 8.162915 0.000000 -0.000000 18.399052 -3.798986 -4.940567 0.000003 0.000000 -0.000001 -5.743135 7.899485 -28.520277 -0.006560 0.247895 18.519001 -14.216637 8.962455 -7.497657 1.640162 -2.080415 -4.116870 0.000000 -0.000000 0.000002 -2.689711 -3.851049 22.124630 -0.082504 -0.026279 12.312866 2.561098 -5.592325 12.382784 -1.396535 0.622606 -21.492220 0.000000 -0.000000 -0.000001
0.000000 0.000000 0.000000 0.000000 -0.000000 0.000000 -62.398120 -0.092234 687.848965 2.027337 -6.047758 2.011994 1.916315 0.833197 -3.792476 -0.608506 3.039124 -6.379050 -2.777245 2.362347 8.698144 -1.287546 2.697480 3.223521 -0.627329 0.728311 -3.669522 3.870849 -1.205001 -2.552018 0.000077 -0.000022 0.000006 -0.004902 0.164535 -0.009570 0.751313 -3.541161 -10.718580 -0.769379 3.863415 -10.717398 -7.765298 -0.118377 18.252371 -70.109146 27.245420 -0.644293 -177.332565 -62.806862 178.676010 -19.068142 -11.644602 -24.341274 -5.882102 9.861279 0.702590 -10.936861 -0.360574 7.156197 0.000000 8.774815 -0.000000 -15.964560 18.698030 6.070178 -1.844031 2.498503 -2.507276 -10.163590 4.678941 4.621104 -20.975996 -0.000001 0.000001 -21.226254 2.451698 -3.593995 0.000000 -0.000006 -0.000000 -1.362681 2.240797 -0.746323 -21.334892 0.584910 3.008319 -13.821196 -0.000001 0.000001 -23.887129 -0.249075 -0.839485 -60.777012 2.495245 -1.510280 -0.294025 1.679686 0.833255 -14.218195 0.093215 1.300579 -34.212002 -0.287561 0.967166 -20.033176 0.964536 1.212838 0.000000 -0.000000 0.000000 -3.440387 0.788233 0.501655 -15.928172 -3.167306 2.999703 -6.338817 -0.000000 0.000001 -18.123419 3.648181 -4.905662 -0.000004 0.000000 -0.000002 6.774082 10.182369 17.556313 56.903522 12.659812 11.525149 178.836136 52.751526 179.839996 2.975739 14.649767 -20.894991 2.243540 -5.255033 -3.180156 14.282877 -0.826594 6.952496 -0.000000 -12.690593 -0.000001 16.533649 -17.662394 2.347973 1.665665 -1.955920 -2.878297 4.727794 -4.170584 4.993919 11.020511 0.000001 -0.000000 12.109032 -3.735715 -2.866778 0.000000 -0.000000 0.000000 1.291985 -1.928548 -1.498088 14.800115 0.567467 3.865604 14.242553 -1.341738 -6.660648 19.631935 0.143921 -0.648243 50.161873 -0.732174 -5.943610 0.353029 -1.511150 -0.031940 20.222769 3.684305 2.316629 18.787249 0.000001 -0.000001 10.751608 -0.479870 1.397903 0.000000 -0.000000 0.000000 3.273804 0.305947 -0.580110 21.486790 11.830364 2.266131 8.162915 0.000000 -0.000000 18.399052 -3.798986 -4.940567 0.000003 0.000000 -0.000001 -5.199299 8.774955 -25.517286 -0.142471 0.103108 8.459179 -17.793678 6.304380 -9.110024 1.416471 -2.180568 -4.803385 0.000000 -0.000000 0.000002 -1.153457 -3.872674 20.799469 -0.150682 -0.099899 18.847446 2.737980 -6.635269 16.853529 -1.231822 0.641322 -12.876158 0.000000 -0.000000 -0.000001
0.000000 0.000000 0.000000 0.000000 -0.000000 0.000000 -62.398120 -0.829836 687.848965 1.235745 -6.006991 1.511301 2.149133 0.803618 -3.233196 -0.530820 2.887780 -6.224665 -2.501102 2.035624 8.571363 -1.505369 2.894119 3.071183 -0.680674 0.166423 -3.744202 3.638202 -0.800464 -2.420784 0.000077 -0.000022 0.000006 -0.008461 0.144139 -0.031896 0.742518 -3.556312 -10.733230 -0.768885 3.833383 -10.710182 -7.079051 -0.342422 18.727961 -72.323578 27.015854 -2.108776 -176.956482 -62.384655 178.458313 -19.071577 -11.469644 -24.940199 -5.882102 9.861279 0.702590 -10.936861 -0.360574 7.156197 0.000000 8.774815 -0.000000 -15.905744 18.818903 6.161798 -1.844031 2.498503 -2.507276 -10.163590 4.678941 4.621104 -20.975996 -0.000001 0.000001 -21.226254 2.451698 -3.593995 0.000000 -0.000006 -0.000000 -1.362681 2.240797 -0.746323 -21.334892 0.584910 3.008319 -13.821196 -0.000001 0.000001 -23.887129 -0.249075 -0.839485 -60.626366 2.635392 -1.593719 -0.294025 1.679686 0.833255 -14.218195 0.093215 1.300579 -34.212002 -0.287561 0.967166 -20.033176 0.964536 1.212838 0.000000 -0.000000 0.000000 -3.440387 0.788233 0.501655 -15.928172 -3.167306 2.999703 -6.338817 -0.000000 0.000001 -18.123419 3.648181 -4.905662 -0.000004 0.000000 -0.000002 5.626848 10.399209 17.749811 58.861210 10.538660 12.336063 177.688766 50.177078 178.843933 4.812752 13.878242 -22.593010 2.243540 -5.255033 -3.180156 14.282877 -0.826594 6.952496 -0.000000 -12.690593 -0.000001 16.495998 -17.787437 2.304439 1.665665 -1.955920 -2.878297 4.727794 -4.170584 4.993919 11.020511 0.000001 -0.000000 12.109032 -3.735715 -2.866778 0.000000 -0.000000 0.000000 1.291985 -1.928548 -1.498088 14.800115 0.567467 3.865604 14.242553 -1.341738 -6.660648 19.631935 0.143921 -0.648243 50.155663 -0.797007 -6.237462 0.353029 -1.511150 -0.031940 20.222769 3.684305 2.316629 18.787249 0.000001 -0.000001 10.751608 -0.479870 1.397903 0.000000 -0.000000 0.000000 3.273804 0.305947 -0.580110 21.486790 11.830364 2.266131 8.162915 0.000000 -0.000000 18.399052 -3.798986 -4.940567 0.000003 0.000000 -0.000001 -4.566339 7.682157 -23.584534 -0.078032 -0.031570 6.439950 -20.014288 5.600535 -11.838532 1.238453 -2.274395 -5.210112 0.000000 -0.000000 0.000002 -0.684026 -4.036923 17.826941 -0.152893 -0.153980 29.562361 2.651838 -7.680477 14.646388 -1.179781 0.714047 -7.225235 0.000000 -0.000000 -0.000001
0.000000 0.000000 0.000000 0.000000 -0.000000 0.000000 -62.398120 -2.334093 687.848965 2.555617 -6.011023 0.719457 0.847432 0.814417 -2.590433 -0.650324 2.559038 -5.990477 -2.602860 1.470116 8.868857 -1.284881 2.840303 2.892013 -0.726089 0.211079 -3.748821 3.182142 -0.785897 -2.405159 0.000077 -0.000022 0.000006 -0.006844 0.090169 -0.010544 0.699111 -3.631952 -10.768133 -0.722756 3.800102 -10.733890 -8.092438 -0.581624 18.286787 -72.083557 26.464870 -3.300920 -177.335663 -62.331554 178.678421 -18.828876 -10.844806 -24.914234 -5.882102 9.861279 0.702590 -10.936861 -0.360574 7.156197 0.000000 8.774815 -0.000000 -15.816501 18.919132 6.253669 -1.844031 2.498503 -2.507276 -10.163590 4.678941 4.621104 -20.975996 -0.000001 0.000001 -21.226254 2.451698 -3.593995 0.000000 -0.000006 -0.000000 -1.362681 2.240797 -0.746323 -21.334892 0.584910 3.008319 -13.821196 -0.000001 0.000001 -23.887129 -0.249075 -0.839485 -60.431877 2.775277 -1.536238 -0.294025 1.679686 0.833255 -14.218195 0.093215 1.300579 -34.212002 -0.287561 0.967166 -20.033176 0.964536 1.212838 0.000000 -0.000000 0.000000 -3.440387 0.788233 0.501655 -15.928172 -3.167306 2.999703 -6.338817 -0.000000 0.000001 -18.123419 3.648181 -4.905662 -0.000004 0.000000 -0.000002 5.963233 10.381640 17.688404 59.096848 8.648280 12.360411 177.610443 48.260227 178.598038 6.136318 13.665917 -24.419521 2.243540 -5.255033 -3.180156 14.282877 -0.826594 6.952496 -0.000000 -12.690593 -0.000001 16.510973 -18.071272 2.326784 1.665665 -1.955920 -2.878297 4.727794 -4.170584 4.993919 11.020511 0.000001 -0.000000 12.109032 -3.735715 -2.866778 0.000000 -0.000000 0.000000 1.291985 -1.928548 -1.498088 14.800115 0.567467 3.865604 14.242553 -1.341738 -6.660648 19.631935 0.143921 -0.648243 50.293678 -0.986251 -6.499630 0.353029 -1.511150 -0.031940 20.222769 3.684305 2.316629 18.787249 0.000001 -0.000001 10.751608 -0.479870 1.397903 0.000000 -0.000000 0.000000 3.273804 0.305947 -0.580110 21.486790 11.830364 2.266131 8.162915 0.000000 -0.000000 18.399052 -3.798986 -4.940567 0.000003 0.000000 -0.000001 -5.878736 5.233282 -23.540981 -0.151465 -0.055383 12.494822 -18.234602 5.683088 -9.289865 1.430077 -2.352203 -5.559455 0.000000 -0.000000 0.000002 -3.338755 -4.897695 13.449766 0.006171 -0.108179 42.326225 3.141520 -7.564795 8.317860 -1.196885 0.759376 -5.494077 0.000000 -0.000000 -0.000001
0.000000 0.000000 0.000000 0.000000 -0.000000 0.000000 -62.398120 -4.403421 687.848965 5.716380 -5.942601 -0.604823 -1.085518 0.527414 -1.629920 -0.997184 2.469971 -5.643976 -3.991135 0.864047 9.891129 -0.268769 2.494243 2.574971 -0.752034 0.313971 -3.729009 2.543773 -0.845527 -3.811541 0.000077 -0.000022 0.000006 0.005645 -0.002126 -0.038281 0.694054 -3.717375 -10.680696 -0.694841 3.703672 -10.683504 -10.823754 -0.961146 17.633297 -68.364891 24.505089 -3.764337 -178.376648 -62.968586 179.465057 -18.247026 -10.707458 -26.511879 -5.882102 9.861279 0.702590 -10.936861 -0.360574 7.156197 0.000000 8.774815 -0.000000 -15.763546 18.939993 6.239372 -1.844031 2.498503 -2.507276 -10.163590 4.678941 4.621104 -20.975996 -0.000001 0.000001 -21.226254 2.451698 -3.593995 0.000000 -0.000006 -0.000000 -1.362681 2.240797 -0.746323 -21.334892 0.584910 3.008319 -13.821196 -0.000001 0.000001 -23.887129 -0.249075 -0.839485 -60.576832 2.783027 -1.319766 -0.294025 1.679686 0.833255 -14.218195 0.093215 1.300579 -34.212002 -0.287561 0.967166 -20.033176 0.964536 1.212838 0.000000 -0.000000 0.000000 -3.440387 0.788233 0.501655 -15.928172 -3.167306 2.999703 -6.338817 -0.000000 0.000001 -18.123419 3.648181 -4.905662 -0.000004 0.000000 -0.000002 8.020491 9.730807 17.634283 57.903908 7.716794 11.928139 178.320557 47.900932 179.197220 6.642568 14.471880 -25.582157 2.243540 -5.255033 -3.180156 14.282877 -0.826594 6.952496 -0.000000 -12.690593 -0.000001 16.738556 -17.966444 2.437382 1.665665 -1.955920 -2.878297 4.727794 -4.170584 4.993919 11.020511 0.000001 -0.000000 12.109032 -3.735715 -2.866778 0.000000 -0.000000 0.000000 1.291985 -1.928548 -1.498088 14.800115 0.567467 3.865604 14.242553 -1.341738 -6.660648 19.631935 0.143921 -0.648243 49.832352 -1.110116 -6.215253 0.353029 -1.511150 -0.031940 20.222769 3.684305 2.316629 18.787249 0.000001 -0.000001 10.751608 -0.479870 1.397903 0.000000 -0.000000 0.000000 3.273804 0.305947 -0.580110 21.486790 11.830364 2.266131 8.162915 0.000000 -0.000000 18.399052 -3.798986 -4.940567 0.000003 0.000000 -0.000001 -9.359098 0.837830 -26.688332 0.046288 0.319939 25.340714 -4.943086 8.967598 -3.434806 1.728739 -2.244174 -2.882016 0.000000 -0.000000 0.000002 -8.379253 -5.574396 7.792529 0.026415 0.085029 55.420078 3.855474 -5.585217 1.329180 -1.229835 0.799120 -4.808891 0.000000 -0.000000 -0.000001
0.000000 0.000000 0.000000 0.000000 -0.000000 0.000000 -62.398120 -6.627970 687.848965 6.392023 -5.728780 -2.524965 -1.105044 0.507955 -0.314267 -1.191449 2.151478 -5.142972 -4.650689 0.263142 11.057434 0.382157 2.530353 3.199170 -0.599996 0.527699 -3.705412 1.956798 -0.775324 -6.304276 0.000077 -0.000022 0.000006 0.016666 0.093982 0.010095 0.719600 -3.616751 -10.646529 -0.700994 3.795890 -10.670654 -12.436346 -1.741290 18.109116 -63.919964 19.732841 -3.190364 -178.582809 -65.601357 179.199387 -17.161299 -11.392500 -27.974157 -5.882102 9.861279 0.702590 -10.936861 -0.360574 7.156197 0.000000 8.774815 -0.000000 -15.956776 18.776161 6.316712 -1.844031 2.498503 -2.507276 -10.163590 4.678941 4.621104 -20.975996 -0.000001 0.000001 -21.226254 2.451698 -3.593995 0.000000 -0.000006 -0.000000 -1.362681 2.240797 -0.746323 -21.334892 0.584910 3.008319 -13.821196 -0.000001 0.000001 -23.887129 -0.249075 -0.839485 -61.011719 2.522161 -1.002532 -0.294025 1.679686 0.833255 -14.218195 0.093215 1.300579 -34.212002 -0.287561 0.967166 -20.033176 0.964536 1.212838 0.000000 -0.000000 0.000000 -3.440387 0.788233 0.501655 -15.928172 -3.167306 2.999703 -6.338817 -0.000000 0.000001 -18.123419 3.648181 -4.905662 -0.000004 0.000000 -0.000002 8.182385 9.066952 18.364464 59.336128 7.483117 11.015531 178.325623 51.150623 178.952774 5.519704 15.672904 -24.261591 2.243540 -5.255033 -3.180156 14.282877 -0.826594 6.952496 -0.000000 -12.690593 -0.000001 16.432873 -18.064371 2.697466 1.665665 -1.955920 -2.878297 4.727794 -4.170584 4.993919 11.020511 0.000001 -0.000000 12.109032 -3.735715 -2.866778 0.000000 -0.000000 0.000000 1.291985 -1.928548 -1.498088 14.800115 0.567467 3.865604 14.242553 -1.341738 -6.660648 19.631935 0.143921 -0.648243 49.229244 -1.098708 -5.952180 0.353029 -1.511150 -0.031940 20.222769 3.684305 2.316629 18.787249 0.000001 -0.000001 10.751608 -0.479870 1.397903 0.000000 -0.000000 0.000000 3.273804 0.305947 -0.580110 21.486790 11.830364 2.266131 8.162915 0.000000 -0.000000 18.399052 -3.798986 -4.940567 0.000003 0.000000 -0.000001 -10.222918 -1.186094 -28.137224 0.132445 0.323643 38.617756 -0.405002 11.297590 -8.233346 1.642770 -2.111455 -0.125651 0.000000 -0.000000 0.000002 -9.360923 -3.907974 1.913462 0.050416 0.051406 65.860634 3.532935 -5.259263 -4.279448 -1.287038 0.824615 -4.700389 0.000000 -0.000000 -0.000001
0.000000 0.000000 0.000000 0.000000 -0.000000 0.000000 -62.398120 -8.025743 687.848965 6.139187 -5.556239 -4.209828 -1.001805 0.398478 0.622890 -1.201339 1.692703 -4.661807 -4.515817 -0.233109 11.829708 0.803567 2.399294 4.258738 -0.402818 0.995803 -3.620482 1.759105 -0.312010 -6.884292 0.000077 -0.000022 0.000006 0.010468 0.136008 0.063418 0.717159 -3.584535 -10.623258 -0.710257 3.851963 -10.658501 -13.378654 -2.606411 18.606365 -59.380817 14.500022 -2.382413 -179.157578 -68.801224 179.585663 -16.421408 -11.492161 -28.073025 -5.882102 9.861279 0.702590 -10.936861 -0.360574 7.156197 0.000000 8.774815 -0.000000 -15.983013 18.722488 6.541344 -1.844031 2.498503 -2.507276 -10.163590 4.678941 4.621104 -20.975996 -0.000001 0.000001 -21.226254 2.451698 -3.593995 0.000000 -0.000006 -0.000000 -1.362681 2.240797 -0.746323 -21.334892 0.584910 3.008319 -13.821196 -0.000001 0.000001 -23.887129 -0.249075 -0.839485 -61.083393 2.501705 -0.878278 -0.294025 1.679686 0.833255 -14.218195 0.093215 1.300579 -34.212002 -0.287561 0.967166 -20.033176 0.964536 1.212838 0.000000 -0.000000 0.000000 -3.440387 0.788233 0.501655 -15.928172 -3.167306 2.999703 -6.338817 -0.000000 0.000001 -18.123419 3.648181 -4.905662 -0.000004 0.000000 -0.000002 8.012304 8.172606 19.050819 61.599552 6.630349 10.654039 178.428757 57.814896 178.692657 4.252005 15.474092 -19.046732 2.243540 -5.255033 -3.180156 14.282877 -0.826594 6.952496 -0.000000 -12.690593 -0.000001 15.957625 -17.944395 2.986752 1.665665 -1.955920 -2.878297 4.727794 -4.170584 4.993919 11.020511 0.000001 -0.000000 12.109032 -3.735715 -2.866778 0.000000 -0.000000 0.000000 1.291985 -1.928548 -1.498088 14.800115 0.567467 3.865604 14.242553 -1.341738 -6.660648 19.631935 0.143921 -0.648243 49.128986 -0.838895 -5.978681 0.353029 -1.511150 -0.031940 20.222769 3.684305 2.316629 18.787249 0.000001 -0.000001 10.751608 -0.479870 1.397903 0.000000 -0.000000 0.000000 3.273804 0.305947 -0.580110 21.486790 11.830364 2.266131 8.162915 0.000000 -0.000000 18.399052 -3.798986 -4.940567 0.000003 0.000000 -0.000001 -10.144769 -1.209211 -26.270834 0.139017 0.250096 45.909584 -0.198323 12.648782 -14.644558 1.631104 -2.052307 1.270069 0.000000 -0.000000 0.000002 -8.745926 -1.502128 -4.525723 0.073605 -0.070190 72.404327 3.001120 -6.269228 -9.424618 -1.358049 0.853165 -4.690570 0.000000 -0.000000 -0.000001
0.000000 0.000000 0.000000 0.000000 -0.000000 0.000000 -62.398120 -8.584222 687.848965 5.453597 -5.507049 -5.179047 -1.130299 0.129498 1.252928 -1.100015 1.066512 -4.333609 -4.029730 -0.769386 11.984949 1.493034 2.057875 5.199926 -0.184182 1.427604 -3.537438 1.566472 0.486713 -6.284438 0.000077 -0.000022 0.000006 0.007096 0.165389 0.058926 0.705026 -3.559991 -10.635475 -0.703138 3.889319 -10.679257 -12.742508 -3.962699 19.102646 -56.954624 10.331538 -2.948176 -178.730789 -70.033157 179.055725 -15.444959 -11.595883 -26.015070 -5.882102 9.861279 0.702590 -10.936861 -0.360574 7.156197 0.000000 8.774815 -0.000000 -16.019047 18.715773 6.702335 -1.844031 2.498503 -2.507276 -10.163590 4.678941 4.621104 -20.975996 -0.000001 0.000001 -21.226254 2.451698 -3.593995 0.000000 -0.000006 -0.000000 -1.362681 2.240797 -0.746323 -21.334892 0.584910 3.008319 -13.821196 -0.000001 0.000001 -23.887129 -0.249075 -0.839485 -61.095715 2.578830 -0.911484 -0.294025 1.679686 0.833255 -14.218195 0.093215 1.300579 -34.212002 -0.287561 0.967166 -20.033176 0.964536 1.212838 0.000000 -0.000000 0.000000 -3.440387 0.788233 0.501655 -15.928172 -3.167306 2.999703 -6.338817 -0.000000 0.000001 -18.123419 3.648181 -4.905662 -0.000004 0.000000 -0.000002 8.273735 6.889019 19.358004 62.852726 4.581045 10.601472 178.207138 63.861141 178.329758 3.598646 13.981214 -11.945127 2.243540 -5.255033 -3.180156 14.282877 -0.826594 6.952496 -0.000000 -12.690593 -0.000001 15.935163 -17.788465 3.106048 1.665665 -1.955920 -2.878297 4.727794 -4.170584 4.993919 11.020511 0.000001 -0.000000 12.109032 -3.735715 -2.866778 0.000000 -0.000000 0.000000 1.291985 -1.928548 -1.498088 14.800115 0.567467 3.865604 14.242553 -1.341738 -6.660648 19.631935 0.143921 -0.648243 49.619797 -0.623210 -6.027091 0.353029 -1.511150 -0.031940 20.222769 3.684305 2.316629 18.787249 0.000001 -0.000001 10.751608 -0.479870 1.397903 0.000000 -0.000000 0.000000 3.273804 0.305947 -0.580110 21.486790 11.830364 2.266131 8.162915 0.000000 -0.000000 18.399052 -3.798986 -4.940567 0.000003 0.000000 -0.000001 -9.575270 -1.379464 -22.767067 0.140713 0.185891 48.935211 -1.084636 14.026243 -19.700993 1.628809 -2.012921 1.919639 0.000000 -0.000000 0.000002 -7.601608 0.146182 -11.625819 0.072952 -0.183859 75.157280 2.838457 -7.640893 -13.681172 -1.364261 0.820820 -4.864154 0.000000 -0.000000 -0.000001
0.000000 0.000000 0.000000 0.000000 -0.000000 0.000000 -62.398120 -8.266506 687.848965 4.604095 -5.548707 -5.522412 -1.380786 -0.213532 1.650785 -0.979333 0.202924 -4.194900 -3.506599 -1.700391 11.890275 2.270809 1.732098 5.741557 0.053802 2.024733 -3.538479 1.342191 1.280750 -6.056643 0.000077 -0.000022 0.000006 0.004592 0.102983 0.035405 0.711861 -3.616108 -10.656787 -0.712469 3.821750 -10.698309 -10.916579 -5.426131 19.129938 -56.352173 8.167444 -3.855147 -178.537766 -67.813614 178.728104 -14.294030 -12.504455 -24.515871 -5.882102 9.861279 0.702590 -10.936861 -0.360574 7.156197 0.000000 8.774815 -0.000000 -16.195391 18.490234 6.478239 -1.844031 2.498503 -2.507276 -10.163590 4.678941 4.621104 -20.975996 -0.000001 0.000001 -21.226254 2.451698 -3.593995 0.000000 -0.000006 -0.000000 -1.362681 2.240797 -0.746323 -21.334892 0.584910 3.008319 -13.821196 -0.000001 0.000001 -23.887129 -0.249075 -0.839485 -60.833328 2.522493 -1.012013 -0.294025 1.679686 0.833255 -14.218195 0.093215 1.300579 -34.212002 -0.287561 0.967166 -20.033176 0.964536 1.212838 0.000000 -0.000000 0.000000 -3.440387 0.788233 0.501655 -15.928172 -3.167306 2.999703 -6.338817 -0.000000 0.000001 -18.123419 3.648181 -4.905662 -0.000004 0.000000 -0.000002 9.121952 5.148171 19.486134 62.101173 1.090190 10.932032 178.299896 64.700752 178.296555 5.196105 14.608762 -10.106735 2.243540 -5.255033 -3.180156 14.282877 -0.826594 6.952496 -0.000000 -12.690593 -0.000001 16.064457 -17.809069 2.939952 1.665665 -1.955920 -2.878297 4.727794 -4.170584 4.993919 11.020511 0.000001 -0.000000 12.109032 -3.735715 -2.866778 0.000000 -0.000000 0.000000 1.291985 -1.928548 -1.498088 14.800115 0.567467 3.865604 14.242553 -1.341738 -6.660648 19.631935 0.143921 -0.648243 49.976910 -0.516244 -6.111619 0.353029 -1.511150 -0.031940 20.222769 3.684305 2.316629 18.787249 0.000001 -0.000001 10.751608 -0.479870 1.397903 0.000000 -0.000000 0.000000 3.273804 0.305947 -0.580110 21.486790 11.830364 2.266131 8.162915 0.000000 -0.000000 18.399052 -3.798986 -4.940567 0.000003 0.000000 -0.000001 -8.852397 -1.669689 -18.146154 0.161667 0.167249 48.561054 -2.000743 15.018447 -23.105755 1.633811 -1.977346 1.826395 0.000000 -0.000000 0.000002 -6.373437 0.516616 -18.498449 0.008513 -0.237011 74.115364 2.790791 -8.720128 -16.585619 -1.357570 0.783097 -4.437697 0.000000 -0.000000 -0.000001
0.000000 0.000000 0.000000 0.000000 -0.000000 0.000000 -62.398120 -7.151513 687.848965 3.834705 -5.629808 -5.334976 -1.616896 -0.637427 1.714071 -0.850559 -0.607260 -4.186168 -2.962014 -2.769582 11.660246 2.932969 1.534113 6.053142 0.162306 2.581199 -3.516789 1.102198 2.031166 -6.259971 0.000077 -0.000022 0.000006 -0.000760 0.017885 0.027961 0.711826 -3.689873 -10.633623 -0.721452 3.726332 -10.671848 -8.903212 -6.726507 18.574118 -56.599155 7.408541 -4.301199 -178.203369 -64.002960 178.388947 -13.092469 -13.794339 -24.290512 -5.882102 9.861279 0.702590 -10.936861 -0.360574 7.156197 0.000000 8.774815 -0.000000 -16.246124 18.337265 6.166285 -1.844031 2.498503 -2.507276 -10.163590 4.678941 4.621104 -20.975996 -0.000001 0.000001 -21.226254 2.451698 -3.593995 0.000000 -0.000006 -0.000000 -1.362681 2.240797 -0.746323 -21.334892 0.584910 3.008319 -13.821196 -0.000001 0.000001 -23.887129 -0.249075 -0.839485 -60.334366 2.482550 -1.235458 -0.294025 1.679686 0.833255 -14.218195 0.093215 1.300579 -34.212002 -0.287561 0.967166 -20.033176 0.964536 1.212838 0.000000 -0.000000 0.000000 -3.440387 0.788233 0.501655 -15.928172 -3.167306 2.999703 -6.338817 -0.000000 0.000001 -18.123419 3.648181 -4.905662 -0.000004 0.000000 -0.000002 9.492723 3.271591 19.529291 60.740314 -3.149859 11.010367 177.855408 63.057980 177.499054 7.175016 16.191704 -11.262846 2.243540 -5.255033 -3.180156 14.282877 -0.826594 6.952496 -0.000000 -12.690593 -0.000001 16.252243 -17.853596 2.657325 1.665665 -1.955920 -2.878297 4.727794 -4.170584 4.993919 11.020511 0.000001 -0.000000 12.109032 -3.735715 -2.866778 0.000000 -0.000000 0.000000 1.291985 -1.928548 -1.498088 14.800115 0.567467 3.865604 14.242553 -1.341738 -6.660648 19.631935 0.143921 -0.648243 50.132580 -0.503109 -6.342801 0.353029 -1.511150 -0.031940 20.222769 3.684305 2.316629 18.787249 0.000001 -0.000001 10.751608 -0.479870 1.397903 0.000000 -0.000000 0.000000 3.273804 0.305947 -0.580110 21.486790 11.830364 2.266131 8.162915 0.000000 -0.000000 18.399052 -3.798986 -4.940567 0.000003 0.000000 -0.000001 -8.051920 -1.543947 -12.679158 0.199598 0.181511 45.065105 -2.603324 15.361752 -23.970558 1.684814 -1.939407 0.989630 0.000000 -0.000000 0.000002 -5.199300 0.639474 -24.026039 -0.132467 -0.299909 68.769020 2.801725 -9.725355 -17.560820 -1.385002 0.827135 -4.076751 0.000000 -0.000000 -0.000001
0.000000 0.000000 0.000000 0.000000 -0.000000 0.000000 -62.398120 -5.354554 687.848965 3.262652 -5.697099 -5.026420 -1.709349 -0.911942 1.556708 -0.728355 -1.459863 -4.303168 -2.457356 -3.642039 11.387039 3.206666 1.529038 6.483057 0.299970 3.118904 -3.548562 0.906890 2.755209 -6.415667 0.000077 -0.000022 0.000006 -0.009207 -0.028366 0.033927 0.697042 -3.724012 -10.608737 -0.721832 3.669718 -10.643363 -7.321177 -7.631101 17.983072 -57.071987 7.048935 -3.844974 -177.787552 -60.367680 177.924866 -12.396366 -14.828831 -23.944708 -5.882102 9.861279 0.702590 -10.936861 -0.360574 7.156197 0.000000 8.774815 -0.000000 -16.436337 18.313572 5.957266 -1.844031 2.498503 -2.507276 -10.163590 4.678941 4.621104 -20.975996 -0.000001 0.000001 -21.226254 2.451698 -3.593995 0.000000 -0.000006 -0.000000 -1.362681 2.240797 -0.746323 -21.334892 0.584910 3.008319 -13.821196 -0.000001 0.000001 -23.887129 -0.249075 -0.839485 -59.943768 2.545778 -1.375093 -0.294025 1.679686 0.833255 -14.218195 0.093215 1.300579 -34.212002 -0.287561 0.967166 -20.033176 0.964536 1.212838 0.000000 -0.000000 0.000000 -3.440387 0.788233 0.501655 -15.928172 -3.167306 2.999703 -6.338817 -0.000000 0.000001 -18.123419 3.648181 -4.905662 -0.000004 0.000000 -0.000002 8.701314 1.837088 19.767933 59.988125 -7.240299 10.996257 177.658447 61.795815 176.890121 8.603954 17.533363 -12.028064 2.243540 -5.255033 -3.180156 14.282877 -0.826594 6.952496 -0.000000 -12.690593 -0.000001 16.334095 -17.750378 2.534892 1.665665 -1.955920 -2.878297 4.727794 -4.170584 4.993919 11.020511 0.000001 -0.000000 12.109032 -3.735715 -2.866778 0.000000 -0.000000 0.000000 1.291985 -1.928548 -1.498088 14.800115 0.567467 3.865604 14.242553 -1.341738 -6.660648 19.631935 0.143921 -0.648243 50.382187 -0.566065 -6.260239 0.353029 -1.511150 -0.031940 20.222769 3.684305 2.316629 18.787249 0.000001 -0.000001 10.751608 -0.479870 1.397903 0.000000 -0.000000 0.000000 3.273804 0.305947 -0.580110 21.486790 11.830364 2.266131 8.162915 0.000000 -0.000000 18.399052 -3.798986 -4.940567 0.000003 0.000000 -0.000001 -7.256295 -0.577608 -6.245387 0.197476 0.179799 39.278378 -2.690442 14.926354 -20.906420 1.725256 -1.951126 -1.052900 0.000000 -0.000000 0.000002 -4.093686 0.839243 -27.278652 -0.189536 -0.182026 59.448391 2.806690 -10.366962 -16.300741 -1.401460 0.872836 -4.028340 0.000000 -0.000000 -0.000001
0.000000 0.000000 0.000000 0.000000 -0.000000 0.000000 -62.398120 -3.156395 687.848965 3.104327 -5.721256 -4.820725 -1.739484 -0.971940 1.194874 -0.631365 -2.142466 -4.481561 -2.145109 -4.390870 11.073423 3.095914 1.679490 7.164660 0.424857 3.450553 -3.547352 0.643512 3.513560 -6.567588 0.000077 -0.000022 0.000006 -0.023039 -0.015032 0.037197 0.687244 -3.706906 -10.615934 -0.736572 3.680740 -10.658132 -5.981855 -7.989204 17.589277 -57.884148 6.747482 -1.777439 -178.015961 -57.460987 178.127304 -12.682737 -15.329767 -22.822924 -5.882102 9.861279 0.702590 -10.936861 -0.360574 7.156197 0.000000 8.774815 -0.000000 -16.663685 18.290779 5.719646 -1.844031 2.498503 -2.507276 -10.163590 4.678941 4.621104 -20.975996 -0.000001 0.000001 -21.226254 2.451698 -3.593995 0.000000 -0.000006 -0.000000 -1.362681 2.240797 -0.746323 -21.334892 0.584910 3.008319 -13.821196 -0.000001 0.000001 -23.887129 -0.249075 -0.839485 -59.909801 2.574703 -1.498765 -0.294025 1.679686 0.833255 -14.218195 0.093215 1.300579 -34.212002 -0.287561 0.967166 -20.033176 0.964536 1.212838 0.000000 -0.000000 0.000000 -3.440387 0.788233 0.501655 -15.928172 -3.167306 2.999703 -6.338817 -0.000000 0.000001 -18.123419 3.648181 -4.905662 -0.000004 0.000000 -0.000002 6.654319 1.060325 20.281330 60.103691 -10.999546 11.225095 177.801727 61.481812 177.035599 9.212569 18.152306 -12.049316 2.243540 -5.255033 -3.180156 14.282877 -0.826594 6.952496 -0.000000 -12.690593 -0.000001 16.358734 -17.568485 2.548596 1.665665 -1.955920 -2.878297 4.727794 -4.170584 4.993919 11.020511 0.000001 -0.000000 12.109032 -3.735715 -2.866778 0.000000 -0.000000 0.000000 1.291985 -1.928548 -1.498088 14.800115 0.567467 3.865604 14.242553 -1.341738 -6.660648 19.631935 0.143921 -0.648243 50.703392 -0.560684 -6.182436 0.353029 -1.511150 -0.031940 20.222769 3.684305 2.316629 18.787249 0.000001 -0.000001 10.751608 -0.479870 1.397903 0.000000 -0.000000 0.000000 3.273804 0.305947 -0.580110 21.486790 11.830364 2.266131 8.162915 0.000000 -0.000000 18.399052 -3.798986 -4.940567 0.000003 0.000000 -0.000001 -6.530802 1.245145 0.103250 0.206919 0.201975 32.921993 -2.404426 13.786599 -14.478077 1.840876 -1.967355 -5.653522 0.000000 -0.000000 0.000002 -3.258061 0.953087 -27.627354 -0.111481 -0.009841 46.979240 3.013729 -10.323537 -13.652333 -1.430237 0.945665 -4.414918 0.000000 -0.000000 -0.000001
0.000000 0.000000 0.000000 0.000000 0.000000 0.000000 -62.398120 -1.439961 687.848965 2.808365 -5.734624 -5.022927 -1.467846 -0.765117 0.547493 -0.529221 -2.810295 -4.811523 -1.912029 -5.002298 10.800929 2.705050 1.933651 8.238943 0.454424 3.691185 -3.515177 0.262497 3.898634 -6.648636 0.000077 -0.000022 0.000006 -0.029630 0.043436 0.039815 0.682259 -3.656735 -10.636076 -0.743864 3.750129 -10.685209 -5.053150 -8.245861 17.401984 -58.217935 6.458434 2.191698 -178.011251 -53.865979 178.182517 -14.721716 -15.691767 -22.419026 -5.882102 9.861279 0.702590 -10.936861 -0.360574 7.156197 0.000000 8.774815 0.000000 -17.020599 18.211540 5.576458 -1.844031 2.498503 -2.507276 -10.163590 4.678941 4.621104 -20.975996 -0.000001 0.000001 -21.226254 2.451698 -3.593995 0.000000 -0.000006 0.000000 -1.362681 2.240797 -0.746323 -21.334892 0.584910 3.008319 -13.821196 -0.000001 0.000001 -23.887129 -0.249075 -0.839485 -60.300199 2.486425 -1.550484 -0.294025 1.679686 0.833255 -14.218195 0.093215 1.300579 -34.212002 -0.287561 0.967166 -20.033176 0.964536 1.212838 0.000000 0.000000 0.000000 -3.440387 0.788233 0.501655 -15.928172 -3.167306 2.999703 -6.338817 0.000000 0.000001 -18.123419 3.648181 -4.905662 -0.000004 0.000000 -0.000002 4.410283 0.794077 21.209234 60.348421 -15.056547 10.466519 177.333505 62.326944 176.876270 9.354915 18.185946 -11.836435 2.243540 -5.255033 -3.180156 14.282877 -0.826594 6.952496 0.000000 -12.690593 -0.000001 16.262353 -17.527949 2.515499 1.665665 -1.955920 -2.878297 4.727794 -4.170584 4.993919 11.020511 0.000001 -0.000000 12.109032 -3.735715 -2.866778 0.000000 0.000000 0.000000 1.291985 -1.928548 -1.498088 14.800115 0.567467 3.865604 14.242553 -1.341738 -6.660648 19.631935 0.143921 -0.648243 50.730555 -0.509825 -6.163828 0.353029 -1.511150 -0.031940 20.222769 3.684305 2.316629 18.787249 0.000001 -0.000001 10.751608 -0.479870 1.397903 0.000000 0.000000 0.000000 3.273804 0.305947 -0.580110 21.486790 11.830364 2.266131 8.162915 0.000000 0.000000 18.399052 -3.798986 -4.940567 0.000003 0.000000 -0.000001 -4.394063 4.660611 4.163800 0.122351 0.166514 33.271622 -1.558553 12.487402 -5.985903 1.965336 -1.992278 -10.047841 0.000000 0.000000 0.000002 -1.501547 0.970234 -23.884787 0.005379 -0.022914 31.938466 2.256519 -9.097978 -9.749526 -1.456191 0.899159 -4.030361 0.000000 0.000000 -0.000001
0.000000 0.000000 0.000000 0.000000 0.000000 0.000000 -62.398120 -1.334605 687.848965 2.341964 -5.752993 -5.518015 -1.244238 -0.553756 0.198288 -0.514223 -3.060978 -4.966242 -1.683790 -5.188022 10.799334 2.695862 1.978385 8.736682 0.350798 3.762917 -3.514213 0.080181 4.031195 -6.951995 0.000077 -0.000022 0.000006 -0.028821 0.055888 0.027982 0.680588 -3.645824 -10.623615 -0.740448 3.767592 -10.664388 -5.270439 -8.317530 17.374489 -57.915363 6.252103 4.929809 -177.532983 -52.285322 177.933545 -17.125914 -15.323689 -22.896327 -5.882102 9.861279 0.702590 -10.936861 -0.360574 7.156197 0.000000 8.774815 0.000000 -17.092383 18.178736 5.561319 -1.844031 2.498503 -2.507276 -10.163590 4.678941 4.621104 -20.975996 -0.000001 0.000001 -21.226254 2.451698 -3.593995 0.000000 -0.000006 0.000000 -1.362681 2.240797 -0.746323 -21.334892 0.584910 3.008319 -13.821196 -0.000001 0.000001 -23.887129 -0.249075 -0.839485 -60.399543 2.465593 -1.491216 -0.294025 1.679686 0.833255 -14.218195 0.093215 1.300579 -34.212002 -0.287561 0.967166 -20.033176 0.964536 1.212838 0.000000 0.000000 0.000000 -3.440387 0.788233 0.501655 -15.928172 -3.167306 2.999703 -6.338817 0.000000 0.000001 -18.123419 3.648181 -4.905662 -0.000004 0.000000 -0.000002 4.491537 0.835138 21.595797 59.708221 -15.966347 9.781886 176.868959 64.497536 176.745686 9.111234 18.045401 -10.647800 2.243540 -5.255033 -3.180156 14.282877 -0.826594 6.952496 0.000000 -12.690593 -0.000001 16.198737 -17.620147 2.516398 1.665665 -1.955920 -2.878297 4.727794 -4.170584 4.993919 11.020511 0.000001 -0.000000 12.109032 -3.735715 -2.866778 0.000000 0.000000 0.000000 1.291985 -1.928548 -1.498088 14.800115 0.567467 3.865604 14.242553 -1.341738 -6.660648 19.631935 0.143921 -0.648243 50.643758 -0.543001 -6.186416 0.353029 -1.511150 -0.031940 20.222769 3.684305 2.316629 18.787249 0.000001 -0.000001 10.751608 -0.479870 1.397903 0.000000 0.000000 0.000000 3.273804 0.305947 -0.580110 21.486790 11.830364 2.266131 8.162915 0.000000 0.000000 18.399052 -3.798986 -4.940567 0.000003 0.000000 -0.000001 -2.302624 6.664886 3.102596 0.067941 0.150028 39.809457 -1.110278 11.073697 -2.180551 2.008253 -1.995682 -10.105082 0.000000 0.000000 0.000002 0.322957 0.562516 -19.941005 0.006079 -0.124601 25.661596 1.407195 -7.594092 -10.208896 -1.468963 0.845524 -2.956165 0.000000 0.000000 -0.000001
0.000000 0.000000 0.000000 0.000000 0.000000 0.000000 -62.398120 -2.106058 687.848965 1.681409 -5.793497 -6.217537 -0.941762 -0.357240 0.161378 -0.612298 -2.856458 -4.953637 -1.579973 -4.867311 11.048212 3.206437 1.720777 8.644879 0.188386 3.816339 -3.529853 0.255989 3.827884 -7.341941 0.000077 -0.000022 0.000006 -0.028711 0.043355 0.017118 0.673072 -3.649714 -10.577744 -0.732273 3.746975 -10.605000 -6.697004 -8.073088 17.475961 -57.184772 5.917483 6.191957 -176.868496 -53.198335 177.444724 -19.465201 -14.449591 -24.697016 -5.882102 9.861279 0.702590 -10.936861 -0.360574 7.156197 0.000000 8.774815 0.000000 -17.075295 18.377664 5.665286 -1.844031 2.498503 -2.507276 -10.163590 4.678941 4.621104 -20.975996 -0.000001 0.000001 -21.226254 2.451698 -3.593995 0.000000 -0.000006 0.000000 -1.362681 2.240797 -0.746323 -21.334892 0.584910 3.008319 -13.821196 -0.000001 0.000001 -23.887129 -0.249075 -0.839485 -60.413855 2.522177 -1.365333 -0.294025 1.679686 0.833255 -14.218195 0.093215 1.300579 -34.212002 -0.287561 0.967166 -20.033176 0.964536 1.212838 0.000000 0.000000 0.000000 -3.440387 0.788233 0.501655 -15.928172 -3.167306 2.999703 -6.338817 0.000000 0.000001 -18.123419 3.648181 -4.905662 -0.000004 0.000000 -0.000002 6.877726 1.203260 21.420826 58.462560 -13.287386 9.186001 176.270520 68.006634 176.351345 8.563510 18.174111 -8.635496 2.243540 -5.255033 -3.180156 14.282877 -0.826594 6.952496 0.000000 -12.690593 -0.000001 16.179259 -17.677970 2.547424 1.665665 -1.955920 -2.878297 4.727794 -4.170584 4.993919 11.020511 0.000001 -0.000000 12.109032 -3.735715 -2.866778 0.000000 0.000000 0.000000 1.291985 -1.928548 -1.498088 14.800115 0.567467 3.865604 14.242553 -1.341738 -6.660648 19.631935 0.143921 -0.648243 50.542547 -0.611658 -6.242925 0.353029 -1.511150 -0.031940 20.222769 3.684305 2.316629 18.787249 0.000001 -0.000001 10.751608 -0.479870 1.397903 0.000000 0.000000 0.000000 3.273804 0.305947 -0.580110 21.486790 11.830364 2.266131 8.162915 0.000000 0.000000 18.399052 -3.798986 -4.940567 0.000003 0.000000 -0.000001 -0.650375 7.612020 -2.199272 0.058267 0.188413 48.836958 -1.568386 9.694088 -3.031654 1.971482 -2.037601 -7.532270 0.000000 0.000000 0.000002 1.935031 -0.334798 -15.798886 -0.024740 -0.203551 25.829433 0.088110 -6.405191 -12.533733 -1.471004 0.832098 -1.715351 0.000000 0.000000 -0.000001
0.000000 0.000000 0.000000 0.000000 0.000000 0.000000 -62.398120 -3.126851 687.848965 0.688388 -5.889064 -7.039210 -0.344256 -0.169751 0.487581 -0.678954 -2.190013 -4.847500 -1.419796 -4.064128 11.333340 3.907583 1.411785 8.091994 0.030000 3.633185 -3.530023 0.691375 3.489584 -8.092156 0.000077 -0.000022 0.000006 -0.028278 0.026300 0.004446 0.674546 -3.655880 -10.553976 -0.732217 3.717250 -10.572952 -8.441179 -7.314953 17.689034 -56.818640 5.026955 6.437873 -176.541674 -55.865686 177.185095 -21.376722 -13.948774 -27.422268 -5.882102 9.861279 0.702590 -10.936861 -0.360574 7.156197 0.000000 8.774815 0.000000 -17.063028 18.531998 5.756267 -1.844031 2.498503 -2.507276 -10.163590 4.678941 4.621104 -20.975996 -0.000001 0.000001 -21.226254 2.451698 -3.593995 0.000000 -0.000006 0.000000 -1.362681 2.240797 -0.746323 -21.334892 0.584910 3.008319 -13.821196 -0.000001 0.000001 -23.887129 -0.249075 -0.839485 -60.467382 2.564925 -1.262529 -0.294025 1.679686 0.833255 -14.218195 0.093215 1.300579 -34.212002 -0.287561 0.967166 -20.033176 0.964536 1.212838 0.000000 0.000000 0.000000 -3.440387 0.788233 0.501655 -15.928172 -3.167306 2.999703 -6.338817 0.000000 0.000001 -18.123419 3.648181 -4.905662 -0.000004 0.000000 -0.000002 9.455324 2.746168 20.673164 58.193627 -7.676505 8.556809 175.125465 72.219809 175.332052 7.744488 18.337201 -7.794664 2.243540 -5.255033 -3.180156 14.282877 -0.826594 6.952496 0.000000 -12.690593 -0.000001 16.130140 -17.588573 2.593615 1.665665 -1.955920 -2.878297 4.727794 -4.170584 4.993919 11.020511 0.000001 -0.000000 12.109032 -3.735715 -2.866778 0.000000 0.000000 0.000000 1.291985 -1.928548 -1.498088 14.800115 0.567467 3.865604 14.242553 -1.341738 -6.660648 19.631935 0.143921 -0.648243 50.448450 -0.593597 -6.254289 0.353029 -1.511150 -0.031940 20.222769 3.684305 2.316629 18.787249 0.000001 -0.000001 10.751608 -0.479870 1.397903 0.000000 0.000000 0.000000 3.273804 0.305947 -0.580110 21.486790 11.830364 2.266131 8.162915 0.000000 0.000000 18.399052 -3.798986 -4.940567 0.000003 0.000000 -0.000001 0.808361 8.065635 -9.611826 0.112273 0.210905 54.935930 -2.567874 8.774121 -6.117287 1.898160 -2.056023 -5.039842 0.000000 0.000000 0.000002 3.449988 -1.425291 -11.101684 -0.046437 -0.257399 28.179339 -1.551056 -5.768722 -14.826920 -1.449551 0.886084 -0.567347 0.000000 0.000000 -0.000001
0.000000 0.000000 0.000000 0.000000 0.000000 0.000000 -62.398120 -3.785707 687.848965 -0.370321 -6.024244 -7.874286 0.453094 -0.031028 0.972726 -0.652429 -1.111890 -4.723883 -1.111635 -3.006649 11.450337 4.391279 1.066989 7.339938 -0.008004 3.474278 -3.521235 1.072858 3.347928 -9.196006 0.000077 -0.000022 0.000006 -0.023310 0.023766 0.000877 0.690761 -3.655317 -10.568610 -0.738185 3.708128 -10.586204 -9.789965 -6.011126 17.839140 -57.113771 3.609312 6.479240 -176.686226 -59.336299 177.440385 -22.830327 -14.221260 -29.926832 -5.882102 9.861279 0.702590 -10.936861 -0.360574 7.156197 0.000000 8.774815 0.000000 -17.139396 18.532230 5.796624 -1.844031 2.498503 -2.507276 -10.163590 4.678941 4.621104 -20.975996 -0.000001 0.000001 -21.226254 2.451698 -3.593995 0.000000 -0.000006 0.000000 -1.362681 2.240797 -0.746323 -21.334892 0.584910 3.008319 -13.821196 -0.000001 0.000001 -23.887129 -0.249075 -0.839485 -60.729274 2.483513 -1.287109 -0.294025 1.679686 0.833255 -14.218195 0.093215 1.300579 -34.212002 -0.287561 0.967166 -20.033176 0.964536 1.212838 0.000000 0.000000 0.000000 -3.440387 0.788233 0.501655 -15.928172 -3.167306 2.999703 -6.338817 0.000000 0.000001 -18.123419 3.648181 -4.905662 -0.000004 0.000000 -0.000002 10.871474 5.622750 19.748833 59.246492 0.339155 8.360928 172.581429 76.707520 172.814482 6.382777 18.441940 -9.138192 2.243540 -5.255033 -3.180156 14.282877 -0.826594 6.952496 0.000000 -12.690593 -0.000001 16.053130 -17.500428 2.595341 1.665665 -1.955920 -2.878297 4.727794 -4.170584 4.993919 11.020511 0.000001 -0.000000 12.109032 -3.735715 -2.866778 0.000000 0.000000 0.000000 1.291985 -1.928548 -1.498088 14.800115 0.567467 3.865604 14.242553 -1.341738 -6.660648 19.631935 0.143921 -0.648243 50.300281 -0.490866 -6.291740 0.353029 -1.511150 -0.031940 20.222769 3.684305 2.316629 18.787249 0.000001 -0.000001 10.751608 -0.479870 1.397903 0.000000 0.000000 0.000000 3.273804 0.305947 -0.580110 21.486790 11.830364 2.266131 8.162915 0.000000 0.000000 18.399052 -3.798986 -4.940567 0.000003 0.000000 -0.000001 1.905877 7.795176 -16.471597 0.154438 0.158106 53.274197 -4.002610 7.869616 -8.862950 1.832722 -2.070316 -3.545131 0.000000 0.000000 0.000002 4.766074 -2.111081 -5.310287 -0.084288 -0.319419 29.135276 -2.656750 -5.490102 -16.757581 -1.428340 0.926197 0.665589 0.000000 0.000000 -0.000001
