HIERARCHY
ROOT Root
{
  OFFSET 0.000000 0.000000 0.000000
  CHANNELS 6 Xposition Yposition Zposition Zrotation Yrotation Xrotation
  JOINT Hips
  {
    OFFSET 0.000000 100.000000 0.000000
    CHANNELS 6 Xposition Yposition Zposition Zrotation Yrotation Xrotation
    JOINT Spine1
    {
      OFFSET -0.013727 5.003763 -0.053727
      CHANNELS 3 Zrotation Yrotation Xrotation
      JOINT Spine2
      {
        OFFSET -0.000000 7.125301 -0.029825
        CHANNELS 3 Zrotation Yrotation Xrotation
        JOINT Chest
        {
          OFFSET -0.000001 7.550063 -0.815971
          CHANNELS 3 Zrotation Yrotation Xrotation
          JOINT Neck1
          {
            OFFSET -0.181677 26.311295 -0.553348
            CHANNELS 3 Zrotation Yrotation Xrotation
            JOINT Neck2
            {
              OFFSET -0.000003 7.709397 2.302585
              CHANNELS 3 Zrotation Yrotation Xrotation
              JOINT Head
              {
                OFFSET -0.000005 6.128916 1.953709
                CHANNELS 3 Zrotation Yrotation Xrotation
                JOINT HeadEnd
                {
                  OFFSET 0.003598 16.065403 -1.835379
                  CHANNELS 3 Zrotation Yrotation Xrotation
                }
                JOINT Jaw
                {
                  OFFSET 0.002637 0.475592 3.094941
                  CHANNELS 3 Zrotation Yrotation Xrotation
                }
                JOINT LeftEye
                {
                  OFFSET 3.206381 5.380205 7.586883
                  CHANNELS 3 Zrotation Yrotation Xrotation
                }
                JOINT RightEye
                {
                  OFFSET -3.222440 5.361869 7.558234
                  CHANNELS 3 Zrotation Yrotation Xrotation
                }
              }
            }
          }
          JOINT LeftShoulder
          {
            OFFSET 1.621652 23.237164 5.113413
            CHANNELS 3 Zrotation Yrotation Xrotation
            JOINT LeftArm
            {
              OFFSET 14.919846 0.000002 -5.502326
              CHANNELS 3 Zrotation Yrotation Xrotation
              JOINT LeftForeArm
              {
                OFFSET 28.739307 0.000000 -0.002588
                CHANNELS 3 Zrotation Yrotation Xrotation
                JOINT LeftHand
                {
                  OFFSET 27.093981 -0.000001 0.002609
                  CHANNELS 3 Zrotation Yrotation Xrotation
                  JOINT LeftHandThumb1
                  {
                    OFFSET 2.276482 -1.392045 3.191413
                    CHANNELS 3 Zrotation Yrotation Xrotation
                    JOINT LeftHandThumb2
                    {
                      OFFSET 4.012836 -1.828127 1.641654
                      CHANNELS 3 Zrotation Yrotation Xrotation
                      JOINT LeftHandThumb3
                      {
                        OFFSET 2.798515 0.000000 -0.000003
                        CHANNELS 3 Zrotation Yrotation Xrotation
                        JOINT LeftHandThumbEnd
                        {
                          OFFSET 3.180793 -0.000004 0.000004
                          CHANNELS 3 Zrotation Yrotation Xrotation
                        }
                      }
                    }
                  }
                  JOINT LeftHandIndex1
                  {
                    OFFSET 3.247555 -0.531998 2.296169
                    CHANNELS 3 Zrotation Yrotation Xrotation
                    JOINT LeftHandIndex2
                    {
                      OFFSET 6.364578 0.012060 0.178600
                      CHANNELS 3 Zrotation Yrotation Xrotation
                      JOINT LeftHandIndex3
                      {
                        OFFSET 3.662364 0.000000 0.000000
                        CHANNELS 3 Zrotation Yrotation Xrotation
                        JOINT LeftHandIndex4
                        {
                          OFFSET 2.329242 0.000004 0.000004
                          CHANNELS 3 Zrotation Yrotation Xrotation
                          JOINT LeftHandIndexEnd
                          {
                            OFFSET 2.759615 -0.180537 -0.113024
                            CHANNELS 3 Zrotation Yrotation Xrotation
                          }
                        }
                      }
                    }
                  }
                  JOINT LeftHandMiddle1
                  {
                    OFFSET 3.163495 0.240981 1.000332
                    CHANNELS 3 Zrotation Yrotation Xrotation
                    JOINT LeftHandMiddle2
                    {
                      OFFSET 6.190780 -0.259278 -1.002548
                      CHANNELS 3 Zrotation Yrotation Xrotation
                      JOINT LeftHandMiddle3
                      {
                        OFFSET 4.356520 -0.000004 -0.000001
                        CHANNELS 3 Zrotation Yrotation Xrotation
                        JOINT LeftHandMiddle4
                        {
                          OFFSET 2.996877 -0.000008 0.000000
                          CHANNELS 3 Zrotation Yrotation Xrotation
                          JOINT LeftHandMiddleEnd
                          {
                            OFFSET 2.304287 -0.294569 -0.031741
                            CHANNELS 3 Zrotation Yrotation Xrotation
                          }
                        }
                      }
                    }
                  }
                  JOINT LeftHandRing1
                  {
                    OFFSET 2.882643 -0.053652 -0.322543
                    CHANNELS 3 Zrotation Yrotation Xrotation
                    JOINT LeftHandRing2
                    {
                      OFFSET 5.854541 -0.486202 -1.373841
                      CHANNELS 3 Zrotation Yrotation Xrotation
                      JOINT LeftHandRing3
                      {
                        OFFSET 4.350578 0.000000 0.000003
                        CHANNELS 3 Zrotation Yrotation Xrotation
                        JOINT LeftHandRing4
                        {
                          OFFSET 2.651321 0.000007 0.000002
                          CHANNELS 3 Zrotation Yrotation Xrotation
                          JOINT LeftHandRingEnd
                          {
                            OFFSET 1.936105 0.077687 -0.000071
                            CHANNELS 3 Zrotation Yrotation Xrotation
                          }
                        }
                      }
                    }
                  }
                  JOINT LeftHandPinky1
                  {
                    OFFSET 2.865500 -0.310005 -1.600378
                    CHANNELS 3 Zrotation Yrotation Xrotation
                    JOINT LeftHandPinky2
                    {
                      OFFSET 5.087849 -1.331141 -1.771230
                      CHANNELS 3 Zrotation Yrotation Xrotation
                      JOINT LeftHandPinky3
                      {
                        OFFSET 3.070974 0.000004 0.000000
                        CHANNELS 3 Zrotation Yrotation Xrotation
                        JOINT LeftHandPinky4
                        {
                          OFFSET 1.549672 0.000000 0.000001
                          CHANNELS 3 Zrotation Yrotation Xrotation
                          JOINT LeftHandPinkyEnd
                          {
                            OFFSET 1.944893 -0.157802 0.057219
                            CHANNELS 3 Zrotation Yrotation Xrotation
                          }
                        }
                      }
                    }
                  }
                }
              }
            }
          }
          JOINT RightShoulder
          {
            OFFSET -1.380118 23.180309 5.214158
            CHANNELS 3 Zrotation Yrotation Xrotation
            JOINT RightArm
            {
              OFFSET -15.037196 0.000012 -5.545604
              CHANNELS 3 Zrotation Yrotation Xrotation
              JOINT RightForeArm
              {
                OFFSET -28.736639 0.000002 -0.002597
                CHANNELS 3 Zrotation Yrotation Xrotation
                JOINT RightHand
                {
                  OFFSET -27.133619 -0.000000 0.002613
                  CHANNELS 3 Zrotation Yrotation Xrotation
                  JOINT RightHandThumb1
                  {
                    OFFSET -2.274032 -1.383988 3.163127
                    CHANNELS 3 Zrotation Yrotation Xrotation
                    JOINT RightHandThumb2
                    {
                      OFFSET -4.011429 -1.827466 1.640914
                      CHANNELS 3 Zrotation Yrotation Xrotation
                      JOINT RightHandThumb3
                      {
                        OFFSET -2.794935 -0.000004 -0.000003
                        CHANNELS 3 Zrotation Yrotation Xrotation
                        JOINT RightHandThumbEnd
                        {
                          OFFSET -3.183852 0.000004 0.000001
                          CHANNELS 3 Zrotation Yrotation Xrotation
                        }
                      }
                    }
                  }
                  JOINT RightHandIndex1
                  {
                    OFFSET -3.253266 -0.520057 2.282866
                    CHANNELS 3 Zrotation Yrotation Xrotation
                    JOINT RightHandIndex2
                    {
                      OFFSET -6.341917 0.012471 0.178266
                      CHANNELS 3 Zrotation Yrotation Xrotation
                      JOINT RightHandIndex3
                      {
                        OFFSET -3.654871 -0.000008 -0.000000
                        CHANNELS 3 Zrotation Yrotation Xrotation
                        JOINT RightHandIndex4
                        {
                          OFFSET -2.327586 0.000000 0.000001
                          CHANNELS 3 Zrotation Yrotation Xrotation
                          JOINT RightHandIndexEnd
                          {
                            OFFSET -2.761790 -0.180656 -0.113078
                            CHANNELS 3 Zrotation Yrotation Xrotation
                          }
                        }
                      }
                    }
                  }
                  JOINT RightHandMiddle1
                  {
                    OFFSET -3.168106 0.246593 1.001030
                    CHANNELS 3 Zrotation Yrotation Xrotation
                    JOINT RightHandMiddle2
                    {
                      OFFSET -6.180828 -0.258836 -1.000895
                      CHANNELS 3 Zrotation Yrotation Xrotation
                      JOINT RightHandMiddle3
                      {
                        OFFSET -4.348901 0.000000 -0.000000
                        CHANNELS 3 Zrotation Yrotation Xrotation
                        JOINT RightHandMiddle4
                        {
                          OFFSET -3.000240 -0.000004 -0.000002
                          CHANNELS 3 Zrotation Yrotation Xrotation
                          JOINT RightHandMiddleEnd
                          {
                            OFFSET -2.302520 -0.294370 -0.031706
                            CHANNELS 3 Zrotation Yrotation Xrotation
                          }
                        }
                      }
                    }
                  }
                  JOINT RightHandRing1
                  {
                    OFFSET -2.885690 -0.067952 -0.308858
                    CHANNELS 3 Zrotation Yrotation Xrotation
                    JOINT RightHandRing2
                    {
                      OFFSET -5.854198 -0.486130 -1.373731
                      CHANNELS 3 Zrotation Yrotation Xrotation
                      JOINT RightHandRing3
                      {
                        OFFSET -4.338810 -0.000004 -0.000000
                        CHANNELS 3 Zrotation Yrotation Xrotation
                        JOINT RightHandRing4
                        {
                          OFFSET -2.654903 -0.000004 0.000004
                          CHANNELS 3 Zrotation Yrotation Xrotation
                          JOINT RightHandRingEnd
                          {
                            OFFSET -1.933568 0.077527 -0.000052
                            CHANNELS 3 Zrotation Yrotation Xrotation
                          }
                        }
                      }
                    }
                  }
                  JOINT RightHandPinky1
                  {
                    OFFSET -2.866425 -0.342796 -1.584145
                    CHANNELS 3 Zrotation Yrotation Xrotation
                    JOINT RightHandPinky2
                    {
                      OFFSET -5.091371 -1.332055 -1.772385
                      CHANNELS 3 Zrotation Yrotation Xrotation
                      JOINT RightHandPinky3
                      {
                        OFFSET -3.062664 -0.000004 0.000001
                        CHANNELS 3 Zrotation Yrotation Xrotation
                        JOINT RightHandPinky4
                        {
                          OFFSET -1.546529 0.000004 -0.000002
                          CHANNELS 3 Zrotation Yrotation Xrotation
                          JOINT RightHandPinkyEnd
                          {
                            OFFSET -1.945119 -0.157718 0.057211
                            CHANNELS 3 Zrotation Yrotation Xrotation
                          }
                        }
                      }
                    }
                  }
                }
              }
            }
          }
        }
      }
    }
    JOINT LeftLeg
    {
      OFFSET 10.043214 -8.434526 2.595655
      CHANNELS 3 Zrotation Yrotation Xrotation
      JOINT LeftShin
      {
        OFFSET -0.000001 -43.221752 -0.802913
        CHANNELS 3 Zrotation Yrotation Xrotation
        JOINT LeftFoot
        {
          OFFSET 0.000001 -42.155094 -3.481523
          CHANNELS 3 Zrotation Yrotation Xrotation
          JOINT LeftToeBase
          {
            OFFSET 0.000000 -5.059472 13.231529
            CHANNELS 3 Zrotation Yrotation Xrotation
            JOINT LeftToeEnd
            {
              OFFSET -0.009607 -1.647619 6.513017
              CHANNELS 3 Zrotation Yrotation Xrotation
            }
          }
        }
      }
    }
    JOINT RightLeg
    {
      OFFSET -10.047278 -8.295260 2.620317
      CHANNELS 3 Zrotation Yrotation Xrotation
      JOINT RightShin
      {
        OFFSET 0.000001 -43.362206 -0.805556
        CHANNELS 3 Zrotation Yrotation Xrotation
        JOINT RightFoot
        {
          OFFSET 0.000002 -42.117393 -3.478398
          CHANNELS 3 Zrotation Yrotation Xrotation
          JOINT RightToeBase
          {
            OFFSET -0.000000 -5.079609 13.284196
            CHANNELS 3 Zrotation Yrotation Xrotation
            JOINT RightToeEnd
            {
              OFFSET 0.009532 -1.634378 6.460591
              CHANNELS 3 Zrotation Yrotation Xrotation
            }
          }
        }
      }
    }
  }
}
MOTION
Frames: 15
Frame Time: 0.03333333
0.000000 0.000000 0.000000 0.000000 -0.000000 0.000000 4.308568 1.422261 4.159243 -1.469137 0.111817 0.608616 1.077602 0.149310 6.948072 0.011246 0.220209 -3.187996 0.611449 -1.128242 22.480425 -2.660580 5.137172 24.163191 -0.698224 1.591944 -3.837737 -2.767310 1.075817 -16.576309 0.000077 -0.000022 0.000006 -0.029602 0.075739 -0.046392 0.567082 -3.620064 -10.382863 -0.631327 3.780481 -10.434979 -11.021513 -8.146421 22.776730 -47.962059 -37.576439 20.198160 -0.142285 -35.023472 0.060446 -3.089849 -4.596871 -6.989086 -5.882102 9.861279 0.702590 -10.936861 -0.360574 7.156197 0.000000 8.774815 -0.000000 -16.018442 18.362097 5.956526 -1.844031 2.498503 -2.507276 -10.163590 4.678941 4.621104 -20.975996 -0.000001 0.000001 -21.226254 2.451698 -3.593995 0.000000 -0.000006 -0.000000 -1.362681 2.240797 -0.746323 -21.334892 0.584910 3.008319 -13.821196 -0.000001 0.000001 -23.887129 -0.249075 -0.839485 -59.787781 2.549205 -1.270192 -0.294025 1.679686 0.833255 -14.218195 0.093215 1.300579 -34.212002 -0.287561 0.967166 -20.033176 0.964536 1.212838 0.000000 -0.000000 0.000000 -3.440387 0.788233 0.501655 -15.928172 -3.167306 2.999703 -6.338817 -0.000000 0.000001 -18.123419 3.648181 -4.905662 -0.000004 0.000000 -0.000002 7.253808 17.533638 21.191721 58.792103 24.554392 3.273750 0.502130 40.486794 0.345474 -1.844198 6.737761 -12.289104 2.243540 -5.255033 -3.180156 14.282877 -0.826594 6.952496 -0.000000 -12.690593 -0.000001 16.177542 -17.672867 2.793715 1.665665 -1.955920 -2.878297 4.727794 -4.170584 4.993919 11.020511 0.000001 -0.000000 12.109032 -3.735715 -2.866778 0.000000 -0.000000 0.000000 1.291985 -1.928548 -1.498088 14.800115 0.567467 3.865604 14.242553 -1.341738 -6.660648 19.631935 0.143921 -0.648243 49.994480 -0.861490 -6.237584 0.353029 -1.511150 -0.031940 20.222769 3.684305 2.316629 18.787249 0.000001 -0.000001 10.751608 -0.479870 1.397903 0.000000 -0.000000 0.000000 3.273804 0.305947 -0.580110 21.486790 11.830364 2.266131 8.162915 0.000000 -0.000000 18.399052 -3.798986 -4.940567 0.000003 0.000000 -0.000001 10.370810 3.295433 -5.476064 -0.051744 -0.007777 7.847898 -9.926563 1.272089 -1.843794 1.655079 -1.911544 -0.812532 0.000000 -0.000000 0.000002 -3.430692 -12.283085 -6.255461 0.056768 -0.021720 11.571982 7.805067 -0.811028 -3.550909 -1.397036 1.070615 -1.155846 0.000000 -0.000000 -0.000001
0.000000 0.000000 0.000000 0.000000 -0.000000 0.000000 4.308568 1.361790 4.159243 -1.343084 0.103802 0.324149 1.077166 0.148016 6.962469 0.021245 0.213370 -3.179196 0.621688 -1.105846 22.584864 -2.619452 5.227698 24.932600 -0.760852 1.354797 -3.832874 -2.866786 0.846766 -16.269901 0.000077 -0.000022 0.000006 -0.038064 0.089997 -0.048433 0.551330 -3.605771 -10.380272 -0.632197 3.794328 -10.434629 -10.929146 -8.058678 22.753660 -48.506676 -37.695408 20.176462 -0.134857 -34.663303 0.056088 -3.253548 -4.511616 -7.055203 -5.882102 9.861279 0.702590 -10.936861 -0.360574 7.156197 0.000000 8.774815 -0.000000 -16.021074 18.331865 5.923388 -1.844031 2.498503 -2.507276 -10.163590 4.678941 4.621104 -20.975996 -0.000001 0.000001 -21.226254 2.451698 -3.593995 0.000000 -0.000006 -0.000000 -1.362681 2.240797 -0.746323 -21.334892 0.584910 3.008319 -13.821196 -0.000001 0.000001 -23.887129 -0.249075 -0.839485 -59.755138 2.542642 -1.286617 -0.294025 1.679686 0.833255 -14.218195 0.093215 1.300579 -34.212002 -0.287561 0.967166 -20.033176 0.964536 1.212838 0.000000 -0.000000 0.000000 -3.440387 0.788233 0.501655 -15.928172 -3.167306 2.999703 -6.338817 -0.000000 0.000001 -18.123419 3.648181 -4.905662 -0.000004 0.000000 -0.000002 7.300624 17.638948 21.286888 58.868122 25.026682 2.850134 0.584966 39.739750 0.381429 -1.826871 6.634149 -12.582004 2.243540 -5.255033 -3.180156 14.282877 -0.826594 6.952496 -0.000000 -12.690593 -0.000001 16.205042 -17.697449 2.773067 1.665665 -1.955920 -2.878297 4.727794 -4.170584 4.993919 11.020511 0.000001 -0.000000 12.109032 -3.735715 -2.866778 0.000000 -0.000000 0.000000 1.291985 -1.928548 -1.498088 14.800115 0.567467 3.865604 14.242553 -1.341738 -6.660648 19.631935 0.143921 -0.648243 49.955387 -0.855508 -6.269207 0.353029 -1.511150 -0.031940 20.222769 3.684305 2.316629 18.787249 0.000001 -0.000001 10.751608 -0.479870 1.397903 0.000000 -0.000000 0.000000 3.273804 0.305947 -0.580110 21.486790 11.830364 2.266131 8.162915 0.000000 -0.000000 18.399052 -3.798986 -4.940567 0.000003 0.000000 -0.000001 10.193604 3.395083 -5.391984 -0.054477 -0.008048 8.244586 -9.938526 1.182637 -2.078391 1.656247 -1.913798 -0.802832 0.000000 -0.000000 0.000002 -3.690305 -12.429527 -6.231098 0.064014 -0.012892 11.998429 7.890844 -0.502733 -3.767146 -1.395788 1.061205 -1.175007 0.000000 -0.000000 -0.000001
0.000000 0.000000 0.000000 0.000000 -0.000000 0.000000 4.308568 1.272198 4.159243 -1.238450 0.094594 -0.074186 1.091606 0.153006 6.959214 0.024776 0.190452 -3.175763 0.629200 -1.084527 22.727983 -2.553360 5.302039 25.807365 -0.825366 1.090411 -3.835734 -2.964763 0.574722 -15.919537 0.000077 -0.000022 0.000006 -0.038417 0.090131 -0.047693 0.544100 -3.606943 -10.386130 -0.625413 3.795213 -10.439936 -10.852500 -7.953608 22.794731 -48.984035 -37.789791 20.148592 -0.110603 -34.381832 0.033976 -3.409734 -4.371597 -7.145557 -5.882102 9.861279 0.702590 -10.936861 -0.360574 7.156197 0.000000 8.774815 -0.000000 -16.030867 18.303461 5.899336 -1.844031 2.498503 -2.507276 -10.163590 4.678941 4.621104 -20.975996 -0.000001 0.000001 -21.226254 2.451698 -3.593995 0.000000 -0.000006 -0.000000 -1.362681 2.240797 -0.746323 -21.334892 0.584910 3.008319 -13.821196 -0.000001 0.000001 -23.887129 -0.249075 -0.839485 -59.746582 2.556665 -1.311011 -0.294025 1.679686 0.833255 -14.218195 0.093215 1.300579 -34.212002 -0.287561 0.967166 -20.033176 0.964536 1.212838 0.000000 -0.000000 0.000000 -3.440387 0.788233 0.501655 -15.928172 -3.167306 2.999703 -6.338817 -0.000000 0.000001 -18.123419 3.648181 -4.905662 -0.000004 0.000000 -0.000002 7.391739 17.693237 21.450630 58.894760 25.542030 2.683954 0.675159 39.082672 0.434419 -1.791624 6.425086 -12.637306 2.243540 -5.255033 -3.180156 14.282877 -0.826594 6.952496 -0.000000 -12.690593 -0.000001 16.211514 -17.710066 2.755406 1.665665 -1.955920 -2.878297 4.727794 -4.170584 4.993919 11.020511 0.000001 -0.000000 12.109032 -3.735715 -2.866778 0.000000 -0.000000 0.000000 1.291985 -1.928548 -1.498088 14.800115 0.567467 3.865604 14.242553 -1.341738 -6.660648 19.631935 0.143921 -0.648243 49.895264 -0.854689 -6.303336 0.353029 -1.511150 -0.031940 20.222769 3.684305 2.316629 18.787249 0.000001 -0.000001 10.751608 -0.479870 1.397903 0.000000 -0.000000 0.000000 3.273804 0.305947 -0.580110 21.486790 11.830364 2.266131 8.162915 0.000000 -0.000000 18.399052 -3.798986 -4.940567 0.000003 0.000000 -0.000001 10.058869 3.533328 -5.326149 -0.059761 -0.004106 8.936645 -9.944392 1.007207 -2.463709 1.659939 -1.915399 -0.826108 0.000000 -0.000000 0.000002 -3.949376 -12.540545 -6.148335 0.067007 -0.007108 12.578446 7.978233 -0.210435 -4.090204 -1.396398 1.053154 -1.180318 0.000000 -0.000000 -0.000001
0.000000 0.000000 0.000000 0.000000 -0.000000 0.000000 4.308568 1.148373 4.159243 -1.161977 0.083560 -0.622949 1.104531 0.150641 6.958193 0.027039 0.145637 -3.167811 0.628733 -1.072084 22.923912 -2.465316 5.321590 26.787441 -0.884634 0.818598 -3.836242 -3.064068 0.268638 -15.568107 0.000077 -0.000022 0.000006 -0.031471 0.077653 -0.044156 0.545729 -3.622330 -10.399652 -0.613293 3.785501 -10.450980 -10.795818 -7.833858 22.921104 -49.292793 -37.842941 20.133436 -0.042232 -34.247654 -0.008951 -3.496655 -4.220016 -7.293223 -5.882102 9.861279 0.702590 -10.936861 -0.360574 7.156197 0.000000 8.774815 -0.000000 -16.055788 18.300484 5.887488 -1.844031 2.498503 -2.507276 -10.163590 4.678941 4.621104 -20.975996 -0.000001 0.000001 -21.226254 2.451698 -3.593995 0.000000 -0.000006 -0.000000 -1.362681 2.240797 -0.746323 -21.334892 0.584910 3.008319 -13.821196 -0.000001 0.000001 -23.887129 -0.249075 -0.839485 -59.774075 2.574692 -1.328292 -0.294025 1.679686 0.833255 -14.218195 0.093215 1.300579 -34.212002 -0.287561 0.967166 -20.033176 0.964536 1.212838 0.000000 -0.000000 0.000000 -3.440387 0.788233 0.501655 -15.928172 -3.167306 2.999703 -6.338817 -0.000000 0.000001 -18.123419 3.648181 -4.905662 -0.000004 0.000000 -0.000002 7.495359 17.668379 21.681604 58.922832 26.095499 2.766817 0.756454 38.597305 0.482586 -1.783343 6.144971 -12.537880 2.243540 -5.255033 -3.180156 14.282877 -0.826594 6.952496 -0.000000 -12.690593 -0.000001 16.197624 -17.698757 2.734094 1.665665 -1.955920 -2.878297 4.727794 -4.170584 4.993919 11.020511 0.000001 -0.000000 12.109032 -3.735715 -2.866778 0.000000 -0.000000 0.000000 1.291985 -1.928548 -1.498088 14.800115 0.567467 3.865604 14.242553 -1.341738 -6.660648 19.631935 0.143921 -0.648243 49.841774 -0.850721 -6.324481 0.353029 -1.511150 -0.031940 20.222769 3.684305 2.316629 18.787249 0.000001 -0.000001 10.751608 -0.479870 1.397903 0.000000 -0.000000 0.000000 3.273804 0.305947 -0.580110 21.486790 11.830364 2.266131 8.162915 0.000000 -0.000000 18.399052 -3.798986 -4.940567 0.000003 0.000000 -0.000001 9.988770 3.703396 -5.244648 -0.064839 0.000378 9.926494 -9.943967 0.724032 -2.987570 1.665143 -1.914966 -0.907666 0.000000 -0.000000 0.000002 -4.200241 -12.612872 -5.991344 0.063659 -0.000443 13.382335 8.049304 0.053792 -4.540580 -1.399136 1.053809 -1.183208 0.000000 -0.000000 -0.000001
0.000000 0.000000 0.000000 0.000000 -0.000000 0.000000 4.308568 0.990246 4.159243 -1.116082 0.069842 -1.352418 1.117883 0.139330 6.945324 0.021754 0.080936 -3.165107 0.607582 -1.090741 23.183374 -2.326502 5.255061 27.954367 -0.951414 0.519981 -3.828017 -3.157555 -0.085519 -15.212554 0.000077 -0.000022 0.000006 -0.018885 0.056227 -0.038432 0.556561 -3.644391 -10.412416 -0.599312 3.764661 -10.458929 -10.756766 -7.678550 23.112314 -49.460835 -37.827412 20.157194 0.064239 -34.205204 -0.060368 -3.514064 -4.093101 -7.393145 -5.882102 9.861279 0.702590 -10.936861 -0.360574 7.156197 0.000000 8.774815 -0.000000 -16.093700 18.321623 5.883730 -1.844031 2.498503 -2.507276 -10.163590 4.678941 4.621104 -20.975996 -0.000001 0.000001 -21.226254 2.451698 -3.593995 0.000000 -0.000006 -0.000000 -1.362681 2.240797 -0.746323 -21.334892 0.584910 3.008319 -13.821196 -0.000001 0.000001 -23.887129 -0.249075 -0.839485 -59.802425 2.585769 -1.337367 -0.294025 1.679686 0.833255 -14.218195 0.093215 1.300579 -34.212002 -0.287561 0.967166 -20.033176 0.964536 1.212838 0.000000 -0.000000 0.000000 -3.440387 0.788233 0.501655 -15.928172 -3.167306 2.999703 -6.338817 -0.000000 0.000001 -18.123419 3.648181 -4.905662 -0.000004 0.000000 -0.000002 7.621602 17.525732 21.982388 58.980125 26.682350 3.133525 0.788607 38.293308 0.503419 -1.773040 5.827135 -12.292368 2.243540 -5.255033 -3.180156 14.282877 -0.826594 6.952496 -0.000000 -12.690593 -0.000001 16.178436 -17.667963 2.708676 1.665665 -1.955920 -2.878297 4.727794 -4.170584 4.993919 11.020511 0.000001 -0.000000 12.109032 -3.735715 -2.866778 0.000000 -0.000000 0.000000 1.291985 -1.928548 -1.498088 14.800115 0.567467 3.865604 14.242553 -1.341738 -6.660648 19.631935 0.143921 -0.648243 49.797188 -0.852781 -6.324493 0.353029 -1.511150 -0.031940 20.222769 3.684305 2.316629 18.787249 0.000001 -0.000001 10.751608 -0.479870 1.397903 0.000000 -0.000000 0.000000 3.273804 0.305947 -0.580110 21.486790 11.830364 2.266131 8.162915 0.000000 -0.000000 18.399052 -3.798986 -4.940567 0.000003 0.000000 -0.000001 10.017113 3.918757 -5.049681 -0.068420 0.001127 11.103414 -9.983635 0.331140 -3.590050 1.670278 -1.919732 -1.033985 0.000000 -0.000000 0.000002 -4.429752 -12.648155 -5.686042 0.056805 0.012516 14.357403 8.063250 0.245177 -5.123788 -1.402555 1.063457 -1.191080 0.000000 -0.000000 -0.000001
0.000000 0.000000 0.000000 0.000000 -0.000000 0.000000 4.308568 0.809689 4.159243 -1.111624 0.053814 -2.183030 1.131160 0.125395 6.882610 0.003969 0.010388 -3.186446 0.573515 -1.162278 23.479689 -2.122464 5.098672 29.323809 -1.034660 0.183284 -3.821645 -3.252884 -0.470617 -14.799943 0.000077 -0.000022 0.000006 -0.010468 0.041842 -0.032300 0.565586 -3.656359 -10.426898 -0.591964 3.748057 -10.466622 -10.732632 -7.465867 23.359381 -49.572548 -37.754642 20.270092 0.207750 -34.114357 -0.119120 -3.422811 -4.020991 -7.496184 -5.882102 9.861279 0.702590 -10.936861 -0.360574 7.156197 0.000000 8.774815 -0.000000 -16.128431 18.352180 5.889285 -1.844031 2.498503 -2.507276 -10.163590 4.678941 4.621104 -20.975996 -0.000001 0.000001 -21.226254 2.451698 -3.593995 0.000000 -0.000006 -0.000000 -1.362681 2.240797 -0.746323 -21.334892 0.584910 3.008319 -13.821196 -0.000001 0.000001 -23.887129 -0.249075 -0.839485 -59.822254 2.591346 -1.335400 -0.294025 1.679686 0.833255 -14.218195 0.093215 1.300579 -34.212002 -0.287561 0.967166 -20.033176 0.964536 1.212838 0.000000 -0.000000 0.000000 -3.440387 0.788233 0.501655 -15.928172 -3.167306 2.999703 -6.338817 -0.000000 0.000001 -18.123419 3.648181 -4.905662 -0.000004 0.000000 -0.000002 7.801191 17.255974 22.314793 59.048782 27.208950 3.728230 0.802076 38.164150 0.522648 -1.747568 5.556032 -11.940667 2.243540 -5.255033 -3.180156 14.282877 -0.826594 6.952496 -0.000000 -12.690593 -0.000001 16.166161 -17.644781 2.685783 1.665665 -1.955920 -2.878297 4.727794 -4.170584 4.993919 11.020511 0.000001 -0.000000 12.109032 -3.735715 -2.866778 0.000000 -0.000000 0.000000 1.291985 -1.928548 -1.498088 14.800115 0.567467 3.865604 14.242553 -1.341738 -6.660648 19.631935 0.143921 -0.648243 49.759068 -0.850275 -6.321212 0.353029 -1.511150 -0.031940 20.222769 3.684305 2.316629 18.787249 0.000001 -0.000001 10.751608 -0.479870 1.397903 0.000000 -0.000000 0.000000 3.273804 0.305947 -0.580110 21.486790 11.830364 2.266131 8.162915 0.000000 -0.000000 18.399052 -3.798986 -4.940567 0.000003 0.000000 -0.000001 10.149307 4.139415 -4.696804 -0.071243 -0.002506 12.257699 -10.064569 -0.111337 -4.237523 1.673237 -1.934905 -1.170861 0.000000 -0.000000 0.000002 -4.614860 -12.633496 -5.191415 0.054416 0.026560 15.278756 8.028497 0.354478 -5.793978 -1.405689 1.076624 -1.191316 0.000000 -0.000000 -0.000001
0.000000 0.000000 0.000000 0.000000 -0.000000 0.000000 4.308568 0.634335 4.159243 -1.156246 0.035347 -3.012033 1.143779 0.104081 6.747045 -0.021738 -0.060247 -3.247199 0.554638 -1.276179 23.750488 -1.893926 4.867771 30.830795 -1.134533 -0.159811 -3.814780 -3.358315 -0.827823 -14.296518 0.000077 -0.000022 0.000006 -0.007539 0.035070 -0.030199 0.570277 -3.660012 -10.448327 -0.591255 3.738394 -10.481334 -10.679828 -7.186809 23.593327 -49.810749 -37.601044 20.548512 0.330208 -33.879025 -0.176264 -3.233886 -3.988723 -7.535199 -5.882102 9.861279 0.702590 -10.936861 -0.360574 7.156197 0.000000 8.774815 -0.000000 -16.126249 18.400286 5.917509 -1.844031 2.498503 -2.507276 -10.163590 4.678941 4.621104 -20.975996 -0.000001 0.000001 -21.226254 2.451698 -3.593995 0.000000 -0.000006 -0.000000 -1.362681 2.240797 -0.746323 -21.334892 0.584910 3.008319 -13.821196 -0.000001 0.000001 -23.887129 -0.249075 -0.839485 -59.825356 2.599631 -1.325035 -0.294025 1.679686 0.833255 -14.218195 0.093215 1.300579 -34.212002 -0.287561 0.967166 -20.033176 0.964536 1.212838 0.000000 -0.000000 0.000000 -3.440387 0.788233 0.501655 -15.928172 -3.167306 2.999703 -6.338817 -0.000000 0.000001 -18.123419 3.648181 -4.905662 -0.000004 0.000000 -0.000002 8.016424 16.878216 22.617128 59.156475 27.587206 4.455873 0.831920 38.161880 0.551186 -1.663102 5.347100 -11.685966 2.243540 -5.255033 -3.180156 14.282877 -0.826594 6.952496 -0.000000 -12.690593 -0.000001 16.174273 -17.635450 2.658695 1.665665 -1.955920 -2.878297 4.727794 -4.170584 4.993919 11.020511 0.000001 -0.000000 12.109032 -3.735715 -2.866778 0.000000 -0.000000 0.000000 1.291985 -1.928548 -1.498088 14.800115 0.567467 3.865604 14.242553 -1.341738 -6.660648 19.631935 0.143921 -0.648243 49.735420 -0.831994 -6.327096 0.353029 -1.511150 -0.031940 20.222769 3.684305 2.316629 18.787249 0.000001 -0.000001 10.751608 -0.479870 1.397903 0.000000 -0.000000 0.000000 3.273804 0.305947 -0.580110 21.486790 11.830364 2.266131 8.162915 0.000000 -0.000000 18.399052 -3.798986 -4.940567 0.000003 0.000000 -0.000001 10.363237 4.329417 -4.202960 -0.068554 -0.007921 13.248504 -10.157198 -0.516929 -4.874290 1.672961 -1.953314 -1.302920 0.000000 -0.000000 0.000002 -4.717916 -12.583338 -4.538621 0.060411 0.034886 15.927401 7.945807 0.426227 -6.434666 -1.405916 1.086369 -1.187636 0.000000 -0.000000 -0.000001
0.000000 0.000000 0.000000 0.000000 -0.000000 0.000000 4.308568 0.503239 4.159243 -1.233672 0.016652 -3.688728 1.140438 0.067087 6.519631 -0.054890 -0.121654 -3.353236 0.577123 -1.412870 23.893126 -1.687193 4.625909 32.271595 -1.228889 -0.460418 -3.811697 -3.415723 -1.090912 -13.739081 0.000077 -0.000022 0.000006 -0.007626 0.032221 -0.029843 0.571094 -3.660581 -10.474843 -0.592376 3.733602 -10.505278 -10.539844 -6.859634 23.770899 -50.264446 -37.329540 21.110502 0.377595 -33.519512 -0.191053 -3.117452 -3.958085 -7.359050 -5.882102 9.861279 0.702590 -10.936861 -0.360574 7.156197 0.000000 8.774815 -0.000000 -16.099819 18.432899 5.958642 -1.844031 2.498503 -2.507276 -10.163590 4.678941 4.621104 -20.975996 -0.000001 0.000001 -21.226254 2.451698 -3.593995 0.000000 -0.000006 -0.000000 -1.362681 2.240797 -0.746323 -21.334892 0.584910 3.008319 -13.821196 -0.000001 0.000001 -23.887129 -0.249075 -0.839485 -59.849861 2.598452 -1.287263 -0.294025 1.679686 0.833255 -14.218195 0.093215 1.300579 -34.212002 -0.287561 0.967166 -20.033176 0.964536 1.212838 0.000000 -0.000000 0.000000 -3.440387 0.788233 0.501655 -15.928172 -3.167306 2.999703 -6.338817 -0.000000 0.000001 -18.123419 3.648181 -4.905662 -0.000004 0.000000 -0.000002 8.279995 16.461672 22.880606 59.246365 27.711433 5.157815 0.910495 38.279991 0.594770 -1.541241 5.185862 -11.579151 2.243540 -5.255033 -3.180156 14.282877 -0.826594 6.952496 -0.000000 -12.690593 -0.000001 16.197659 -17.653141 2.646352 1.665665 -1.955920 -2.878297 4.727794 -4.170584 4.993919 11.020511 0.000001 -0.000000 12.109032 -3.735715 -2.866778 0.000000 -0.000000 0.000000 1.291985 -1.928548 -1.498088 14.800115 0.567467 3.865604 14.242553 -1.341738 -6.660648 19.631935 0.143921 -0.648243 49.761036 -0.806875 -6.335265 0.353029 -1.511150 -0.031940 20.222769 3.684305 2.316629 18.787249 0.000001 -0.000001 10.751608 -0.479870 1.397903 0.000000 -0.000000 0.000000 3.273804 0.305947 -0.580110 21.486790 11.830364 2.266131 8.162915 0.000000 -0.000000 18.399052 -3.798986 -4.940567 0.000003 0.000000 -0.000001 10.599635 4.439578 -3.652025 -0.063130 -0.012695 13.933337 -10.214862 -0.795142 -5.399658 1.670563 -1.959978 -1.412535 0.000000 -0.000000 0.000002 -4.815122 -12.541830 -3.705729 0.073102 0.040896 16.166279 7.935324 0.500157 -6.954137 -1.402842 1.095168 -1.195757 0.000000 -0.000000 -0.000001
0.000000 0.000000 0.000000 0.000000 -0.000000 0.000000 4.308568 0.447667 4.159243 -1.318348 0.001076 -4.126293 1.114878 0.031136 6.190989 -0.092117 -0.168483 -3.496275 0.643779 -1.555755 23.848433 -1.505589 4.417877 33.446369 -1.296643 -0.687237 -3.817113 -3.418728 -1.236011 -13.238761 0.000077 -0.000022 0.000006 -0.009257 0.031490 -0.030009 0.570104 -3.659974 -10.495831 -0.594494 3.732082 -10.527047 -10.281958 -6.526459 23.857958 -50.937115 -36.944920 22.124094 0.362998 -33.127480 -0.159783 -3.270556 -3.913309 -6.946705 -5.882102 9.861279 0.702590 -10.936861 -0.360574 7.156197 0.000000 8.774815 -0.000000 -16.062136 18.439806 6.005000 -1.844031 2.498503 -2.507276 -10.163590 4.678941 4.621104 -20.975996 -0.000001 0.000001 -21.226254 2.451698 -3.593995 0.000000 -0.000006 -0.000000 -1.362681 2.240797 -0.746323 -21.334892 0.584910 3.008319 -13.821196 -0.000001 0.000001 -23.887129 -0.249075 -0.839485 -59.881908 2.590858 -1.230497 -0.294025 1.679686 0.833255 -14.218195 0.093215 1.300579 -34.212002 -0.287561 0.967166 -20.033176 0.964536 1.212838 0.000000 -0.000000 0.000000 -3.440387 0.788233 0.501655 -15.928172 -3.167306 2.999703 -6.338817 -0.000000 0.000001 -18.123419 3.648181 -4.905662 -0.000004 0.000000 -0.000002 8.621026 16.070427 23.118921 59.265076 27.527933 5.776405 0.996951 38.501801 0.639735 -1.421612 5.010055 -11.677289 2.243540 -5.255033 -3.180156 14.282877 -0.826594 6.952496 -0.000000 -12.690593 -0.000001 16.225603 -17.678583 2.637155 1.665665 -1.955920 -2.878297 4.727794 -4.170584 4.993919 11.020511 0.000001 -0.000000 12.109032 -3.735715 -2.866778 0.000000 -0.000000 0.000000 1.291985 -1.928548 -1.498088 14.800115 0.567467 3.865604 14.242553 -1.341738 -6.660648 19.631935 0.143921 -0.648243 49.809597 -0.780411 -6.341494 0.353029 -1.511150 -0.031940 20.222769 3.684305 2.316629 18.787249 0.000001 -0.000001 10.751608 -0.479870 1.397903 0.000000 -0.000000 0.000000 3.273804 0.305947 -0.580110 21.486790 11.830364 2.266131 8.162915 0.000000 -0.000000 18.399052 -3.798986 -4.940567 0.000003 0.000000 -0.000001 10.809395 4.449879 -3.097942 -0.059153 -0.013776 14.211234 -10.219485 -0.916931 -5.624613 1.667668 -1.946343 -1.537947 0.000000 -0.000000 0.000002 -4.865944 -12.565008 -2.854424 0.086505 0.044087 15.940156 7.960348 0.574807 -7.221439 -1.398066 1.102941 -1.243584 0.000000 -0.000000 -0.000001
0.000000 0.000000 0.000000 0.000000 -0.000000 0.000000 4.308568 0.470372 4.159243 -1.389281 -0.008582 -4.312513 1.067663 0.002367 5.780084 -0.128445 -0.202028 -3.672053 0.738967 -1.683721 23.577810 -1.343117 4.216632 34.247185 -1.315575 -0.811556 -3.826720 -3.357948 -1.265228 -12.904710 0.000077 -0.000022 0.000006 -0.015836 0.036742 -0.031171 0.563697 -3.654418 -10.508924 -0.600769 3.737778 -10.542706 -9.916592 -6.223508 23.828911 -51.799049 -36.410431 23.561502 0.279243 -32.824944 -0.090455 -3.740433 -3.870564 -6.274302 -5.882102 9.861279 0.702590 -10.936861 -0.360574 7.156197 0.000000 8.774815 -0.000000 -16.014582 18.416109 6.043645 -1.844031 2.498503 -2.507276 -10.163590 4.678941 4.621104 -20.975996 -0.000001 0.000001 -21.226254 2.451698 -3.593995 0.000000 -0.000006 -0.000000 -1.362681 2.240797 -0.746323 -21.334892 0.584910 3.008319 -13.821196 -0.000001 0.000001 -23.887129 -0.249075 -0.839485 -59.865196 2.560662 -1.186947 -0.294025 1.679686 0.833255 -14.218195 0.093215 1.300579 -34.212002 -0.287561 0.967166 -20.033176 0.964536 1.212838 0.000000 -0.000000 0.000000 -3.440387 0.788233 0.501655 -15.928172 -3.167306 2.999703 -6.338817 -0.000000 0.000001 -18.123419 3.648181 -4.905662 -0.000004 0.000000 -0.000002 9.017563 15.694996 23.302343 59.243340 27.040831 6.481260 0.984984 38.759399 0.630796 -1.238417 4.789507 -11.859325 2.243540 -5.255033 -3.180156 14.282877 -0.826594 6.952496 -0.000000 -12.690593 -0.000001 16.246752 -17.695820 2.633635 1.665665 -1.955920 -2.878297 4.727794 -4.170584 4.993919 11.020511 0.000001 -0.000000 12.109032 -3.735715 -2.866778 0.000000 -0.000000 0.000000 1.291985 -1.928548 -1.498088 14.800115 0.567467 3.865604 14.242553 -1.341738 -6.660648 19.631935 0.143921 -0.648243 49.870029 -0.769519 -6.340173 0.353029 -1.511150 -0.031940 20.222769 3.684305 2.316629 18.787249 0.000001 -0.000001 10.751608 -0.479870 1.397903 0.000000 -0.000000 0.000000 3.273804 0.305947 -0.580110 21.486790 11.830364 2.266131 8.162915 0.000000 -0.000000 18.399052 -3.798986 -4.940567 0.000003 0.000000 -0.000001 10.968302 4.411009 -2.532743 -0.055973 -0.014860 14.026562 -10.202158 -0.946148 -5.811234 1.664437 -1.912888 -1.693056 0.000000 -0.000000 0.000002 -4.898463 -12.665584 -2.001678 0.095092 0.043697 15.260808 8.012848 0.654003 -7.228405 -1.393421 1.104631 -1.324724 0.000000 -0.000000 -0.000001
0.000000 0.000000 0.000000 0.000000 -0.000000 0.000000 4.308568 0.574574 4.159243 -1.418055 -0.007880 -4.197133 0.997317 -0.012851 5.264544 -0.170153 -0.226533 -3.881237 0.830262 -1.790117 23.081062 -1.169465 4.035274 34.558403 -1.283250 -0.855958 -3.826994 -3.198037 -1.241641 -12.728015 0.000077 -0.000022 0.000006 -0.023834 0.046270 -0.026420 0.554127 -3.646346 -10.507470 -0.606578 3.750058 -10.543313 -9.519711 -5.938707 23.652855 -52.721344 -35.701591 25.314140 0.164832 -32.713867 -0.030206 -4.419212 -3.839118 -5.446752 -5.882102 9.861279 0.702590 -10.936861 -0.360574 7.156197 0.000000 8.774815 -0.000000 -15.948341 18.387550 6.082193 -1.844031 2.498503 -2.507276 -10.163590 4.678941 4.621104 -20.975996 -0.000001 0.000001 -21.226254 2.451698 -3.593995 0.000000 -0.000006 -0.000000 -1.362681 2.240797 -0.746323 -21.334892 0.584910 3.008319 -13.821196 -0.000001 0.000001 -23.887129 -0.249075 -0.839485 -59.776005 2.537418 -1.170741 -0.294025 1.679686 0.833255 -14.218195 0.093215 1.300579 -34.212002 -0.287561 0.967166 -20.033176 0.964536 1.212838 0.000000 -0.000000 0.000000 -3.440387 0.788233 0.501655 -15.928172 -3.167306 2.999703 -6.338817 -0.000000 0.000001 -18.123419 3.648181 -4.905662 -0.000004 0.000000 -0.000002 9.483460 15.340820 23.394205 59.170094 26.249748 7.263448 0.904061 39.008507 0.568827 -0.984505 4.524174 -11.946399 2.243540 -5.255033 -3.180156 14.282877 -0.826594 6.952496 -0.000000 -12.690593 -0.000001 16.257025 -17.704544 2.650374 1.665665 -1.955920 -2.878297 4.727794 -4.170584 4.993919 11.020511 0.000001 -0.000000 12.109032 -3.735715 -2.866778 0.000000 -0.000000 0.000000 1.291985 -1.928548 -1.498088 14.800115 0.567467 3.865604 14.242553 -1.341738 -6.660648 19.631935 0.143921 -0.648243 49.934986 -0.762411 -6.337477 0.353029 -1.511150 -0.031940 20.222769 3.684305 2.316629 18.787249 0.000001 -0.000001 10.751608 -0.479870 1.397903 0.000000 -0.000000 0.000000 3.273804 0.305947 -0.580110 21.486790 11.830364 2.266131 8.162915 0.000000 -0.000000 18.399052 -3.798986 -4.940567 0.000003 0.000000 -0.000001 11.036259 4.351507 -2.010943 -0.052660 -0.026585 13.352525 -10.176301 -0.938297 -5.505040 1.661797 -1.867335 -1.881198 0.000000 -0.000000 0.000002 -4.932265 -12.797476 -1.200881 0.095072 0.039396 14.134901 8.146297 0.663180 -6.968753 -1.391039 1.098615 -1.452791 0.000000 -0.000000 -0.000001
0.000000 0.000000 0.000000 0.000000 -0.000000 0.000000 4.308568 0.734860 4.159243 -1.391738 0.003893 -3.794012 0.915730 -0.018551 4.689900 -0.216888 -0.229682 -4.099037 0.906076 -1.855585 22.352409 -1.006611 3.888358 34.238770 -1.222650 -0.858221 -3.818090 -2.920370 -1.228719 -12.786790 0.000077 -0.000022 0.000006 -0.031409 0.059414 -0.016556 0.542076 -3.637055 -10.490943 -0.609101 3.768147 -10.526123 -9.219708 -5.674195 23.360407 -53.572918 -34.803196 26.906881 0.064590 -32.869858 0.023452 -5.073163 -3.828283 -4.681731 -5.882102 9.861279 0.702590 -10.936861 -0.360574 7.156197 0.000000 8.774815 -0.000000 -15.887650 18.382639 6.118364 -1.844031 2.498503 -2.507276 -10.163590 4.678941 4.621104 -20.975996 -0.000001 0.000001 -21.226254 2.451698 -3.593995 0.000000 -0.000006 -0.000000 -1.362681 2.240797 -0.746323 -21.334892 0.584910 3.008319 -13.821196 -0.000001 0.000001 -23.887129 -0.249075 -0.839485 -59.683006 2.542286 -1.170798 -0.294025 1.679686 0.833255 -14.218195 0.093215 1.300579 -34.212002 -0.287561 0.967166 -20.033176 0.964536 1.212838 0.000000 -0.000000 0.000000 -3.440387 0.788233 0.501655 -15.928172 -3.167306 2.999703 -6.338817 -0.000000 0.000001 -18.123419 3.648181 -4.905662 -0.000004 0.000000 -0.000002 9.914578 14.998880 23.350349 59.126278 25.167772 8.146040 0.800445 39.321594 0.484811 -0.685059 4.198901 -11.616536 2.243540 -5.255033 -3.180156 14.282877 -0.826594 6.952496 -0.000000 -12.690593 -0.000001 16.262432 -17.719740 2.675788 1.665665 -1.955920 -2.878297 4.727794 -4.170584 4.993919 11.020511 0.000001 -0.000000 12.109032 -3.735715 -2.866778 0.000000 -0.000000 0.000000 1.291985 -1.928548 -1.498088 14.800115 0.567467 3.865604 14.242553 -1.341738 -6.660648 19.631935 0.143921 -0.648243 50.005814 -0.751159 -6.332633 0.353029 -1.511150 -0.031940 20.222769 3.684305 2.316629 18.787249 0.000001 -0.000001 10.751608 -0.479870 1.397903 0.000000 -0.000000 0.000000 3.273804 0.305947 -0.580110 21.486790 11.830364 2.266131 8.162915 0.000000 -0.000000 18.399052 -3.798986 -4.940567 0.000003 0.000000 -0.000001 11.043273 4.245125 -1.562106 -0.053104 -0.040514 12.286826 -10.205609 -0.945639 -4.999067 1.658807 -1.824671 -2.072311 0.000000 -0.000000 0.000002 -4.872364 -12.923920 -0.488995 0.091741 0.023157 12.686483 8.242974 0.525566 -6.609300 -1.391087 1.086272 -1.618531 0.000000 -0.000000 -0.000001
0.000000 0.000000 0.000000 0.000000 0.000000 0.000000 4.308568 0.993381 4.159243 -1.255356 0.042174 -2.463825 0.865682 -0.009380 3.995916 -0.238124 -0.106341 -4.366616 0.953522 -1.738366 20.794555 -1.035302 3.863436 31.196779 -1.099669 -0.969509 -3.806535 -2.191144 -1.378948 -14.159195 0.000077 -0.000022 0.000006 -0.030406 0.070178 0.003895 0.544591 -3.625323 -10.426091 -0.608709 3.777590 -10.453784 -9.146390 -5.309267 22.672719 -54.383963 -33.073498 27.438660 0.060391 -34.132464 0.034552 -5.755800 -3.883617 -4.106078 -5.882102 9.861279 0.702590 -10.936861 -0.360574 7.156197 0.000000 8.774815 0.000000 -15.900058 18.428358 6.138716 -1.844031 2.498503 -2.507276 -10.163590 4.678941 4.621104 -20.975996 -0.000001 0.000001 -21.226254 2.451698 -3.593995 0.000000 -0.000006 0.000000 -1.362681 2.240797 -0.746323 -21.334892 0.584910 3.008319 -13.821196 -0.000001 0.000001 -23.887129 -0.249075 -0.839485 -59.718345 2.572403 -1.200032 -0.294025 1.679686 0.833255 -14.218195 0.093215 1.300579 -34.212002 -0.287561 0.967166 -20.033176 0.964536 1.212838 0.000000 0.000000 0.000000 -3.440387 0.788233 0.501655 -15.928172 -3.167306 2.999703 -6.338817 0.000000 0.000001 -18.123419 3.648181 -4.905662 -0.000004 0.000000 -0.000002 10.069153 14.708447 22.920679 58.713469 22.577536 9.922934 0.638199 41.504108 0.394125 0.062909 3.293525 -9.574532 2.243540 -5.255033 -3.180156 14.282877 -0.826594 6.952496 0.000000 -12.690593 -0.000001 16.244234 -17.752560 2.718886 1.665665 -1.955920 -2.878297 4.727794 -4.170584 4.993919 11.020511 0.000001 -0.000000 12.109032 -3.735715 -2.866778 0.000000 0.000000 0.000000 1.291985 -1.928548 -1.498088 14.800115 0.567467 3.865604 14.242553 -1.341738 -6.660648 19.631935 0.143921 -0.648243 50.106151 -0.726630 -6.321145 0.353029 -1.511150 -0.031940 20.222769 3.684305 2.316629 18.787249 0.000001 -0.000001 10.751608 -0.479870 1.397903 0.000000 0.000000 0.000000 3.273804 0.305947 -0.580110 21.486790 11.830364 2.266131 8.162915 0.000000 0.000000 18.399052 -3.798986 -4.940567 0.000003 0.000000 -0.000001 10.671899 3.884809 -1.631512 -0.045809 -0.051078 10.578675 -10.160610 -0.827821 -4.348489 1.649390 -1.772155 -2.271632 0.000000 0.000000 0.000002 -4.905734 -13.020445 -0.003193 0.086870 0.002183 10.449319 8.552750 -0.130668 -5.998961 -1.393824 1.063455 -1.883297 0.000000 0.000000 -0.000001
0.000000 0.000000 0.000000 0.000000 0.000000 0.000000 4.308568 1.194767 4.159243 -1.121691 0.080573 -0.797778 0.907471 0.007190 3.753039 -0.206917 0.110612 -4.473487 0.986770 -1.493691 19.370087 -1.310032 4.016185 26.501696 -1.018186 -1.241950 -3.803174 -1.543834 -1.676935 -16.680568 0.000077 -0.000022 0.000006 -0.015204 0.053581 0.023045 0.569496 -3.637881 -10.373322 -0.602634 3.755259 -10.393782 -9.022983 -5.128915 21.946498 -54.724013 -31.698565 26.519990 0.083161 -36.157453 0.003975 -6.110287 -4.021508 -4.374666 -5.882102 9.861279 0.702590 -10.936861 -0.360574 7.156197 0.000000 8.774815 0.000000 -15.948124 18.480837 6.133477 -1.844031 2.498503 -2.507276 -10.163590 4.678941 4.621104 -20.975996 -0.000001 0.000001 -21.226254 2.451698 -3.593995 0.000000 -0.000006 0.000000 -1.362681 2.240797 -0.746323 -21.334892 0.584910 3.008319 -13.821196 -0.000001 0.000001 -23.887129 -0.249075 -0.839485 -59.859832 2.600687 -1.246529 -0.294025 1.679686 0.833255 -14.218195 0.093215 1.300579 -34.212002 -0.287561 0.967166 -20.033176 0.964536 1.212838 0.000000 0.000000 0.000000 -3.440387 0.788233 0.501655 -15.928172 -3.167306 2.999703 -6.338817 0.000000 0.000001 -18.123419 3.648181 -4.905662 -0.000004 0.000000 -0.000002 9.728254 14.835546 22.313358 57.482109 19.791522 11.576989 0.618323 45.388175 0.402223 0.886378 2.194331 -6.643410 2.243540 -5.255033 -3.180156 14.282877 -0.826594 6.952496 0.000000 -12.690593 -0.000001 16.225361 -17.801703 2.713251 1.665665 -1.955920 -2.878297 4.727794 -4.170584 4.993919 11.020511 0.000001 -0.000000 12.109032 -3.735715 -2.866778 0.000000 0.000000 0.000000 1.291985 -1.928548 -1.498088 14.800115 0.567467 3.865604 14.242553 -1.341738 -6.660648 19.631935 0.143921 -0.648243 50.147990 -0.713750 -6.347085 0.353029 -1.511150 -0.031940 20.222769 3.684305 2.316629 18.787249 0.000001 -0.000001 10.751608 -0.479870 1.397903 0.000000 0.000000 0.000000 3.273804 0.305947 -0.580110 21.486790 11.830364 2.266131 8.162915 0.000000 0.000000 18.399052 -3.798986 -4.940567 0.000003 0.000000 -0.000001 10.230663 3.452483 -2.487302 -0.029247 -0.059873 9.581858 -10.130963 -0.695510 -4.037205 1.638712 -1.758947 -2.369400 0.000000 0.000000 0.000002 -4.906267 -13.147399 -0.268377 0.079123 0.001452 8.866785 8.871790 -0.934069 -5.568877 -1.395808 1.041378 -2.084221 0.000000 0.000000 -0.000001
0.000000 0.000000 0.000000 0.000000 0.000000 0.000000 4.308568 1.348611 4.159243 -1.057897 0.117050 1.129407 1.023746 0.029695 4.037706 -0.133663 0.412575 -4.400921 1.092927 -1.188783 18.279736 -1.795400 4.237553 20.803297 -1.022781 -1.643219 -3.810434 -1.125913 -2.133857 -20.339563 0.000077 -0.000022 0.000006 0.001242 0.025326 0.040476 0.598644 -3.664407 -10.354785 -0.598833 3.722836 -10.367085 -8.435974 -5.287554 21.327555 -54.703693 -31.149811 25.162579 0.107651 -38.772341 -0.053886 -6.320889 -4.220748 -5.256170 -5.882102 9.861279 0.702590 -10.936861 -0.360574 7.156197 0.000000 8.774815 0.000000 -15.994843 18.515422 6.130211 -1.844031 2.498503 -2.507276 -10.163590 4.678941 4.621104 -20.975996 -0.000001 0.000001 -21.226254 2.451698 -3.593995 0.000000 -0.000006 0.000000 -1.362681 2.240797 -0.746323 -21.334892 0.584910 3.008319 -13.821196 -0.000001 0.000001 -23.887129 -0.249075 -0.839485 -60.080734 2.620740 -1.272400 -0.294025 1.679686 0.833255 -14.218195 0.093215 1.300579 -34.212002 -0.287561 0.967166 -20.033176 0.964536 1.212838 0.000000 0.000000 0.000000 -3.440387 0.788233 0.501655 -15.928172 -3.167306 2.999703 -6.338817 0.000000 0.000001 -18.123419 3.648181 -4.905662 -0.000004 0.000000 -0.000002 8.854110 15.510557 21.580308 55.263877 17.149135 12.869100 0.791355 50.658112 0.555230 1.569783 0.964487 -3.392945 2.243540 -5.255033 -3.180156 14.282877 -0.826594 6.952496 0.000000 -12.690593 -0.000001 16.207948 -17.850401 2.665700 1.665665 -1.955920 -2.878297 4.727794 -4.170584 4.993919 11.020511 0.000001 -0.000000 12.109032 -3.735715 -2.866778 0.000000 0.000000 0.000000 1.291985 -1.928548 -1.498088 14.800115 0.567467 3.865604 14.242553 -1.341738 -6.660648 19.631935 0.143921 -0.648243 50.117634 -0.744738 -6.412937 0.353029 -1.511150 -0.031940 20.222769 3.684305 2.316629 18.787249 0.000001 -0.000001 10.751608 -0.479870 1.397903 0.000000 0.000000 0.000000 3.273804 0.305947 -0.580110 21.486790 11.830364 2.266131 8.162915 0.000000 0.000000 18.399052 -3.798986 -4.940567 0.000003 0.000000 -0.000001 9.831966 3.041384 -4.162400 -0.008912 -0.079087 9.502969 -10.115405 -0.662424 -4.077538 1.628869 -1.781286 -2.387889 0.000000 0.000000 0.000002 -4.818144 -13.472752 -1.197433 0.070941 0.013698 7.898402 9.279767 -1.676182 -5.233613 -1.397440 1.019598 -2.240621 0.000000 0.000000 -0.000001
