HIERARCHY
ROOT Root
{
  OFFSET 0.000000 0.000000 0.000000
  CHANNELS 6 Xposition Yposition Zposition Zrotation Yrotation Xrotation
  JOINT Hips
  {
    OFFSET 0.000000 100.000000 0.000000
    CHANNELS 6 Xposition Yposition Zposition Zrotation Yrotation Xrotation
    JOINT Spine1
    {
      OFFSET -0.013727 5.003763 -0.053727
      CHANNELS 3 Zrotation Yrotation Xrotation
      JOINT Spine2
      {
        OFFSET -0.000000 7.125301 -0.029825
        CHANNELS 3 Zrotation Yrotation Xrotation
        JOINT Chest
        {
          OFFSET -0.000001 7.550063 -0.815971
          CHANNELS 3 Zrotation Yrotation Xrotation
          JOINT Neck1
          {
            OFFSET -0.181677 26.311295 -0.553348
            CHANNELS 3 Zrotation Yrotation Xrotation
            JOINT Neck2
            {
              OFFSET -0.000003 7.709397 2.302585
              CHANNELS 3 Zrotation Yrotation Xrotation
              JOINT Head
              {
                OFFSET -0.000005 6.128916 1.953709
                CHANNELS 3 Zrotation Yrotation Xrotation
                JOINT HeadEnd
                {
                  OFFSET 0.003598 16.065403 -1.835379
                  CHANNELS 3 Zrotation Yrotation Xrotation
                }
                JOINT Jaw
                {
                  OFFSET 0.002637 0.475592 3.094941
                  CHANNELS 3 Zrotation Yrotation Xrotation
                }
                JOINT LeftEye
                {
                  OFFSET 3.206381 5.380205 7.586883
                  CHANNELS 3 Zrotation Yrotation Xrotation
                }
                JOINT RightEye
                {
                  OFFSET -3.222440 5.361869 7.558234
                  CHANNELS 3 Zrotation Yrotation Xrotation
                }
              }
            }
          }
          JOINT LeftShoulder
          {
            OFFSET 1.621652 23.237164 5.113413
            CHANNELS 3 Zrotation Yrotation Xrotation
            JOINT LeftArm
            {
              OFFSET 14.919846 0.000002 -5.502326
              CHANNELS 3 Zrotation Yrotation Xrotation
              JOINT LeftForeArm
              {
                OFFSET 28.739307 0.000000 -0.002588
                CHANNELS 3 Zrotation Yrotation Xrotation
                JOINT LeftHand
                {
                  OFFSET 27.093981 -0.000001 0.002609
                  CHANNELS 3 Zrotation Yrotation Xrotation
                  JOINT LeftHandThumb1
                  {
                    OFFSET 2.276482 -1.392045 3.191413
                    CHANNELS 3 Zrotation Yrotation Xrotation
                    JOINT LeftHandThumb2
                    {
                      OFFSET 4.012836 -1.828127 1.641654
                      CHANNELS 3 Zrotation Yrotation Xrotation
                      JOINT LeftHandThumb3
                      {
                        OFFSET 2.798515 0.000000 -0.000003
                        CHANNELS 3 Zrotation Yrotation Xrotation
                        JOINT LeftHandThumbEnd
                        {
                          OFFSET 3.180793 -0.000004 0.000004
                          CHANNELS 3 Zrotation Yrotation Xrotation
                        }
                      }
                    }
                  }
                  JOINT LeftHandIndex1
                  {
                    OFFSET 3.247555 -0.531998 2.296169
                    CHANNELS 3 Zrotation Yrotation Xrotation
                    JOINT LeftHandIndex2
                    {
                      OFFSET 6.364578 0.012060 0.178600
                      CHANNELS 3 Zrotation Yrotation Xrotation
                      JOINT LeftHandIndex3
                      {
                        OFFSET 3.662364 0.000000 0.000000
                        CHANNELS 3 Zrotation Yrotation Xrotation
                        JOINT LeftHandIndex4
                        {
                          OFFSET 2.329242 0.000004 0.000004
                          CHANNELS 3 Zrotation Yrotation Xrotation
                          JOINT LeftHandIndexEnd
                          {
                            OFFSET 2.759615 -0.180537 -0.113024
                            CHANNELS 3 Zrotation Yrotation Xrotation
                          }
                        }
                      }
                    }
                  }
                  JOINT LeftHandMiddle1
                  {
                    OFFSET 3.163495 0.240981 1.000332
                    CHANNELS 3 Zrotation Yrotation Xrotation
                    JOINT LeftHandMiddle2
                    {
                      OFFSET 6.190780 -0.259278 -1.002548
                      CHANNELS 3 Zrotation Yrotation Xrotation
                      JOINT LeftHandMiddle3
                      {
                        OFFSET 4.356520 -0.000004 -0.000001
                        CHANNELS 3 Zrotation Yrotation Xrotation
                        JOINT LeftHandMiddle4
                        {
                          OFFSET 2.996877 -0.000008 0.000000
                          CHANNELS 3 Zrotation Yrotation Xrotation
                          JOINT LeftHandMiddleEnd
                          {
                            OFFSET 2.304287 -0.294569 -0.031741
                            CHANNELS 3 Zrotation Yrotation Xrotation
                          }
                        }
                      }
                    }
                  }
                  JOINT LeftHandRing1
                  {
                    OFFSET 2.882643 -0.053652 -0.322543
                    CHANNELS 3 Zrotation Yrotation Xrotation
                    JOINT LeftHandRing2
                    {
                      OFFSET 5.854541 -0.486202 -1.373841
                      CHANNELS 3 Zrotation Yrotation Xrotation
                      JOINT LeftHandRing3
                      {
                        OFFSET 4.350578 0.000000 0.000003
                        CHANNELS 3 Zrotation Yrotation Xrotation
                        JOINT LeftHandRing4
                        {
                          OFFSET 2.651321 0.000007 0.000002
                          CHANNELS 3 Zrotation Yrotation Xrotation
                          JOINT LeftHandRingEnd
                          {
                            OFFSET 1.936105 0.077687 -0.000071
                            CHANNELS 3 Zrotation Yrotation Xrotation
                          }
                        }
                      }
                    }
                  }
                  JOINT LeftHandPinky1
                  {
                    OFFSET 2.865500 -0.310005 -1.600378
                    CHANNELS 3 Zrotation Yrotation Xrotation
                    JOINT LeftHandPinky2
                    {
                      OFFSET 5.087849 -1.331141 -1.771230
                      CHANNELS 3 Zrotation Yrotation Xrotation
                      JOINT LeftHandPinky3
                      {
                        OFFSET 3.070974 0.000004 0.000000
                        CHANNELS 3 Zrotation Yrotation Xrotation
                        JOINT LeftHandPinky4
                        {
                          OFFSET 1.549672 0.000000 0.000001
                          CHANNELS 3 Zrotation Yrotation Xrotation
                          JOINT LeftHandPinkyEnd
                          {
                            OFFSET 1.944893 -0.157802 0.057219
                            CHANNELS 3 Zrotation Yrotation Xrotation
                          }
                        }
                      }
                    }
                  }
                }
              }
            }
          }
          JOINT RightShoulder
          {
            OFFSET -1.380118 23.180309 5.214158
            CHANNELS 3 Zrotation Yrotation Xrotation
            JOINT RightArm
            {
              OFFSET -15.037196 0.000012 -5.545604
              CHANNELS 3 Zrotation Yrotation Xrotation
              JOINT RightForeArm
              {
                OFFSET -28.736639 0.000002 -0.002597
                CHANNELS 3 Zrotation Yrotation Xrotation
                JOINT RightHand
                {
                  OFFSET -27.133619 -0.000000 0.002613
                  CHANNELS 3 Zrotation Yrotation Xrotation
                  JOINT RightHandThumb1
                  {
                    OFFSET -2.274032 -1.383988 3.163127
                    CHANNELS 3 Zrotation Yrotation Xrotation
                    JOINT RightHandThumb2
                    {
                      OFFSET -4.011429 -1.827466 1.640914
                      CHANNELS 3 Zrotation Yrotation Xrotation
                      JOINT RightHandThumb3
                      {
                        OFFSET -2.794935 -0.000004 -0.000003
                        CHANNELS 3 Zrotation Yrotation Xrotation
                        JOINT RightHandThumbEnd
                        {
                          OFFSET -3.183852 0.000004 0.000001
                          CHANNELS 3 Zrotation Yrotation Xrotation
                        }
                      }
                    }
                  }
                  JOINT RightHandIndex1
                  {
                    OFFSET -3.253266 -0.520057 2.282866
                    CHANNELS 3 Zrotation Yrotation Xrotation
                    JOINT RightHandIndex2
                    {
                      OFFSET -6.341917 0.012471 0.178266
                      CHANNELS 3 Zrotation Yrotation Xrotation
                      JOINT RightHandIndex3
                      {
                        OFFSET -3.654871 -0.000008 -0.000000
                        CHANNELS 3 Zrotation Yrotation Xrotation
                        JOINT RightHandIndex4
                        {
                          OFFSET -2.327586 0.000000 0.000001
                          CHANNELS 3 Zrotation Yrotation Xrotation
                          JOINT RightHandIndexEnd
                          {
                            OFFSET -2.761790 -0.180656 -0.113078
                            CHANNELS 3 Zrotation Yrotation Xrotation
                          }
                        }
                      }
                    }
                  }
                  JOINT RightHandMiddle1
                  {
                    OFFSET -3.168106 0.246593 1.001030
                    CHANNELS 3 Zrotation Yrotation Xrotation
                    JOINT RightHandMiddle2
                    {
                      OFFSET -6.180828 -0.258836 -1.000895
                      CHANNELS 3 Zrotation Yrotation Xrotation
                      JOINT RightHandMiddle3
                      {
                        OFFSET -4.348901 0.000000 -0.000000
                        CHANNELS 3 Zrotation Yrotation Xrotation
                        JOINT RightHandMiddle4
                        {
                          OFFSET -3.000240 -0.000004 -0.000002
                          CHANNELS 3 Zrotation Yrotation Xrotation
                          JOINT RightHandMiddleEnd
                          {
                            OFFSET -2.302520 -0.294370 -0.031706
                            CHANNELS 3 Zrotation Yrotation Xrotation
                          }
                        }
                      }
                    }
                  }
                  JOINT RightHandRing1
                  {
                    OFFSET -2.885690 -0.067952 -0.308858
                    CHANNELS 3 Zrotation Yrotation Xrotation
                    JOINT RightHandRing2
                    {
                      OFFSET -5.854198 -0.486130 -1.373731
                      CHANNELS 3 Zrotation Yrotation Xrotation
                      JOINT RightHandRing3
                      {
                        OFFSET -4.338810 -0.000004 -0.000000
                        CHANNELS 3 Zrotation Yrotation Xrotation
                        JOINT RightHandRing4
                        {
                          OFFSET -2.654903 -0.000004 0.000004
                          CHANNELS 3 Zrotation Yrotation Xrotation
                          JOINT RightHandRingEnd
                          {
                            OFFSET -1.933568 0.077527 -0.000052
                            CHANNELS 3 Zrotation Yrotation Xrotation
                          }
                        }
                      }
                    }
                  }
                  JOINT RightHandPinky1
                  {
                    OFFSET -2.866425 -0.342796 -1.584145
                    CHANNELS 3 Zrotation Yrotation Xrotation
                    JOINT RightHandPinky2
                    {
                      OFFSET -5.091371 -1.332055 -1.772385
                      CHANNELS 3 Zrotation Yrotation Xrotation
                      JOINT RightHandPinky3
                      {
                        OFFSET -3.062664 -0.000004 0.000001
                        CHANNELS 3 Zrotation Yrotation Xrotation
                        JOINT RightHandPinky4
                        {
                          OFFSET -1.546529 0.000004 -0.000002
                          CHANNELS 3 Zrotation Yrotation Xrotation
                          JOINT RightHandPinkyEnd
                          {
                            OFFSET -1.945119 -0.157718 0.057211
                            CHANNELS 3 Zrotation Yrotation Xrotation
                          }
                        }
                      }
                    }
                  }
                }
              }
            }
          }
        }
      }
    }
    JOINT LeftLeg
    {
      OFFSET 10.043214 -8.434526 2.595655
      CHANNELS 3 Zrotation Yrotation Xrotation
      JOINT LeftShin
      {
        OFFSET -0.000001 -43.221752 -0.802913
        CHANNELS 3 Zrotation Yrotation Xrotation
        JOINT LeftFoot
        {
          OFFSET 0.000001 -42.155094 -3.481523
          CHANNELS 3 Zrotation Yrotation Xrotation
          JOINT LeftToeBase
          {
            OFFSET 0.000000 -5.059472 13.231529
            CHANNELS 3 Zrotation Yrotation Xrotation
            JOINT LeftToeEnd
            {
              OFFSET -0.009607 -1.647619 6.513017
              CHANNELS 3 Zrotation Yrotation Xrotation
            }
          }
        }
      }
    }
    JOINT RightLeg
    {
      OFFSET -10.047278 -8.295260 2.620317
      CHANNELS 3 Zrotation Yrotation Xrotation
      JOINT RightShin
      {
        OFFSET 0.000001 -43.362206 -0.805556
        CHANNELS 3 Zrotation Yrotation Xrotation
        JOINT RightFoot
        {
          OFFSET 0.000002 -42.117393 -3.478398
          CHANNELS 3 Zrotation Yrotation Xrotation
          JOINT RightToeBase
          {
            OFFSET -0.000000 -5.079609 13.284196
            CHANNELS 3 Zrotation Yrotation Xrotation
            JOINT RightToeEnd
            {
              OFFSET 0.009532 -1.634378 6.460591
              CHANNELS 3 Zrotation Yrotation Xrotation
            }
          }
        }
      }
    }
  }
}
MOTION
Frames: 30
Frame Time: 0.03333333
0.000000 0.000000 0.000000 0.000000 -0.000000 0.000000 1.316361 -68.938162 1.432750 74.611610 79.370178 52.727268 15.503469 -1.685605 1.394047 7.471850 6.335977 -0.406972 14.239251 12.350300 12.411977 -16.997570 20.541714 9.925720 7.084598 28.053083 -2.010832 -3.430797 38.138306 15.008860 0.000077 -0.000022 0.000006 0.147694 -0.079677 -0.231358 0.973357 -3.748549 -11.262848 -0.704910 3.591267 -11.082862 -17.719049 67.460815 20.109928 -144.582642 50.006008 -46.850426 26.863451 -78.990067 -34.591389 33.031647 7.296537 -9.650824 -5.882102 9.861279 0.702590 -10.936861 -0.360574 7.156197 0.000000 8.774815 -0.000000 -17.067766 18.321949 7.422818 -1.844031 2.498503 -2.507276 -10.163590 4.678941 4.621104 -20.975996 -0.000001 0.000001 -21.226254 2.451698 -3.593995 0.000000 -0.000006 -0.000000 -1.362681 2.240797 -0.746323 -21.334892 0.584910 3.008319 -13.821196 -0.000001 0.000001 -23.887129 -0.249075 -0.839485 -64.000694 1.621170 -0.665914 -0.294025 1.679686 0.833255 -14.218195 0.093215 1.300579 -34.212002 -0.287561 0.967166 -20.033176 0.964536 1.212838 0.000000 -0.000000 0.000000 -3.440387 0.788233 0.501655 -15.928172 -3.167306 2.999703 -6.338817 -0.000000 0.000001 -18.123419 3.648181 -4.905662 -0.000004 0.000000 -0.000002 -7.887030 21.402618 19.084660 43.277145 -28.728928 12.320589 8.094806 44.700222 3.429967 39.396473 2.102743 -64.469887 2.243540 -5.255033 -3.180156 14.282877 -0.826594 6.952496 -0.000000 -12.690593 -0.000001 16.174570 -17.650492 1.186299 1.665665 -1.955920 -2.878297 4.727794 -4.170584 4.993919 11.020511 0.000001 -0.000000 12.109032 -3.735715 -2.866778 0.000000 -0.000000 0.000000 1.291985 -1.928548 -1.498088 14.800115 0.567467 3.865604 14.242553 -1.341738 -6.660648 19.631935 0.143921 -0.648243 51.814304 1.112413 -6.944637 0.353029 -1.511150 -0.031940 20.222769 3.684305 2.316629 18.787249 0.000001 -0.000001 10.751608 -0.479870 1.397903 0.000000 -0.000000 0.000000 3.273804 0.305947 -0.580110 21.486790 11.830364 2.266131 8.162915 0.000000 -0.000000 18.399052 -3.798986 -4.940567 0.000003 0.000000 -0.000001 -40.521507 -33.643524 -88.893494 -1.328480 0.416722 106.001503 -18.394360 26.274874 12.611621 1.812899 -2.904359 3.704269 0.000000 -0.000000 0.000002 -104.754875 -55.034630 -31.374361 0.345944 0.086603 139.570496 3.224535 -0.839752 -13.911375 -1.171988 -0.009422 5.726555 0.000000 -0.000000 -0.000001
0.000000 0.000000 0.000000 0.000000 -0.000000 0.000000 1.316361 -68.945547 1.432750 74.593168 79.363597 52.743562 15.534472 -1.661238 1.357641 7.482861 6.338778 -0.406391 14.231451 12.403974 12.444488 -16.911198 20.527859 9.954213 7.131178 28.114620 -1.945452 -3.501471 38.119831 15.099705 0.000077 -0.000022 0.000006 0.152103 -0.058869 -0.232027 0.976501 -3.726550 -11.270864 -0.699184 3.610920 -11.092422 -17.697086 67.452766 20.134319 -144.481979 50.033264 -46.620117 26.921347 -78.911324 -34.727173 33.093288 7.328208 -9.719211 -5.882102 9.861279 0.702590 -10.936861 -0.360574 7.156197 0.000000 8.774815 -0.000000 -17.051756 18.348612 7.440373 -1.844031 2.498503 -2.507276 -10.163590 4.678941 4.621104 -20.975996 -0.000001 0.000001 -21.226254 2.451698 -3.593995 0.000000 -0.000006 -0.000000 -1.362681 2.240797 -0.746323 -21.334892 0.584910 3.008319 -13.821196 -0.000001 0.000001 -23.887129 -0.249075 -0.839485 -64.039162 1.634549 -0.704290 -0.294025 1.679686 0.833255 -14.218195 0.093215 1.300579 -34.212002 -0.287561 0.967166 -20.033176 0.964536 1.212838 0.000000 -0.000000 0.000000 -3.440387 0.788233 0.501655 -15.928172 -3.167306 2.999703 -6.338817 -0.000000 0.000001 -18.123419 3.648181 -4.905662 -0.000004 0.000000 -0.000002 -7.878530 21.439581 19.072891 43.223812 -28.834833 12.357495 8.291451 44.810066 3.549790 39.367577 2.105641 -64.619827 2.243540 -5.255033 -3.180156 14.282877 -0.826594 6.952496 -0.000000 -12.690593 -0.000001 16.119984 -17.606550 1.189108 1.665665 -1.955920 -2.878297 4.727794 -4.170584 4.993919 11.020511 0.000001 -0.000000 12.109032 -3.735715 -2.866778 0.000000 -0.000000 0.000000 1.291985 -1.928548 -1.498088 14.800115 0.567467 3.865604 14.242553 -1.341738 -6.660648 19.631935 0.143921 -0.648243 51.713299 1.141312 -6.908137 0.353029 -1.511150 -0.031940 20.222769 3.684305 2.316629 18.787249 0.000001 -0.000001 10.751608 -0.479870 1.397903 0.000000 -0.000000 0.000000 3.273804 0.305947 -0.580110 21.486790 11.830364 2.266131 8.162915 0.000000 -0.000000 18.399052 -3.798986 -4.940567 0.000003 0.000000 -0.000001 -40.369312 -33.561451 -88.987106 -1.335736 0.429899 105.997833 -18.605394 26.061922 12.436389 1.830045 -2.899133 3.677898 0.000000 -0.000000 0.000002 -104.611710 -55.124329 -31.501711 0.343690 0.091097 139.652756 3.244730 -0.933067 -13.990559 -1.172100 -0.013198 5.798831 0.000000 -0.000000 -0.000001
0.000000 0.000000 0.000000 0.000000 -0.000000 0.000000 1.316361 -68.952228 1.432750 74.534560 79.370034 52.710179 15.572164 -1.639825 1.329332 7.478492 6.340931 -0.409272 14.260799 12.437435 12.482028 -16.816393 20.517582 9.989113 7.166978 28.209242 -1.869503 -3.586471 38.124592 15.154945 0.000077 -0.000022 0.000006 0.157002 -0.040791 -0.233734 0.979961 -3.706080 -11.274944 -0.692856 3.626919 -11.097080 -17.744329 67.470383 20.094460 -144.418945 50.065163 -46.483067 26.953951 -78.864349 -34.854416 33.127655 7.330710 -9.781824 -5.882102 9.861279 0.702590 -10.936861 -0.360574 7.156197 0.000000 8.774815 -0.000000 -17.045156 18.361341 7.450686 -1.844031 2.498503 -2.507276 -10.163590 4.678941 4.621104 -20.975996 -0.000001 0.000001 -21.226254 2.451698 -3.593995 0.000000 -0.000006 -0.000000 -1.362681 2.240797 -0.746323 -21.334892 0.584910 3.008319 -13.821196 -0.000001 0.000001 -23.887129 -0.249075 -0.839485 -64.068565 1.612235 -0.726869 -0.294025 1.679686 0.833255 -14.218195 0.093215 1.300579 -34.212002 -0.287561 0.967166 -20.033176 0.964536 1.212838 0.000000 -0.000000 0.000000 -3.440387 0.788233 0.501655 -15.928172 -3.167306 2.999703 -6.338817 -0.000000 0.000001 -18.123419 3.648181 -4.905662 -0.000004 0.000000 -0.000002 -7.861504 21.498804 19.073566 43.146069 -28.937090 12.452014 8.410264 44.932297 3.642622 39.437271 2.116592 -64.753723 2.243540 -5.255033 -3.180156 14.282877 -0.826594 6.952496 -0.000000 -12.690593 -0.000001 16.084150 -17.600637 1.196372 1.665665 -1.955920 -2.878297 4.727794 -4.170584 4.993919 11.020511 0.000001 -0.000000 12.109032 -3.735715 -2.866778 0.000000 -0.000000 0.000000 1.291985 -1.928548 -1.498088 14.800115 0.567467 3.865604 14.242553 -1.341738 -6.660648 19.631935 0.143921 -0.648243 51.679642 1.160111 -6.875492 0.353029 -1.511150 -0.031940 20.222769 3.684305 2.316629 18.787249 0.000001 -0.000001 10.751608 -0.479870 1.397903 0.000000 -0.000000 0.000000 3.273804 0.305947 -0.580110 21.486790 11.830364 2.266131 8.162915 0.000000 -0.000000 18.399052 -3.798986 -4.940567 0.000003 0.000000 -0.000001 -40.230595 -33.482090 -89.082695 -1.335384 0.447113 106.021996 -18.700405 25.879129 12.349842 1.846505 -2.895729 3.664240 0.000000 -0.000000 0.000002 -104.457954 -55.225292 -31.605011 0.334205 0.101443 139.758347 3.283264 -0.994516 -14.120255 -1.173807 -0.013484 5.854144 0.000000 -0.000000 -0.000001
0.000000 0.000000 0.000000 0.000000 -0.000000 0.000000 1.316361 -68.964138 1.432750 74.440743 79.390213 52.625753 15.620648 -1.619827 1.304503 7.465454 6.343493 -0.410443 14.295757 12.448361 12.511522 -16.733576 20.536596 10.018354 7.161873 28.282476 -1.816874 -3.641507 38.142624 15.174181 0.000077 -0.000022 0.000006 0.161128 -0.022948 -0.234293 0.982712 -3.684063 -11.275674 -0.687446 3.640656 -11.098374 -17.869823 67.517181 19.983971 -144.351166 50.115444 -46.396690 27.024708 -78.844208 -34.969055 33.130161 7.348911 -9.889872 -5.882102 9.861279 0.702590 -10.936861 -0.360574 7.156197 0.000000 8.774815 -0.000000 -17.052313 18.339821 7.445869 -1.844031 2.498503 -2.507276 -10.163590 4.678941 4.621104 -20.975996 -0.000001 0.000001 -21.226254 2.451698 -3.593995 0.000000 -0.000006 -0.000000 -1.362681 2.240797 -0.746323 -21.334892 0.584910 3.008319 -13.821196 -0.000001 0.000001 -23.887129 -0.249075 -0.839485 -64.123131 1.556422 -0.724532 -0.294025 1.679686 0.833255 -14.218195 0.093215 1.300579 -34.212002 -0.287561 0.967166 -20.033176 0.964536 1.212838 0.000000 -0.000000 0.000000 -3.440387 0.788233 0.501655 -15.928172 -3.167306 2.999703 -6.338817 -0.000000 0.000001 -18.123419 3.648181 -4.905662 -0.000004 0.000000 -0.000002 -7.829015 21.578737 19.096540 43.071739 -29.047493 12.604573 8.406888 45.029179 3.666958 39.642681 2.184368 -64.863922 2.243540 -5.255033 -3.180156 14.282877 -0.826594 6.952496 -0.000000 -12.690593 -0.000001 16.077936 -17.637875 1.203413 1.665665 -1.955920 -2.878297 4.727794 -4.170584 4.993919 11.020511 0.000001 -0.000000 12.109032 -3.735715 -2.866778 0.000000 -0.000000 0.000000 1.291985 -1.928548 -1.498088 14.800115 0.567467 3.865604 14.242553 -1.341738 -6.660648 19.631935 0.143921 -0.648243 51.725773 1.154727 -6.867974 0.353029 -1.511150 -0.031940 20.222769 3.684305 2.316629 18.787249 0.000001 -0.000001 10.751608 -0.479870 1.397903 0.000000 -0.000000 0.000000 3.273804 0.305947 -0.580110 21.486790 11.830364 2.266131 8.162915 0.000000 -0.000000 18.399052 -3.798986 -4.940567 0.000003 0.000000 -0.000001 -40.094681 -33.391026 -89.164658 -1.325528 0.465018 106.061783 -18.720812 25.649254 12.278685 1.855947 -2.898930 3.678262 0.000000 -0.000000 0.000002 -104.345253 -55.297722 -31.651323 0.317159 0.112402 139.875793 3.294093 -1.022304 -14.268953 -1.174201 -0.011678 5.901064 0.000000 -0.000000 -0.000001
0.000000 0.000000 0.000000 0.000000 -0.000000 0.000000 1.316361 -68.987985 1.432750 74.388410 79.407633 52.559157 15.669677 -1.603086 1.284166 7.447721 6.350770 -0.416871 14.321113 12.448186 12.543624 -16.671719 20.550774 10.054832 7.147265 28.352352 -1.785236 -3.665884 38.165852 15.162923 0.000077 -0.000022 0.000006 0.163473 -0.009747 -0.234119 0.984556 -3.666126 -11.278559 -0.684722 3.649479 -11.102403 -18.059578 67.558205 19.825809 -144.259399 50.162415 -46.354164 26.895548 -78.847633 -34.809067 33.099545 7.409088 -10.070616 -5.882102 9.861279 0.702590 -10.936861 -0.360574 7.156197 0.000000 8.774815 -0.000000 -17.087847 18.315733 7.425935 -1.844031 2.498503 -2.507276 -10.163590 4.678941 4.621104 -20.975996 -0.000001 0.000001 -21.226254 2.451698 -3.593995 0.000000 -0.000006 -0.000000 -1.362681 2.240797 -0.746323 -21.334892 0.584910 3.008319 -13.821196 -0.000001 0.000001 -23.887129 -0.249075 -0.839485 -64.209457 1.487733 -0.701566 -0.294025 1.679686 0.833255 -14.218195 0.093215 1.300579 -34.212002 -0.287561 0.967166 -20.033176 0.964536 1.212838 0.000000 -0.000000 0.000000 -3.440387 0.788233 0.501655 -15.928172 -3.167306 2.999703 -6.338817 -0.000000 0.000001 -18.123419 3.648181 -4.905662 -0.000004 0.000000 -0.000002 -7.785172 21.650555 19.132843 42.988449 -29.141758 12.813655 8.302395 45.081833 3.619567 39.923832 2.284374 -64.930626 2.243540 -5.255033 -3.180156 14.282877 -0.826594 6.952496 -0.000000 -12.690593 -0.000001 16.101238 -17.696299 1.198841 1.665665 -1.955920 -2.878297 4.727794 -4.170584 4.993919 11.020511 0.000001 -0.000000 12.109032 -3.735715 -2.866778 0.000000 -0.000000 0.000000 1.291985 -1.928548 -1.498088 14.800115 0.567467 3.865604 14.242553 -1.341738 -6.660648 19.631935 0.143921 -0.648243 51.798450 1.135103 -6.894483 0.353029 -1.511150 -0.031940 20.222769 3.684305 2.316629 18.787249 0.000001 -0.000001 10.751608 -0.479870 1.397903 0.000000 -0.000000 0.000000 3.273804 0.305947 -0.580110 21.486790 11.830364 2.266131 8.162915 0.000000 -0.000000 18.399052 -3.798986 -4.940567 0.000003 0.000000 -0.000001 -39.996307 -33.294353 -89.215767 -1.318630 0.482998 106.112778 -18.719332 25.400116 12.182029 1.855341 -2.908400 3.694308 0.000000 -0.000000 0.000002 -104.316902 -55.327293 -31.647444 0.297964 0.117638 139.997757 3.248226 -1.040864 -14.397488 -1.173015 -0.008132 5.913866 0.000000 -0.000000 -0.000001
0.000000 0.000000 0.000000 0.000000 -0.000000 0.000000 1.316361 -69.006176 1.432750 74.395650 79.410559 52.551612 15.709579 -1.593649 1.273953 7.425160 6.362261 -0.430232 14.339735 12.453616 12.568211 -16.654463 20.555126 10.057460 7.159534 28.430485 -1.773426 -3.656668 38.183887 15.158463 0.000077 -0.000022 0.000006 0.164584 -0.002335 -0.233481 0.982295 -3.656053 -11.281525 -0.680352 3.653962 -11.104799 -18.275208 67.593346 19.652306 -144.161255 50.209282 -46.303425 26.737568 -78.840820 -34.585232 33.056908 7.489140 -10.346726 -5.882102 9.861279 0.702590 -10.936861 -0.360574 7.156197 0.000000 8.774815 -0.000000 -17.132690 18.296638 7.391451 -1.844031 2.498503 -2.507276 -10.163590 4.678941 4.621104 -20.975996 -0.000001 0.000001 -21.226254 2.451698 -3.593995 0.000000 -0.000006 -0.000000 -1.362681 2.240797 -0.746323 -21.334892 0.584910 3.008319 -13.821196 -0.000001 0.000001 -23.887129 -0.249075 -0.839485 -64.276497 1.413365 -0.665077 -0.294025 1.679686 0.833255 -14.218195 0.093215 1.300579 -34.212002 -0.287561 0.967166 -20.033176 0.964536 1.212838 0.000000 -0.000000 0.000000 -3.440387 0.788233 0.501655 -15.928172 -3.167306 2.999703 -6.338817 -0.000000 0.000001 -18.123419 3.648181 -4.905662 -0.000004 0.000000 -0.000002 -7.736813 21.712929 19.153236 42.869122 -29.210350 13.062694 8.210894 45.069241 3.559191 40.171043 2.398556 -64.873650 2.243540 -5.255033 -3.180156 14.282877 -0.826594 6.952496 -0.000000 -12.690593 -0.000001 16.119593 -17.749264 1.200919 1.665665 -1.955920 -2.878297 4.727794 -4.170584 4.993919 11.020511 0.000001 -0.000000 12.109032 -3.735715 -2.866778 0.000000 -0.000000 0.000000 1.291985 -1.928548 -1.498088 14.800115 0.567467 3.865604 14.242553 -1.341738 -6.660648 19.631935 0.143921 -0.648243 51.849213 1.105710 -6.944837 0.353029 -1.511150 -0.031940 20.222769 3.684305 2.316629 18.787249 0.000001 -0.000001 10.751608 -0.479870 1.397903 0.000000 -0.000000 0.000000 3.273804 0.305947 -0.580110 21.486790 11.830364 2.266131 8.162915 0.000000 -0.000000 18.399052 -3.798986 -4.940567 0.000003 0.000000 -0.000001 -39.945099 -33.188480 -89.247292 -1.313539 0.497722 106.177979 -18.646057 25.168493 12.086383 1.852526 -2.917183 3.724555 0.000000 -0.000000 0.000002 -104.348343 -55.331314 -31.602333 0.279351 0.118231 140.102081 3.191795 -1.046033 -14.510488 -1.171468 -0.000161 5.883852 0.000000 -0.000000 -0.000001
0.000000 0.000000 0.000000 0.000000 -0.000000 0.000000 1.316361 -69.019516 1.432750 74.460473 79.398762 52.603464 15.735005 -1.593880 1.267032 7.402336 6.374698 -0.440920 14.349998 12.490593 12.594145 -16.631451 20.544113 10.026577 7.190076 28.523329 -1.771101 -3.615709 38.183147 15.185706 0.000077 -0.000022 0.000006 0.162128 -0.001431 -0.233663 0.976172 -3.655212 -11.287503 -0.679201 3.655095 -11.111014 -18.455231 67.582741 19.486219 -144.096024 50.269032 -46.304291 26.378099 -78.834312 -34.164577 33.034691 7.569853 -10.633621 -5.882102 9.861279 0.702590 -10.936861 -0.360574 7.156197 0.000000 8.774815 -0.000000 -17.195868 18.308521 7.354577 -1.844031 2.498503 -2.507276 -10.163590 4.678941 4.621104 -20.975996 -0.000001 0.000001 -21.226254 2.451698 -3.593995 0.000000 -0.000006 -0.000000 -1.362681 2.240797 -0.746323 -21.334892 0.584910 3.008319 -13.821196 -0.000001 0.000001 -23.887129 -0.249075 -0.839485 -64.354523 1.354392 -0.622205 -0.294025 1.679686 0.833255 -14.218195 0.093215 1.300579 -34.212002 -0.287561 0.967166 -20.033176 0.964536 1.212838 0.000000 -0.000000 0.000000 -3.440387 0.788233 0.501655 -15.928172 -3.167306 2.999703 -6.338817 -0.000000 0.000001 -18.123419 3.648181 -4.905662 -0.000004 0.000000 -0.000002 -7.679345 21.759378 19.172001 42.736443 -29.246567 13.300334 8.161321 44.992928 3.505840 40.347225 2.487944 -64.653267 2.243540 -5.255033 -3.180156 14.282877 -0.826594 6.952496 -0.000000 -12.690593 -0.000001 16.155630 -17.805756 1.200944 1.665665 -1.955920 -2.878297 4.727794 -4.170584 4.993919 11.020511 0.000001 -0.000000 12.109032 -3.735715 -2.866778 0.000000 -0.000000 0.000000 1.291985 -1.928548 -1.498088 14.800115 0.567467 3.865604 14.242553 -1.341738 -6.660648 19.631935 0.143921 -0.648243 51.892944 1.063673 -7.022184 0.353029 -1.511150 -0.031940 20.222769 3.684305 2.316629 18.787249 0.000001 -0.000001 10.751608 -0.479870 1.397903 0.000000 -0.000000 0.000000 3.273804 0.305947 -0.580110 21.486790 11.830364 2.266131 8.162915 0.000000 -0.000000 18.399052 -3.798986 -4.940567 0.000003 0.000000 -0.000001 -39.924351 -33.068851 -89.281364 -1.312399 0.510538 106.260101 -18.542435 25.006325 11.995129 1.842292 -2.922416 3.781136 0.000000 -0.000000 0.000002 -104.398003 -55.332588 -31.556086 0.266364 0.116076 140.194824 3.113526 -1.043318 -14.614358 -1.171112 0.002938 5.808247 0.000000 -0.000000 -0.000001
0.000000 0.000000 0.000000 0.000000 -0.000000 0.000000 1.316361 -69.025440 1.432750 74.528097 79.378116 52.683486 15.765149 -1.590716 1.255565 7.381871 6.368786 -0.441975 14.353173 12.566072 12.615632 -16.638716 20.531246 9.947183 7.236288 28.608942 -1.782687 -3.542731 38.204124 15.220451 0.000077 -0.000022 0.000006 0.155534 -0.014884 -0.233952 0.967285 -3.668373 -11.285905 -0.683538 3.641492 -11.113042 -18.683224 67.537613 19.283253 -144.055893 50.291805 -46.371792 25.993401 -78.803246 -33.735569 33.017254 7.613019 -10.800258 -5.882102 9.861279 0.702590 -10.936861 -0.360574 7.156197 0.000000 8.774815 -0.000000 -17.266470 18.347818 7.338625 -1.844031 2.498503 -2.507276 -10.163590 4.678941 4.621104 -20.975996 -0.000001 0.000001 -21.226254 2.451698 -3.593995 0.000000 -0.000006 -0.000000 -1.362681 2.240797 -0.746323 -21.334892 0.584910 3.008319 -13.821196 -0.000001 0.000001 -23.887129 -0.249075 -0.839485 -64.439796 1.339493 -0.589090 -0.294025 1.679686 0.833255 -14.218195 0.093215 1.300579 -34.212002 -0.287561 0.967166 -20.033176 0.964536 1.212838 0.000000 -0.000000 0.000000 -3.440387 0.788233 0.501655 -15.928172 -3.167306 2.999703 -6.338817 -0.000000 0.000001 -18.123419 3.648181 -4.905662 -0.000004 0.000000 -0.000002 -7.636434 21.787186 19.167788 42.589016 -29.248758 13.529519 8.172885 44.882103 3.479919 40.426186 2.565087 -64.377075 2.243540 -5.255033 -3.180156 14.282877 -0.826594 6.952496 -0.000000 -12.690593 -0.000001 16.194923 -17.861572 1.194781 1.665665 -1.955920 -2.878297 4.727794 -4.170584 4.993919 11.020511 0.000001 -0.000000 12.109032 -3.735715 -2.866778 0.000000 -0.000000 0.000000 1.291985 -1.928548 -1.498088 14.800115 0.567467 3.865604 14.242553 -1.341738 -6.660648 19.631935 0.143921 -0.648243 51.910465 1.011395 -7.118644 0.353029 -1.511150 -0.031940 20.222769 3.684305 2.316629 18.787249 0.000001 -0.000001 10.751608 -0.479870 1.397903 0.000000 -0.000000 0.000000 3.273804 0.305947 -0.580110 21.486790 11.830364 2.266131 8.162915 0.000000 -0.000000 18.399052 -3.798986 -4.940567 0.000003 0.000000 -0.000001 -39.899170 -32.977276 -89.333847 -1.309005 0.509801 106.344971 -18.446972 24.855717 11.892443 1.827322 -2.926606 3.833445 0.000000 -0.000000 0.000002 -104.407051 -55.352924 -31.560251 0.256317 0.119999 140.258362 3.031887 -1.019417 -14.686862 -1.170716 0.008577 5.690482 0.000000 -0.000000 -0.000001
0.000000 0.000000 0.000000 0.000000 -0.000000 0.000000 1.316361 -69.030840 1.432750 74.581546 79.357004 52.761438 15.796264 -1.588221 1.248888 7.378921 6.358288 -0.427809 14.350882 12.641084 12.631787 -16.652382 20.546717 9.850762 7.244304 28.639956 -1.811186 -3.441844 38.264301 15.219733 0.000077 -0.000022 0.000006 0.147427 -0.039444 -0.233325 0.957033 -3.691288 -11.280854 -0.689384 3.615968 -11.113345 -18.902710 67.498817 19.084074 -144.098969 50.282875 -46.536850 25.609463 -78.760780 -33.332756 33.005051 7.585892 -10.831295 -5.882102 9.861279 0.702590 -10.936861 -0.360574 7.156197 0.000000 8.774815 -0.000000 -17.310802 18.391367 7.352875 -1.844031 2.498503 -2.507276 -10.163590 4.678941 4.621104 -20.975996 -0.000001 0.000001 -21.226254 2.451698 -3.593995 0.000000 -0.000006 -0.000000 -1.362681 2.240797 -0.746323 -21.334892 0.584910 3.008319 -13.821196 -0.000001 0.000001 -23.887129 -0.249075 -0.839485 -64.504936 1.370219 -0.563373 -0.294025 1.679686 0.833255 -14.218195 0.093215 1.300579 -34.212002 -0.287561 0.967166 -20.033176 0.964536 1.212838 0.000000 -0.000000 0.000000 -3.440387 0.788233 0.501655 -15.928172 -3.167306 2.999703 -6.338817 -0.000000 0.000001 -18.123419 3.648181 -4.905662 -0.000004 0.000000 -0.000002 -7.589868 21.807396 19.175999 42.403477 -29.231441 13.740908 8.206116 44.820969 3.477715 40.492580 2.629261 -64.080803 2.243540 -5.255033 -3.180156 14.282877 -0.826594 6.952496 -0.000000 -12.690593 -0.000001 16.243124 -17.912855 1.177694 1.665665 -1.955920 -2.878297 4.727794 -4.170584 4.993919 11.020511 0.000001 -0.000000 12.109032 -3.735715 -2.866778 0.000000 -0.000000 0.000000 1.291985 -1.928548 -1.498088 14.800115 0.567467 3.865604 14.242553 -1.341738 -6.660648 19.631935 0.143921 -0.648243 51.921215 0.978076 -7.196334 0.353029 -1.511150 -0.031940 20.222769 3.684305 2.316629 18.787249 0.000001 -0.000001 10.751608 -0.479870 1.397903 0.000000 -0.000000 0.000000 3.273804 0.305947 -0.580110 21.486790 11.830364 2.266131 8.162915 0.000000 -0.000000 18.399052 -3.798986 -4.940567 0.000003 0.000000 -0.000001 -39.884308 -32.905128 -89.388092 -1.302104 0.496753 106.428955 -18.378450 24.757372 11.762913 1.808911 -2.924818 3.874295 0.000000 -0.000000 0.000002 -104.356743 -55.370380 -31.639141 0.253763 0.127416 140.285126 2.961939 -0.980991 -14.705797 -1.170716 0.019857 5.566761 0.000000 -0.000000 -0.000001
0.000000 0.000000 0.000000 0.000000 -0.000000 0.000000 1.316361 -69.032158 1.432750 74.622521 79.338343 52.828672 15.820290 -1.585742 1.234132 7.400363 6.344238 -0.405944 14.344256 12.693937 12.641591 -16.639809 20.603067 9.774516 7.218362 28.606863 -1.832169 -3.348629 38.340519 15.189864 0.000077 -0.000022 0.000006 0.142397 -0.055180 -0.229314 0.950572 -3.705618 -11.280760 -0.692711 3.599249 -11.116280 -18.995838 67.483337 19.003420 -144.264877 50.272903 -46.800766 25.222307 -78.766403 -32.963417 33.000996 7.488135 -10.755125 -5.882102 9.861279 0.702590 -10.936861 -0.360574 7.156197 0.000000 8.774815 -0.000000 -17.323412 18.416777 7.377618 -1.844031 2.498503 -2.507276 -10.163590 4.678941 4.621104 -20.975996 -0.000001 0.000001 -21.226254 2.451698 -3.593995 0.000000 -0.000006 -0.000000 -1.362681 2.240797 -0.746323 -21.334892 0.584910 3.008319 -13.821196 -0.000001 0.000001 -23.887129 -0.249075 -0.839485 -64.559875 1.446403 -0.570362 -0.294025 1.679686 0.833255 -14.218195 0.093215 1.300579 -34.212002 -0.287561 0.967166 -20.033176 0.964536 1.212838 0.000000 -0.000000 0.000000 -3.440387 0.788233 0.501655 -15.928172 -3.167306 2.999703 -6.338817 -0.000000 0.000001 -18.123419 3.648181 -4.905662 -0.000004 0.000000 -0.000002 -7.530735 21.802073 19.180239 42.151203 -29.230236 13.953101 8.261483 44.837177 3.496742 40.563274 2.672502 -63.793831 2.243540 -5.255033 -3.180156 14.282877 -0.826594 6.952496 -0.000000 -12.690593 -0.000001 16.278391 -17.957521 1.166826 1.665665 -1.955920 -2.878297 4.727794 -4.170584 4.993919 11.020511 0.000001 -0.000000 12.109032 -3.735715 -2.866778 0.000000 -0.000000 0.000000 1.291985 -1.928548 -1.498088 14.800115 0.567467 3.865604 14.242553 -1.341738 -6.660648 19.631935 0.143921 -0.648243 51.930920 0.973731 -7.230631 0.353029 -1.511150 -0.031940 20.222769 3.684305 2.316629 18.787249 0.000001 -0.000001 10.751608 -0.479870 1.397903 0.000000 -0.000000 0.000000 3.273804 0.305947 -0.580110 21.486790 11.830364 2.266131 8.162915 0.000000 -0.000000 18.399052 -3.798986 -4.940567 0.000003 0.000000 -0.000001 -39.892769 -32.864964 -89.419014 -1.300724 0.479291 106.504158 -18.384712 24.713512 11.613500 1.789139 -2.919087 3.875585 0.000000 -0.000000 0.000002 -104.307640 -55.369606 -31.716854 0.263618 0.132233 140.277908 2.914840 -0.932950 -14.691054 -1.169411 0.029710 5.482630 0.000000 -0.000000 -0.000001
0.000000 0.000000 0.000000 0.000000 -0.000000 0.000000 1.316361 -69.021721 1.432750 74.676241 79.320993 52.894513 15.821483 -1.591056 1.225170 7.435487 6.331741 -0.389145 14.328753 12.695393 12.640594 -16.618549 20.657013 9.700453 7.205123 28.569895 -1.833776 -3.279553 38.406593 15.131924 0.000077 -0.000022 0.000006 0.143900 -0.055820 -0.224088 0.950406 -3.705774 -11.285553 -0.689200 3.598603 -11.121551 -18.937778 67.533691 19.075460 -144.521088 50.245674 -47.119469 24.871868 -78.824989 -32.595184 32.982265 7.381823 -10.685330 -5.882102 9.861279 0.702590 -10.936861 -0.360574 7.156197 0.000000 8.774815 -0.000000 -17.307629 18.423964 7.401000 -1.844031 2.498503 -2.507276 -10.163590 4.678941 4.621104 -20.975996 -0.000001 0.000001 -21.226254 2.451698 -3.593995 0.000000 -0.000006 -0.000000 -1.362681 2.240797 -0.746323 -21.334892 0.584910 3.008319 -13.821196 -0.000001 0.000001 -23.887129 -0.249075 -0.839485 -64.597305 1.535319 -0.603061 -0.294025 1.679686 0.833255 -14.218195 0.093215 1.300579 -34.212002 -0.287561 0.967166 -20.033176 0.964536 1.212838 0.000000 -0.000000 0.000000 -3.440387 0.788233 0.501655 -15.928172 -3.167306 2.999703 -6.338817 -0.000000 0.000001 -18.123419 3.648181 -4.905662 -0.000004 0.000000 -0.000002 -7.440989 21.779276 19.175861 41.825535 -29.235603 14.144096 8.357781 44.916771 3.560006 40.668621 2.687321 -63.503685 2.243540 -5.255033 -3.180156 14.282877 -0.826594 6.952496 -0.000000 -12.690593 -0.000001 16.291595 -17.997120 1.160109 1.665665 -1.955920 -2.878297 4.727794 -4.170584 4.993919 11.020511 0.000001 -0.000000 12.109032 -3.735715 -2.866778 0.000000 -0.000000 0.000000 1.291985 -1.928548 -1.498088 14.800115 0.567467 3.865604 14.242553 -1.341738 -6.660648 19.631935 0.143921 -0.648243 51.926296 0.998323 -7.232660 0.353029 -1.511150 -0.031940 20.222769 3.684305 2.316629 18.787249 0.000001 -0.000001 10.751608 -0.479870 1.397903 0.000000 -0.000000 0.000000 3.273804 0.305947 -0.580110 21.486790 11.830364 2.266131 8.162915 0.000000 -0.000000 18.399052 -3.798986 -4.940567 0.000003 0.000000 -0.000001 -39.923656 -32.836735 -89.403381 -1.301548 0.463718 106.575073 -18.475224 24.665226 11.433472 1.776210 -2.918389 3.839360 0.000000 -0.000000 0.000002 -104.272827 -55.316765 -31.746761 0.282948 0.131968 140.254333 2.905711 -0.893891 -14.692357 -1.166949 0.030899 5.464325 0.000000 -0.000000 -0.000001
0.000000 0.000000 0.000000 0.000000 -0.000000 0.000000 1.316361 -68.984462 1.432750 74.734000 79.312139 52.934877 15.802408 -1.598403 1.216464 7.459762 6.306832 -0.386904 14.323728 12.657226 12.649301 -16.560799 20.688168 9.647652 7.240277 28.532440 -1.793400 -3.245971 38.454159 15.096822 0.000077 -0.000022 0.000006 0.150563 -0.045369 -0.219748 0.957984 -3.695487 -11.295470 -0.682961 3.609615 -11.131858 -18.735752 67.608665 19.276270 -144.796127 50.221626 -47.421036 24.483610 -78.899117 -32.146214 32.933876 7.313746 -10.669014 -5.882102 9.861279 0.702590 -10.936861 -0.360574 7.156197 0.000000 8.774815 -0.000000 -17.290352 18.418608 7.407169 -1.844031 2.498503 -2.507276 -10.163590 4.678941 4.621104 -20.975996 -0.000001 0.000001 -21.226254 2.451698 -3.593995 0.000000 -0.000006 -0.000000 -1.362681 2.240797 -0.746323 -21.334892 0.584910 3.008319 -13.821196 -0.000001 0.000001 -23.887129 -0.249075 -0.839485 -64.620819 1.602043 -0.652353 -0.294025 1.679686 0.833255 -14.218195 0.093215 1.300579 -34.212002 -0.287561 0.967166 -20.033176 0.964536 1.212838 0.000000 -0.000000 0.000000 -3.440387 0.788233 0.501655 -15.928172 -3.167306 2.999703 -6.338817 -0.000000 0.000001 -18.123419 3.648181 -4.905662 -0.000004 0.000000 -0.000002 -7.340112 21.724173 19.156252 41.459995 -29.223688 14.335402 8.460367 45.028549 3.653847 40.805489 2.694571 -63.329510 2.243540 -5.255033 -3.180156 14.282877 -0.826594 6.952496 -0.000000 -12.690593 -0.000001 16.292446 -18.023129 1.163166 1.665665 -1.955920 -2.878297 4.727794 -4.170584 4.993919 11.020511 0.000001 -0.000000 12.109032 -3.735715 -2.866778 0.000000 -0.000000 0.000000 1.291985 -1.928548 -1.498088 14.800115 0.567467 3.865604 14.242553 -1.341738 -6.660648 19.631935 0.143921 -0.648243 51.952057 1.035672 -7.212445 0.353029 -1.511150 -0.031940 20.222769 3.684305 2.316629 18.787249 0.000001 -0.000001 10.751608 -0.479870 1.397903 0.000000 -0.000000 0.000000 3.273804 0.305947 -0.580110 21.486790 11.830364 2.266131 8.162915 0.000000 -0.000000 18.399052 -3.798986 -4.940567 0.000003 0.000000 -0.000001 -39.977146 -32.816757 -89.316246 -1.302827 0.455716 106.631371 -18.622047 24.624485 11.274139 1.774441 -2.925732 3.779494 0.000000 -0.000000 0.000002 -104.288483 -55.215549 -31.643936 0.310266 0.126492 140.214767 2.923984 -0.877533 -14.752589 -1.164824 0.018461 5.499392 0.000000 -0.000000 -0.000001
0.000000 0.000000 0.000000 0.000000 -0.000000 0.000000 1.316361 -68.935514 1.432750 74.751066 79.323233 52.904510 15.774187 -1.613094 1.215846 7.462926 6.284765 -0.405752 14.351851 12.595029 12.673812 -16.446138 20.646183 9.663041 7.321875 28.521452 -1.722432 -3.258897 38.501114 15.075378 0.000077 -0.000022 0.000006 0.157695 -0.036142 -0.218723 0.968091 -3.687828 -11.310797 -0.678445 3.620700 -11.149952 -18.493837 67.662704 19.528374 -144.990479 50.204498 -47.601723 24.115982 -78.957268 -31.697580 32.879299 7.312848 -10.757887 -5.882102 9.861279 0.702590 -10.936861 -0.360574 7.156197 0.000000 8.774815 -0.000000 -17.289928 18.428801 7.403961 -1.844031 2.498503 -2.507276 -10.163590 4.678941 4.621104 -20.975996 -0.000001 0.000001 -21.226254 2.451698 -3.593995 0.000000 -0.000006 -0.000000 -1.362681 2.240797 -0.746323 -21.334892 0.584910 3.008319 -13.821196 -0.000001 0.000001 -23.887129 -0.249075 -0.839485 -64.623344 1.657047 -0.700002 -0.294025 1.679686 0.833255 -14.218195 0.093215 1.300579 -34.212002 -0.287561 0.967166 -20.033176 0.964536 1.212838 0.000000 -0.000000 0.000000 -3.440387 0.788233 0.501655 -15.928172 -3.167306 2.999703 -6.338817 -0.000000 0.000001 -18.123419 3.648181 -4.905662 -0.000004 0.000000 -0.000002 -7.231456 21.651382 19.107658 41.091599 -29.232944 14.521752 8.563100 45.145042 3.766423 40.940582 2.686563 -63.233490 2.243540 -5.255033 -3.180156 14.282877 -0.826594 6.952496 -0.000000 -12.690593 -0.000001 16.305893 -18.034748 1.158025 1.665665 -1.955920 -2.878297 4.727794 -4.170584 4.993919 11.020511 0.000001 -0.000000 12.109032 -3.735715 -2.866778 0.000000 -0.000000 0.000000 1.291985 -1.928548 -1.498088 14.800115 0.567467 3.865604 14.242553 -1.341738 -6.660648 19.631935 0.143921 -0.648243 52.002796 1.049996 -7.198218 0.353029 -1.511150 -0.031940 20.222769 3.684305 2.316629 18.787249 0.000001 -0.000001 10.751608 -0.479870 1.397903 0.000000 -0.000000 0.000000 3.273804 0.305947 -0.580110 21.486790 11.830364 2.266131 8.162915 0.000000 -0.000000 18.399052 -3.798986 -4.940567 0.000003 0.000000 -0.000001 -40.012501 -32.806385 -89.205406 -1.297367 0.459575 106.690788 -18.751516 24.644133 11.149129 1.782129 -2.933746 3.727996 0.000000 -0.000000 0.000002 -104.355827 -55.090614 -31.422268 0.335311 0.121771 140.181213 2.965894 -0.852799 -14.871819 -1.165335 -0.001833 5.568492 0.000000 -0.000000 -0.000001
0.000000 0.000000 0.000000 0.000000 -0.000000 0.000000 1.316361 -68.899395 1.432750 74.779028 79.330368 52.888816 15.764248 -1.563926 1.189161 7.396221 6.200986 -0.418400 14.369245 12.547556 12.680627 -16.151396 20.586868 9.775835 7.348006 28.404182 -1.624891 -3.284956 38.629257 15.136218 0.000077 -0.000022 0.000006 0.162919 -0.028552 -0.226687 0.989835 -3.682687 -11.337520 -0.689959 3.631445 -11.179935 -18.202467 67.634079 19.825081 -145.093414 50.144508 -47.647316 23.976088 -79.006851 -31.489624 32.825821 7.420047 -11.025056 -5.882102 9.861279 0.702590 -10.936861 -0.360574 7.156197 0.000000 8.774815 -0.000000 -17.287846 18.430202 7.350655 -1.844031 2.498503 -2.507276 -10.163590 4.678941 4.621104 -20.975996 -0.000001 0.000001 -21.226254 2.451698 -3.593995 0.000000 -0.000006 -0.000000 -1.362681 2.240797 -0.746323 -21.334892 0.584910 3.008319 -13.821196 -0.000001 0.000001 -23.887129 -0.249075 -0.839485 -64.525436 1.661002 -0.781186 -0.294025 1.679686 0.833255 -14.218195 0.093215 1.300579 -34.212002 -0.287561 0.967166 -20.033176 0.964536 1.212838 0.000000 -0.000000 0.000000 -3.440387 0.788233 0.501655 -15.928172 -3.167306 2.999703 -6.338817 -0.000000 0.000001 -18.123419 3.648181 -4.905662 -0.000004 0.000000 -0.000002 -7.071641 21.567636 19.069872 40.688122 -29.280994 14.751775 8.648780 45.371811 3.866737 41.088776 2.501276 -63.234184 2.243540 -5.255033 -3.180156 14.282877 -0.826594 6.952496 -0.000000 -12.690593 -0.000001 16.327875 -18.015766 1.153358 1.665665 -1.955920 -2.878297 4.727794 -4.170584 4.993919 11.020511 0.000001 -0.000000 12.109032 -3.735715 -2.866778 0.000000 -0.000000 0.000000 1.291985 -1.928548 -1.498088 14.800115 0.567467 3.865604 14.242553 -1.341738 -6.660648 19.631935 0.143921 -0.648243 52.081017 1.071652 -7.163620 0.353029 -1.511150 -0.031940 20.222769 3.684305 2.316629 18.787249 0.000001 -0.000001 10.751608 -0.479870 1.397903 0.000000 -0.000000 0.000000 3.273804 0.305947 -0.580110 21.486790 11.830364 2.266131 8.162915 0.000000 -0.000000 18.399052 -3.798986 -4.940567 0.000003 0.000000 -0.000001 -40.015461 -32.810932 -89.117821 -1.291032 0.470712 106.722427 -18.961596 24.635420 11.021111 1.795254 -2.955933 3.693885 0.000000 -0.000000 0.000002 -104.419144 -54.992428 -31.232731 0.353389 0.118602 140.177444 3.005811 -0.878050 -14.987182 -1.167508 -0.019896 5.694836 0.000000 -0.000000 -0.000001
0.000000 0.000000 0.000000 0.000000 -0.000000 0.000000 1.316361 -68.876959 1.432750 74.599121 79.391038 52.659332 15.744473 -1.637688 1.192113 7.395947 6.234768 -0.456504 14.505733 12.516027 12.777508 -16.133814 20.407673 9.795887 7.562726 28.728367 -1.514404 -3.325302 38.500786 15.056784 0.000077 -0.000022 0.000006 0.165883 -0.032570 -0.227033 0.985538 -3.684995 -11.315377 -0.679737 3.625822 -11.168277 -18.220236 67.670631 19.851883 -145.085037 50.262619 -47.537270 24.376366 -79.042587 -31.902304 32.794960 7.475896 -10.924020 -5.882102 9.861279 0.702590 -10.936861 -0.360574 7.156197 0.000000 8.774815 -0.000000 -17.280334 18.451216 7.435658 -1.844031 2.498503 -2.507276 -10.163590 4.678941 4.621104 -20.975996 -0.000001 0.000001 -21.226254 2.451698 -3.593995 0.000000 -0.000006 -0.000000 -1.362681 2.240797 -0.746323 -21.334892 0.584910 3.008319 -13.821196 -0.000001 0.000001 -23.887129 -0.249075 -0.839485 -64.624664 1.641437 -0.746172 -0.294025 1.679686 0.833255 -14.218195 0.093215 1.300579 -34.212002 -0.287561 0.967166 -20.033176 0.964536 1.212838 0.000000 -0.000000 0.000000 -3.440387 0.788233 0.501655 -15.928172 -3.167306 2.999703 -6.338817 -0.000000 0.000001 -18.123419 3.648181 -4.905662 -0.000004 0.000000 -0.000002 -7.066484 21.480213 19.042835 40.485882 -29.266722 14.694633 8.858323 45.370968 4.011593 41.167137 2.438362 -63.425541 2.243540 -5.255033 -3.180156 14.282877 -0.826594 6.952496 -0.000000 -12.690593 -0.000001 16.280331 -17.972902 1.122563 1.665665 -1.955920 -2.878297 4.727794 -4.170584 4.993919 11.020511 0.000001 -0.000000 12.109032 -3.735715 -2.866778 0.000000 -0.000000 0.000000 1.291985 -1.928548 -1.498088 14.800115 0.567467 3.865604 14.242553 -1.341738 -6.660648 19.631935 0.143921 -0.648243 52.026169 1.044562 -7.184785 0.353029 -1.511150 -0.031940 20.222769 3.684305 2.316629 18.787249 0.000001 -0.000001 10.751608 -0.479870 1.397903 0.000000 -0.000000 0.000000 3.273804 0.305947 -0.580110 21.486790 11.830364 2.266131 8.162915 0.000000 -0.000000 18.399052 -3.798986 -4.940567 0.000003 0.000000 -0.000001 -39.919807 -32.830997 -89.121948 -1.285556 0.486219 106.808250 -18.911188 24.719694 11.038312 1.816547 -2.946534 3.687566 0.000000 -0.000000 0.000002 -104.534332 -54.969604 -30.954069 0.337782 0.131084 140.193985 2.993123 -0.855354 -15.109998 -1.174543 -0.028431 5.703140 0.000000 -0.000000 -0.000001
0.000000 0.000000 0.000000 0.000000 -0.000000 0.000000 1.316361 -68.881424 1.432750 74.455204 79.433190 52.494035 15.748183 -1.639514 1.179761 7.367964 6.232472 -0.469725 14.582123 12.483195 12.842968 -16.013445 20.258192 9.872752 7.653932 28.877590 -1.428826 -3.313786 38.494156 15.033206 0.000077 -0.000022 0.000006 0.163789 -0.036131 -0.231528 0.983979 -3.684356 -11.300738 -0.682722 3.618084 -11.158995 -18.357441 67.607880 19.753937 -145.033310 50.366329 -47.469727 24.482325 -79.137421 -32.126621 32.919926 7.545519 -10.905087 -5.882102 9.861279 0.702590 -10.936861 -0.360574 7.156197 0.000000 8.774815 -0.000000 -17.270475 18.425850 7.462742 -1.844031 2.498503 -2.507276 -10.163590 4.678941 4.621104 -20.975996 -0.000001 0.000001 -21.226254 2.451698 -3.593995 0.000000 -0.000006 -0.000000 -1.362681 2.240797 -0.746323 -21.334892 0.584910 3.008319 -13.821196 -0.000001 0.000001 -23.887129 -0.249075 -0.839485 -64.624588 1.597870 -0.734351 -0.294025 1.679686 0.833255 -14.218195 0.093215 1.300579 -34.212002 -0.287561 0.967166 -20.033176 0.964536 1.212838 0.000000 -0.000000 0.000000 -3.440387 0.788233 0.501655 -15.928172 -3.167306 2.999703 -6.338817 -0.000000 0.000001 -18.123419 3.648181 -4.905662 -0.000004 0.000000 -0.000002 -7.071188 21.455252 18.989365 40.354374 -29.321342 14.779485 8.937931 45.465054 4.067039 41.234879 2.346066 -63.641567 2.243540 -5.255033 -3.180156 14.282877 -0.826594 6.952496 -0.000000 -12.690593 -0.000001 16.204651 -17.919533 1.133958 1.665665 -1.955920 -2.878297 4.727794 -4.170584 4.993919 11.020511 0.000001 -0.000000 12.109032 -3.735715 -2.866778 0.000000 -0.000000 0.000000 1.291985 -1.928548 -1.498088 14.800115 0.567467 3.865604 14.242553 -1.341738 -6.660648 19.631935 0.143921 -0.648243 51.967171 1.026309 -7.184998 0.353029 -1.511150 -0.031940 20.222769 3.684305 2.316629 18.787249 0.000001 -0.000001 10.751608 -0.479870 1.397903 0.000000 -0.000000 0.000000 3.273804 0.305947 -0.580110 21.486790 11.830364 2.266131 8.162915 0.000000 -0.000000 18.399052 -3.798986 -4.940567 0.000003 0.000000 -0.000001 -39.830288 -32.860546 -89.137581 -1.268396 0.491736 106.823471 -18.832687 24.729418 11.006889 1.829050 -2.954934 3.715088 0.000000 -0.000000 0.000002 -104.592102 -55.009686 -30.841013 0.324966 0.139351 140.214554 2.952874 -0.946253 -15.124457 -1.175848 -0.035937 5.725931 0.000000 -0.000000 -0.000001
0.000000 0.000000 0.000000 0.000000 -0.000000 0.000000 1.316361 -68.915756 1.432750 74.318514 79.472025 52.339643 15.756946 -1.640001 1.179296 7.342908 6.234002 -0.471946 14.635875 12.465174 12.891659 -15.947136 20.143490 9.948922 7.728907 28.932514 -1.372303 -3.306639 38.517765 14.957737 0.000077 -0.000022 0.000006 0.157728 -0.042328 -0.234699 0.973615 -3.686420 -11.284740 -0.685008 3.607404 -11.146122 -18.562405 67.491478 19.630354 -144.903915 50.486050 -47.314346 24.566334 -79.239853 -32.370964 33.081024 7.623016 -10.927452 -5.882102 9.861279 0.702590 -10.936861 -0.360574 7.156197 0.000000 8.774815 -0.000000 -17.256895 18.393976 7.497272 -1.844031 2.498503 -2.507276 -10.163590 4.678941 4.621104 -20.975996 -0.000001 0.000001 -21.226254 2.451698 -3.593995 0.000000 -0.000006 -0.000000 -1.362681 2.240797 -0.746323 -21.334892 0.584910 3.008319 -13.821196 -0.000001 0.000001 -23.887129 -0.249075 -0.839485 -64.643768 1.538729 -0.712693 -0.294025 1.679686 0.833255 -14.218195 0.093215 1.300579 -34.212002 -0.287561 0.967166 -20.033176 0.964536 1.212838 0.000000 -0.000000 0.000000 -3.440387 0.788233 0.501655 -15.928172 -3.167306 2.999703 -6.338817 -0.000000 0.000001 -18.123419 3.648181 -4.905662 -0.000004 0.000000 -0.000002 -7.099853 21.455118 18.919682 40.294689 -29.422390 14.895949 8.927206 45.584538 4.055265 41.362556 2.291102 -63.892235 2.243540 -5.255033 -3.180156 14.282877 -0.826594 6.952496 -0.000000 -12.690593 -0.000001 16.142921 -17.878250 1.146533 1.665665 -1.955920 -2.878297 4.727794 -4.170584 4.993919 11.020511 0.000001 -0.000000 12.109032 -3.735715 -2.866778 0.000000 -0.000000 0.000000 1.291985 -1.928548 -1.498088 14.800115 0.567467 3.865604 14.242553 -1.341738 -6.660648 19.631935 0.143921 -0.648243 51.893753 1.009159 -7.197082 0.353029 -1.511150 -0.031940 20.222769 3.684305 2.316629 18.787249 0.000001 -0.000001 10.751608 -0.479870 1.397903 0.000000 -0.000000 0.000000 3.273804 0.305947 -0.580110 21.486790 11.830364 2.266131 8.162915 0.000000 -0.000000 18.399052 -3.798986 -4.940567 0.000003 0.000000 -0.000001 -39.780037 -32.900127 -89.152763 -1.252043 0.495637 106.813156 -18.692801 24.685997 11.018775 1.831777 -2.967939 3.741627 0.000000 -0.000000 0.000002 -104.681984 -55.042751 -30.782949 0.310328 0.145184 140.237503 2.910905 -1.061064 -15.053976 -1.174789 -0.033355 5.713036 0.000000 -0.000000 -0.000001
0.000000 0.000000 0.000000 0.000000 -0.000000 0.000000 1.316361 -68.968017 1.432750 74.201740 79.506122 52.203912 15.767994 -1.652000 1.201823 7.326757 6.252741 -0.450932 14.685598 12.446190 12.919811 -15.939081 20.066574 10.007901 7.788419 28.946127 -1.346573 -3.295418 38.539116 14.899921 0.000077 -0.000022 0.000006 0.152298 -0.045706 -0.237911 0.961590 -3.686107 -11.270605 -0.684383 3.600104 -11.132767 -18.754122 67.337692 19.515537 -144.821686 50.628216 -47.172516 24.696445 -79.328506 -32.629868 33.249271 7.723498 -11.032826 -5.882102 9.861279 0.702590 -10.936861 -0.360574 7.156197 0.000000 8.774815 -0.000000 -17.240740 18.367529 7.528153 -1.844031 2.498503 -2.507276 -10.163590 4.678941 4.621104 -20.975996 -0.000001 0.000001 -21.226254 2.451698 -3.593995 0.000000 -0.000006 -0.000000 -1.362681 2.240797 -0.746323 -21.334892 0.584910 3.008319 -13.821196 -0.000001 0.000001 -23.887129 -0.249075 -0.839485 -64.687096 1.470837 -0.676154 -0.294025 1.679686 0.833255 -14.218195 0.093215 1.300579 -34.212002 -0.287561 0.967166 -20.033176 0.964536 1.212838 0.000000 -0.000000 0.000000 -3.440387 0.788233 0.501655 -15.928172 -3.167306 2.999703 -6.338817 -0.000000 0.000001 -18.123419 3.648181 -4.905662 -0.000004 0.000000 -0.000002 -7.126050 21.490839 18.868496 40.246574 -29.557329 15.026221 8.854375 45.730328 4.015453 41.576595 2.288792 -64.095665 2.243540 -5.255033 -3.180156 14.282877 -0.826594 6.952496 -0.000000 -12.690593 -0.000001 16.089539 -17.870291 1.166940 1.665665 -1.955920 -2.878297 4.727794 -4.170584 4.993919 11.020511 0.000001 -0.000000 12.109032 -3.735715 -2.866778 0.000000 -0.000000 0.000000 1.291985 -1.928548 -1.498088 14.800115 0.567467 3.865604 14.242553 -1.341738 -6.660648 19.631935 0.143921 -0.648243 51.849541 0.987821 -7.232919 0.353029 -1.511150 -0.031940 20.222769 3.684305 2.316629 18.787249 0.000001 -0.000001 10.751608 -0.479870 1.397903 0.000000 -0.000000 0.000000 3.273804 0.305947 -0.580110 21.486790 11.830364 2.266131 8.162915 0.000000 -0.000000 18.399052 -3.798986 -4.940567 0.000003 0.000000 -0.000001 -39.743084 -32.923363 -89.186325 -1.240741 0.496295 106.807610 -18.577082 24.606840 11.066867 1.823340 -2.982818 3.758003 0.000000 -0.000000 0.000002 -104.771774 -55.084583 -30.772360 0.299396 0.142946 140.278427 2.868524 -1.178615 -14.963089 -1.172564 -0.022213 5.675866 0.000000 -0.000000 -0.000001
0.000000 0.000000 0.000000 0.000000 -0.000000 0.000000 1.316361 -69.028724 1.432750 74.096036 79.535737 52.084319 15.774467 -1.662511 1.260151 7.319038 6.280540 -0.412271 14.739389 12.435568 12.923246 -15.951521 20.053432 10.063878 7.790965 28.880007 -1.361611 -3.284308 38.558277 14.853000 0.000077 -0.000022 0.000006 0.146541 -0.053781 -0.241516 0.950049 -3.692816 -11.263066 -0.684817 3.590529 -11.125385 -18.908489 67.137970 19.385204 -144.873001 50.785984 -47.155197 24.814896 -79.413124 -32.826244 33.378727 7.826481 -11.220947 -5.882102 9.861279 0.702590 -10.936861 -0.360574 7.156197 0.000000 8.774815 -0.000000 -17.246910 18.353073 7.531388 -1.844031 2.498503 -2.507276 -10.163590 4.678941 4.621104 -20.975996 -0.000001 0.000001 -21.226254 2.451698 -3.593995 0.000000 -0.000006 -0.000000 -1.362681 2.240797 -0.746323 -21.334892 0.584910 3.008319 -13.821196 -0.000001 0.000001 -23.887129 -0.249075 -0.839485 -64.731255 1.413976 -0.641097 -0.294025 1.679686 0.833255 -14.218195 0.093215 1.300579 -34.212002 -0.287561 0.967166 -20.033176 0.964536 1.212838 0.000000 -0.000000 0.000000 -3.440387 0.788233 0.501655 -15.928172 -3.167306 2.999703 -6.338817 -0.000000 0.000001 -18.123419 3.648181 -4.905662 -0.000004 0.000000 -0.000002 -7.145463 21.539518 18.847103 40.189148 -29.696297 15.173129 8.740193 45.917793 3.972347 41.867683 2.324298 -64.213051 2.243540 -5.255033 -3.180156 14.282877 -0.826594 6.952496 -0.000000 -12.690593 -0.000001 16.075079 -17.920895 1.184089 1.665665 -1.955920 -2.878297 4.727794 -4.170584 4.993919 11.020511 0.000001 -0.000000 12.109032 -3.735715 -2.866778 0.000000 -0.000000 0.000000 1.291985 -1.928548 -1.498088 14.800115 0.567467 3.865604 14.242553 -1.341738 -6.660648 19.631935 0.143921 -0.648243 51.851421 0.964883 -7.289841 0.353029 -1.511150 -0.031940 20.222769 3.684305 2.316629 18.787249 0.000001 -0.000001 10.751608 -0.479870 1.397903 0.000000 -0.000000 0.000000 3.273804 0.305947 -0.580110 21.486790 11.830364 2.266131 8.162915 0.000000 -0.000000 18.399052 -3.798986 -4.940567 0.000003 0.000000 -0.000001 -39.704937 -32.910519 -89.252205 -1.230943 0.495524 106.813469 -18.472107 24.543779 11.143296 1.809743 -2.995334 3.766811 0.000000 -0.000000 0.000002 -104.812126 -55.147743 -30.826157 0.293996 0.135401 140.342773 2.838023 -1.279539 -14.890883 -1.171784 -0.005457 5.609142 0.000000 -0.000000 -0.000001
0.000000 0.000000 0.000000 0.000000 -0.000000 0.000000 1.316361 -69.096758 1.432750 73.995089 79.562712 51.973712 15.771638 -1.677148 1.342049 7.307244 6.304914 -0.365240 14.790457 12.437549 12.908013 -15.979248 20.063101 10.104747 7.762796 28.740438 -1.388037 -3.290600 38.624813 14.818920 0.000077 -0.000022 0.000006 0.141467 -0.062787 -0.242474 0.940317 -3.702219 -11.256981 -0.685424 3.581643 -11.121934 -19.014030 66.895088 19.257843 -145.048553 50.930050 -47.223583 25.169180 -79.477501 -33.222233 33.428921 7.924730 -11.404004 -5.882102 9.861279 0.702590 -10.936861 -0.360574 7.156197 0.000000 8.774815 -0.000000 -17.255695 18.341665 7.510637 -1.844031 2.498503 -2.507276 -10.163590 4.678941 4.621104 -20.975996 -0.000001 0.000001 -21.226254 2.451698 -3.593995 0.000000 -0.000006 -0.000000 -1.362681 2.240797 -0.746323 -21.334892 0.584910 3.008319 -13.821196 -0.000001 0.000001 -23.887129 -0.249075 -0.839485 -64.738708 1.373766 -0.620107 -0.294025 1.679686 0.833255 -14.218195 0.093215 1.300579 -34.212002 -0.287561 0.967166 -20.033176 0.964536 1.212838 0.000000 -0.000000 0.000000 -3.440387 0.788233 0.501655 -15.928172 -3.167306 2.999703 -6.338817 -0.000000 0.000001 -18.123419 3.648181 -4.905662 -0.000004 0.000000 -0.000002 -7.130841 21.549757 18.879759 40.095497 -29.805944 15.299856 8.635653 46.157711 3.973641 42.218887 2.420714 -64.309547 2.243540 -5.255033 -3.180156 14.282877 -0.826594 6.952496 -0.000000 -12.690593 -0.000001 16.129953 -18.023829 1.190580 1.665665 -1.955920 -2.878297 4.727794 -4.170584 4.993919 11.020511 0.000001 -0.000000 12.109032 -3.735715 -2.866778 0.000000 -0.000000 0.000000 1.291985 -1.928548 -1.498088 14.800115 0.567467 3.865604 14.242553 -1.341738 -6.660648 19.631935 0.143921 -0.648243 51.907166 0.934528 -7.367055 0.353029 -1.511150 -0.031940 20.222769 3.684305 2.316629 18.787249 0.000001 -0.000001 10.751608 -0.479870 1.397903 0.000000 -0.000000 0.000000 3.273804 0.305947 -0.580110 21.486790 11.830364 2.266131 8.162915 0.000000 -0.000000 18.399052 -3.798986 -4.940567 0.000003 0.000000 -0.000001 -39.693665 -32.884449 -89.309731 -1.229303 0.493610 106.826859 -18.402115 24.451172 11.194529 1.788553 -3.002151 3.801382 0.000000 -0.000000 0.000002 -104.871681 -55.189472 -30.870262 0.289401 0.128980 140.422394 2.820198 -1.328828 -14.835885 -1.171139 0.008483 5.532305 0.000000 -0.000000 -0.000001
0.000000 0.000000 0.000000 0.000000 -0.000000 0.000000 1.316361 -69.154401 1.432750 73.917333 79.576279 51.911543 15.757776 -1.678786 1.428229 7.305911 6.324328 -0.321882 14.834015 12.454476 12.893986 -16.020857 20.068861 10.143756 7.773668 28.598915 -1.388312 -3.331608 38.701416 14.834669 0.000077 -0.000022 0.000006 0.137284 -0.070148 -0.240078 0.934727 -3.709889 -11.250527 -0.688147 3.574082 -11.120152 -19.124216 66.641777 19.149021 -145.288910 51.029346 -47.302441 25.867992 -79.561874 -34.013340 33.447643 7.997451 -11.462818 -5.882102 9.861279 0.702590 -10.936861 -0.360574 7.156197 0.000000 8.774815 -0.000000 -17.291140 18.344723 7.479357 -1.844031 2.498503 -2.507276 -10.163590 4.678941 4.621104 -20.975996 -0.000001 0.000001 -21.226254 2.451698 -3.593995 0.000000 -0.000006 -0.000000 -1.362681 2.240797 -0.746323 -21.334892 0.584910 3.008319 -13.821196 -0.000001 0.000001 -23.887129 -0.249075 -0.839485 -64.742676 1.378797 -0.618287 -0.294025 1.679686 0.833255 -14.218195 0.093215 1.300579 -34.212002 -0.287561 0.967166 -20.033176 0.964536 1.212838 0.000000 -0.000000 0.000000 -3.440387 0.788233 0.501655 -15.928172 -3.167306 2.999703 -6.338817 -0.000000 0.000001 -18.123419 3.648181 -4.905662 -0.000004 0.000000 -0.000002 -7.110210 21.509815 18.949318 40.002125 -29.885311 15.320181 8.600675 46.421879 4.022094 42.560379 2.537663 -64.476006 2.243540 -5.255033 -3.180156 14.282877 -0.826594 6.952496 -0.000000 -12.690593 -0.000001 16.241585 -18.115360 1.178761 1.665665 -1.955920 -2.878297 4.727794 -4.170584 4.993919 11.020511 0.000001 -0.000000 12.109032 -3.735715 -2.866778 0.000000 -0.000000 0.000000 1.291985 -1.928548 -1.498088 14.800115 0.567467 3.865604 14.242553 -1.341738 -6.660648 19.631935 0.143921 -0.648243 51.970913 0.912504 -7.446609 0.353029 -1.511150 -0.031940 20.222769 3.684305 2.316629 18.787249 0.000001 -0.000001 10.751608 -0.479870 1.397903 0.000000 -0.000000 0.000000 3.273804 0.305947 -0.580110 21.486790 11.830364 2.266131 8.162915 0.000000 -0.000000 18.399052 -3.798986 -4.940567 0.000003 0.000000 -0.000001 -39.680363 -32.868038 -89.396637 -1.236224 0.487925 106.854317 -18.400270 24.380535 11.262583 1.769593 -2.994735 3.844355 0.000000 -0.000000 0.000002 -104.907318 -55.228191 -30.922895 0.282383 0.128313 140.507172 2.803557 -1.346805 -14.813144 -1.169857 0.014490 5.463349 0.000000 -0.000000 -0.000001
0.000000 0.000000 0.000000 0.000000 -0.000000 0.000000 1.316361 -69.194103 1.432750 73.842776 79.580167 51.881453 15.740506 -1.672472 1.503496 7.309610 6.339100 -0.288834 14.855573 12.468030 12.889087 -16.042133 20.061152 10.188993 7.795205 28.484392 -1.361970 -3.408279 38.744473 14.877779 0.000077 -0.000022 0.000006 0.136376 -0.067208 -0.235587 0.934427 -3.706461 -11.245373 -0.689463 3.576388 -11.120319 -19.189388 66.426498 19.094275 -145.588974 51.094585 -47.361996 26.928194 -79.697746 -35.180641 33.432919 8.080594 -11.340673 -5.882102 9.861279 0.702590 -10.936861 -0.360574 7.156197 0.000000 8.774815 -0.000000 -17.327620 18.365120 7.466116 -1.844031 2.498503 -2.507276 -10.163590 4.678941 4.621104 -20.975996 -0.000001 0.000001 -21.226254 2.451698 -3.593995 0.000000 -0.000006 -0.000000 -1.362681 2.240797 -0.746323 -21.334892 0.584910 3.008319 -13.821196 -0.000001 0.000001 -23.887129 -0.249075 -0.839485 -64.746300 1.434165 -0.631977 -0.294025 1.679686 0.833255 -14.218195 0.093215 1.300579 -34.212002 -0.287561 0.967166 -20.033176 0.964536 1.212838 0.000000 -0.000000 0.000000 -3.440387 0.788233 0.501655 -15.928172 -3.167306 2.999703 -6.338817 -0.000000 0.000001 -18.123419 3.648181 -4.905662 -0.000004 0.000000 -0.000002 -7.082020 21.447533 19.017363 39.915550 -29.933598 15.248627 8.658346 46.686275 4.120258 42.821404 2.631109 -64.702965 2.243540 -5.255033 -3.180156 14.282877 -0.826594 6.952496 -0.000000 -12.690593 -0.000001 16.370779 -18.158991 1.155106 1.665665 -1.955920 -2.878297 4.727794 -4.170584 4.993919 11.020511 0.000001 -0.000000 12.109032 -3.735715 -2.866778 0.000000 -0.000000 0.000000 1.291985 -1.928548 -1.498088 14.800115 0.567467 3.865604 14.242553 -1.341738 -6.660648 19.631935 0.143921 -0.648243 52.013439 0.908074 -7.484303 0.353029 -1.511150 -0.031940 20.222769 3.684305 2.316629 18.787249 0.000001 -0.000001 10.751608 -0.479870 1.397903 0.000000 -0.000000 0.000000 3.273804 0.305947 -0.580110 21.486790 11.830364 2.266131 8.162915 0.000000 -0.000000 18.399052 -3.798986 -4.940567 0.000003 0.000000 -0.000001 -39.669590 -32.859486 -89.510056 -1.251538 0.483196 106.893913 -18.424496 24.378351 11.366797 1.756456 -2.978404 3.867614 0.000000 -0.000000 0.000002 -104.929657 -55.279633 -30.959059 0.279225 0.129270 140.581940 2.792141 -1.348798 -14.817764 -1.167412 0.017842 5.428193 0.000000 -0.000000 -0.000001
0.000000 0.000000 0.000000 0.000000 -0.000000 0.000000 1.316361 -69.205917 1.432750 73.771088 79.579551 51.866693 15.723444 -1.658920 1.574455 7.325024 6.352520 -0.260410 14.856901 12.465036 12.890528 -16.043177 20.021549 10.247604 7.815450 28.443487 -1.324442 -3.505312 38.761528 14.921767 0.000077 -0.000022 0.000006 0.139460 -0.055346 -0.230201 0.938430 -3.695768 -11.246785 -0.687089 3.589349 -11.126869 -19.190807 66.260017 19.082977 -145.961304 51.153008 -47.425526 28.266243 -79.862396 -36.580914 33.367130 8.187146 -11.139553 -5.882102 9.861279 0.702590 -10.936861 -0.360574 7.156197 0.000000 8.774815 -0.000000 -17.329748 18.390295 7.481931 -1.844031 2.498503 -2.507276 -10.163590 4.678941 4.621104 -20.975996 -0.000001 0.000001 -21.226254 2.451698 -3.593995 0.000000 -0.000006 -0.000000 -1.362681 2.240797 -0.746323 -21.334892 0.584910 3.008319 -13.821196 -0.000001 0.000001 -23.887129 -0.249075 -0.839485 -64.741074 1.517396 -0.659773 -0.294025 1.679686 0.833255 -14.218195 0.093215 1.300579 -34.212002 -0.287561 0.967166 -20.033176 0.964536 1.212838 0.000000 -0.000000 0.000000 -3.440387 0.788233 0.501655 -15.928172 -3.167306 2.999703 -6.338817 -0.000000 0.000001 -18.123419 3.648181 -4.905662 -0.000004 0.000000 -0.000002 -7.065281 21.370796 19.043329 39.822754 -29.966335 15.201325 8.732602 46.962097 4.227723 43.000080 2.718005 -64.957840 2.243540 -5.255033 -3.180156 14.282877 -0.826594 6.952496 -0.000000 -12.690593 -0.000001 16.454422 -18.166815 1.136455 1.665665 -1.955920 -2.878297 4.727794 -4.170584 4.993919 11.020511 0.000001 -0.000000 12.109032 -3.735715 -2.866778 0.000000 -0.000000 0.000000 1.291985 -1.928548 -1.498088 14.800115 0.567467 3.865604 14.242553 -1.341738 -6.660648 19.631935 0.143921 -0.648243 52.020596 0.924879 -7.475863 0.353029 -1.511150 -0.031940 20.222769 3.684305 2.316629 18.787249 0.000001 -0.000001 10.751608 -0.479870 1.397903 0.000000 -0.000000 0.000000 3.273804 0.305947 -0.580110 21.486790 11.830364 2.266131 8.162915 0.000000 -0.000000 18.399052 -3.798986 -4.940567 0.000003 0.000000 -0.000001 -39.633865 -32.865452 -89.626366 -1.266209 0.482855 106.921707 -18.499784 24.408138 11.498952 1.751891 -2.968646 3.849758 0.000000 -0.000000 0.000002 -104.891106 -55.345852 -31.000196 0.285170 0.124987 140.630844 2.809265 -1.371261 -14.852006 -1.165532 0.018140 5.429422 0.000000 -0.000000 -0.000001
0.000000 0.000000 0.000000 0.000000 -0.000000 0.000000 1.316361 -69.194305 1.432750 73.750312 79.567915 51.899690 15.703245 -1.651531 1.650603 7.347836 6.356101 -0.238138 14.846451 12.444379 12.904764 -16.041180 19.983698 10.303452 7.812667 28.414600 -1.293624 -3.616879 38.784622 14.932614 0.000077 -0.000022 0.000006 0.145386 -0.039059 -0.227729 0.943764 -3.681059 -11.250495 -0.680335 3.606935 -11.135653 -19.123789 66.169327 19.124973 -146.329910 51.218006 -47.462940 29.637148 -80.010147 -38.006783 33.251675 8.277611 -10.938219 -5.882102 9.861279 0.702590 -10.936861 -0.360574 7.156197 0.000000 8.774815 -0.000000 -17.310268 18.406536 7.512243 -1.844031 2.498503 -2.507276 -10.163590 4.678941 4.621104 -20.975996 -0.000001 0.000001 -21.226254 2.451698 -3.593995 0.000000 -0.000006 -0.000000 -1.362681 2.240797 -0.746323 -21.334892 0.584910 3.008319 -13.821196 -0.000001 0.000001 -23.887129 -0.249075 -0.839485 -64.746147 1.602383 -0.703655 -0.294025 1.679686 0.833255 -14.218195 0.093215 1.300579 -34.212002 -0.287561 0.967166 -20.033176 0.964536 1.212838 0.000000 -0.000000 0.000000 -3.440387 0.788233 0.501655 -15.928172 -3.167306 2.999703 -6.338817 -0.000000 0.000001 -18.123419 3.648181 -4.905662 -0.000004 0.000000 -0.000002 -7.076230 21.306999 19.001621 39.694344 -29.994871 15.291216 8.764071 47.263283 4.301020 43.153244 2.811455 -65.295753 2.243540 -5.255033 -3.180156 14.282877 -0.826594 6.952496 -0.000000 -12.690593 -0.000001 16.496735 -18.158464 1.128997 1.665665 -1.955920 -2.878297 4.727794 -4.170584 4.993919 11.020511 0.000001 -0.000000 12.109032 -3.735715 -2.866778 0.000000 -0.000000 0.000000 1.291985 -1.928548 -1.498088 14.800115 0.567467 3.865604 14.242553 -1.341738 -6.660648 19.631935 0.143921 -0.648243 52.016518 0.961996 -7.425477 0.353029 -1.511150 -0.031940 20.222769 3.684305 2.316629 18.787249 0.000001 -0.000001 10.751608 -0.479870 1.397903 0.000000 -0.000000 0.000000 3.273804 0.305947 -0.580110 21.486790 11.830364 2.266131 8.162915 0.000000 -0.000000 18.399052 -3.798986 -4.940567 0.000003 0.000000 -0.000001 -39.598454 -32.874298 -89.713692 -1.271377 0.480580 106.902733 -18.613485 24.490868 11.637409 1.757295 -2.965918 3.788575 0.000000 -0.000000 0.000002 -104.773262 -55.436413 -31.096075 0.302943 0.114384 140.646103 2.827811 -1.463172 -14.879023 -1.163492 0.018834 5.450214 0.000000 -0.000000 -0.000001
0.000000 0.000000 0.000000 0.000000 -0.000000 0.000000 1.316361 -69.184715 1.432750 73.792174 79.548327 51.972977 15.688931 -1.652822 1.725598 7.373107 6.356902 -0.218553 14.848107 12.405129 12.940042 -16.063810 19.970396 10.374113 7.806411 28.368353 -1.270617 -3.751225 38.828506 14.900686 0.000077 -0.000022 0.000006 0.152416 -0.023968 -0.228445 0.950156 -3.666837 -11.254319 -0.672569 3.622292 -11.142872 -19.010656 66.126442 19.222895 -146.688675 51.289352 -47.479000 31.015207 -80.129837 -39.430389 33.144997 8.321144 -10.858532 -5.882102 9.861279 0.702590 -10.936861 -0.360574 7.156197 0.000000 8.774815 -0.000000 -17.265617 18.421356 7.557625 -1.844031 2.498503 -2.507276 -10.163590 4.678941 4.621104 -20.975996 -0.000001 0.000001 -21.226254 2.451698 -3.593995 0.000000 -0.000006 -0.000000 -1.362681 2.240797 -0.746323 -21.334892 0.584910 3.008319 -13.821196 -0.000001 0.000001 -23.887129 -0.249075 -0.839485 -64.746468 1.661831 -0.745125 -0.294025 1.679686 0.833255 -14.218195 0.093215 1.300579 -34.212002 -0.287561 0.967166 -20.033176 0.964536 1.212838 0.000000 -0.000000 0.000000 -3.440387 0.788233 0.501655 -15.928172 -3.167306 2.999703 -6.338817 -0.000000 0.000001 -18.123419 3.648181 -4.905662 -0.000004 0.000000 -0.000002 -7.120428 21.282959 18.917992 39.573750 -30.066750 15.416465 8.767220 47.574478 4.348825 43.326267 2.854783 -65.595375 2.243540 -5.255033 -3.180156 14.282877 -0.826594 6.952496 -0.000000 -12.690593 -0.000001 16.528667 -18.139000 1.121598 1.665665 -1.955920 -2.878297 4.727794 -4.170584 4.993919 11.020511 0.000001 -0.000000 12.109032 -3.735715 -2.866778 0.000000 -0.000000 0.000000 1.291985 -1.928548 -1.498088 14.800115 0.567467 3.865604 14.242553 -1.341738 -6.660648 19.631935 0.143921 -0.648243 52.049126 1.008552 -7.363441 0.353029 -1.511150 -0.031940 20.222769 3.684305 2.316629 18.787249 0.000001 -0.000001 10.751608 -0.479870 1.397903 0.000000 -0.000000 0.000000 3.273804 0.305947 -0.580110 21.486790 11.830364 2.266131 8.162915 0.000000 -0.000000 18.399052 -3.798986 -4.940567 0.000003 0.000000 -0.000001 -39.567070 -32.871662 -89.770996 -1.273741 0.480381 106.853172 -18.821701 24.592581 11.718169 1.765654 -2.967558 3.715835 0.000000 -0.000000 0.000002 -104.594803 -55.513954 -31.271475 0.323590 0.103247 140.655869 2.843086 -1.603579 -14.883505 -1.162347 0.020021 5.492075 0.000000 -0.000000 -0.000001
0.000000 0.000000 0.000000 0.000000 0.000000 0.000000 1.316361 -69.212360 1.432750 73.887613 79.524018 52.073630 15.684475 -1.651589 1.797237 7.392431 6.350612 -0.189051 14.880788 12.354551 13.047142 -16.068001 19.883096 10.518403 7.818786 28.355119 -1.215929 -3.974755 38.948487 14.804830 0.000077 -0.000022 0.000006 0.156898 -0.019766 -0.230355 0.952146 -3.659373 -11.244318 -0.665616 3.622052 -11.130194 -18.945497 65.956466 19.211142 -147.246653 51.380769 -47.590447 32.848514 -80.231880 -41.217475 33.101533 8.399731 -10.907779 -5.882102 9.861279 0.702590 -10.936861 -0.360574 7.156197 0.000000 8.774815 0.000000 -17.162322 18.424850 7.636002 -1.844031 2.498503 -2.507276 -10.163590 4.678941 4.621104 -20.975996 -0.000001 0.000001 -21.226254 2.451698 -3.593995 0.000000 -0.000006 0.000000 -1.362681 2.240797 -0.746323 -21.334892 0.584910 3.008319 -13.821196 -0.000001 0.000001 -23.887129 -0.249075 -0.839485 -64.687554 1.660189 -0.788133 -0.294025 1.679686 0.833255 -14.218195 0.093215 1.300579 -34.212002 -0.287561 0.967166 -20.033176 0.964536 1.212838 0.000000 0.000000 0.000000 -3.440387 0.788233 0.501655 -15.928172 -3.167306 2.999703 -6.338817 0.000000 0.000001 -18.123419 3.648181 -4.905662 -0.000004 0.000000 -0.000002 -7.196240 21.270995 18.789932 39.481773 -30.226957 15.497469 8.738550 48.025486 4.377927 43.645645 2.753063 -66.030049 2.243540 -5.255033 -3.180156 14.282877 -0.826594 6.952496 0.000000 -12.690593 -0.000001 16.538364 -18.072241 1.109445 1.665665 -1.955920 -2.878297 4.727794 -4.170584 4.993919 11.020511 0.000001 -0.000000 12.109032 -3.735715 -2.866778 0.000000 0.000000 0.000000 1.291985 -1.928548 -1.498088 14.800115 0.567467 3.865604 14.242553 -1.341738 -6.660648 19.631935 0.143921 -0.648243 52.148565 1.034718 -7.294086 0.353029 -1.511150 -0.031940 20.222769 3.684305 2.316629 18.787249 0.000001 -0.000001 10.751608 -0.479870 1.397903 0.000000 0.000000 0.000000 3.273804 0.305947 -0.580110 21.486790 11.830364 2.266131 8.162915 0.000000 0.000000 18.399052 -3.798986 -4.940567 0.000003 0.000000 -0.000001 -39.544530 -32.848383 -89.844505 -1.284213 0.498734 106.858474 -19.171199 24.698664 11.680783 1.784529 -2.970833 3.621598 0.000000 0.000000 0.000002 -104.542337 -55.516756 -31.385589 0.327687 0.101503 140.730141 2.843057 -1.735156 -14.893941 -1.161858 0.033439 5.571576 0.000000 0.000000 -0.000001
0.000000 0.000000 0.000000 0.000000 0.000000 0.000000 1.316361 -69.257985 1.432750 73.970033 79.511654 52.132478 15.675194 -1.639480 1.833290 7.398042 6.349357 -0.166758 14.905774 12.320935 13.159010 -16.027062 19.781948 10.637201 7.839240 28.361694 -1.171363 -4.131074 39.058219 14.723770 0.000077 -0.000022 0.000006 0.155992 -0.025605 -0.231215 0.948103 -3.662547 -11.235266 -0.663641 3.612475 -11.116487 -18.921060 65.668013 19.103428 -147.777870 51.411725 -47.820936 34.007971 -80.282317 -42.283163 33.122346 8.501472 -10.970039 -5.882102 9.861279 0.702590 -10.936861 -0.360574 7.156197 0.000000 8.774815 0.000000 -17.060487 18.403677 7.688175 -1.844031 2.498503 -2.507276 -10.163590 4.678941 4.621104 -20.975996 -0.000001 0.000001 -21.226254 2.451698 -3.593995 0.000000 -0.000006 0.000000 -1.362681 2.240797 -0.746323 -21.334892 0.584910 3.008319 -13.821196 -0.000001 0.000001 -23.887129 -0.249075 -0.839485 -64.606778 1.625420 -0.809776 -0.294025 1.679686 0.833255 -14.218195 0.093215 1.300579 -34.212002 -0.287561 0.967166 -20.033176 0.964536 1.212838 0.000000 0.000000 0.000000 -3.440387 0.788233 0.501655 -15.928172 -3.167306 2.999703 -6.338817 0.000000 0.000001 -18.123419 3.648181 -4.905662 -0.000004 0.000000 -0.000002 -7.250709 21.259150 18.690640 39.480778 -30.372695 15.563300 8.645816 48.402364 4.355873 43.885910 2.647637 -66.483675 2.243540 -5.255033 -3.180156 14.282877 -0.826594 6.952496 0.000000 -12.690593 -0.000001 16.541920 -18.029311 1.105396 1.665665 -1.955920 -2.878297 4.727794 -4.170584 4.993919 11.020511 0.000001 -0.000000 12.109032 -3.735715 -2.866778 0.000000 0.000000 0.000000 1.291985 -1.928548 -1.498088 14.800115 0.567467 3.865604 14.242553 -1.341738 -6.660648 19.631935 0.143921 -0.648243 52.235412 1.031413 -7.264427 0.353029 -1.511150 -0.031940 20.222769 3.684305 2.316629 18.787249 0.000001 -0.000001 10.751608 -0.479870 1.397903 0.000000 0.000000 0.000000 3.273804 0.305947 -0.580110 21.486790 11.830364 2.266131 8.162915 0.000000 0.000000 18.399052 -3.798986 -4.940567 0.000003 0.000000 -0.000001 -39.570211 -32.805620 -89.895395 -1.290398 0.518175 106.936746 -19.405130 24.775061 11.614673 1.794963 -2.971574 3.567383 0.000000 0.000000 0.000002 -104.704959 -55.457911 -31.303301 0.320878 0.104798 140.827877 2.839012 -1.762685 -14.924560 -1.160891 0.048251 5.603407 0.000000 0.000000 -0.000001
0.000000 0.000000 0.000000 0.000000 0.000000 0.000000 1.316361 -69.312800 1.432750 74.026909 79.509327 52.153107 15.659591 -1.618874 1.841257 7.391239 6.361652 -0.157378 14.906314 12.314585 13.248004 -15.940299 19.698239 10.746051 7.839206 28.340869 -1.158662 -4.213090 39.145017 14.644121 0.000077 -0.000022 0.000006 0.151084 -0.034234 -0.229820 0.936874 -3.670092 -11.228912 -0.662306 3.601826 -11.107895 -18.953640 65.286298 18.908175 -148.226812 51.385640 -48.133963 34.448244 -80.306016 -42.620549 33.150942 8.585491 -10.984638 -5.882102 9.861279 0.702590 -10.936861 -0.360574 7.156197 0.000000 8.774815 0.000000 -16.989084 18.366728 7.701679 -1.844031 2.498503 -2.507276 -10.163590 4.678941 4.621104 -20.975996 -0.000001 0.000001 -21.226254 2.451698 -3.593995 0.000000 -0.000006 0.000000 -1.362681 2.240797 -0.746323 -21.334892 0.584910 3.008319 -13.821196 -0.000001 0.000001 -23.887129 -0.249075 -0.839485 -64.522584 1.583985 -0.806270 -0.294025 1.679686 0.833255 -14.218195 0.093215 1.300579 -34.212002 -0.287561 0.967166 -20.033176 0.964536 1.212838 0.000000 0.000000 0.000000 -3.440387 0.788233 0.501655 -15.928172 -3.167306 2.999703 -6.338817 0.000000 0.000001 -18.123419 3.648181 -4.905662 -0.000004 0.000000 -0.000002 -7.247927 21.220800 18.591816 39.506456 -30.533342 15.647637 8.557581 48.699791 4.320911 44.024728 2.580008 -66.881819 2.243540 -5.255033 -3.180156 14.282877 -0.826594 6.952496 0.000000 -12.690593 -0.000001 16.572083 -18.034065 1.095694 1.665665 -1.955920 -2.878297 4.727794 -4.170584 4.993919 11.020511 0.000001 -0.000000 12.109032 -3.735715 -2.866778 0.000000 0.000000 0.000000 1.291985 -1.928548 -1.498088 14.800115 0.567467 3.865604 14.242553 -1.341738 -6.660648 19.631935 0.143921 -0.648243 52.272378 0.995610 -7.277078 0.353029 -1.511150 -0.031940 20.222769 3.684305 2.316629 18.787249 0.000001 -0.000001 10.751608 -0.479870 1.397903 0.000000 0.000000 0.000000 3.273804 0.305947 -0.580110 21.486790 11.830364 2.266131 8.162915 0.000000 0.000000 18.399052 -3.798986 -4.940567 0.000003 0.000000 -0.000001 -39.659954 -32.771683 -89.904733 -1.295004 0.528769 107.054851 -19.591060 24.828305 11.523281 1.793252 -2.966255 3.551190 0.000000 0.000000 0.000002 -105.053576 -55.347238 -31.045997 0.312881 0.107860 140.924286 2.843709 -1.710178 -14.954348 -1.159616 0.058297 5.585619 0.000000 0.000000 -0.000001
0.000000 0.000000 0.000000 0.000000 0.000000 0.000000 1.316361 -69.374467 1.432750 74.105449 79.503009 52.191539 15.639139 -1.586067 1.818570 7.362710 6.357618 -0.138874 14.866128 12.344820 13.303714 -15.790363 19.650697 10.843934 7.787059 28.239457 -1.166004 -4.224087 39.263420 14.581196 0.000077 -0.000022 0.000006 0.145034 -0.041702 -0.229296 0.928580 -3.679300 -11.237974 -0.666096 3.595355 -11.115758 -18.912131 64.857613 18.743926 -148.615402 51.303180 -48.469381 34.392454 -80.297728 -42.500526 33.154523 8.601891 -10.943362 -5.882102 9.861279 0.702590 -10.936861 -0.360574 7.156197 0.000000 8.774815 0.000000 -16.945773 18.330455 7.685902 -1.844031 2.498503 -2.507276 -10.163590 4.678941 4.621104 -20.975996 -0.000001 0.000001 -21.226254 2.451698 -3.593995 0.000000 -0.000006 0.000000 -1.362681 2.240797 -0.746323 -21.334892 0.584910 3.008319 -13.821196 -0.000001 0.000001 -23.887129 -0.249075 -0.839485 -64.442836 1.570741 -0.791954 -0.294025 1.679686 0.833255 -14.218195 0.093215 1.300579 -34.212002 -0.287561 0.967166 -20.033176 0.964536 1.212838 0.000000 0.000000 0.000000 -3.440387 0.788233 0.501655 -15.928172 -3.167306 2.999703 -6.338817 0.000000 0.000001 -18.123419 3.648181 -4.905662 -0.000004 0.000000 -0.000002 -7.149160 21.146909 18.524064 39.454577 -30.690596 15.832251 8.456993 49.001791 4.299504 44.087488 2.529742 -67.197786 2.243540 -5.255033 -3.180156 14.282877 -0.826594 6.952496 0.000000 -12.690593 -0.000001 16.637519 -18.079066 1.094563 1.665665 -1.955920 -2.878297 4.727794 -4.170584 4.993919 11.020511 0.000001 -0.000000 12.109032 -3.735715 -2.866778 0.000000 0.000000 0.000000 1.291985 -1.928548 -1.498088 14.800115 0.567467 3.865604 14.242553 -1.341738 -6.660648 19.631935 0.143921 -0.648243 52.304624 0.958106 -7.310440 0.353029 -1.511150 -0.031940 20.222769 3.684305 2.316629 18.787249 0.000001 -0.000001 10.751608 -0.479870 1.397903 0.000000 0.000000 0.000000 3.273804 0.305947 -0.580110 21.486790 11.830364 2.266131 8.162915 0.000000 0.000000 18.399052 -3.798986 -4.940567 0.000003 0.000000 -0.000001 -39.796671 -32.733616 -89.870737 -1.306585 0.529838 107.164571 -19.819108 24.814800 11.374947 1.775351 -2.953685 3.567707 0.000000 0.000000 0.000002 -105.414260 -55.210361 -30.795113 0.318766 0.106366 141.019379 2.859427 -1.644726 -14.973769 -1.156624 0.057985 5.594712 0.000000 0.000000 -0.000001
0.000000 0.000000 0.000000 0.000000 0.000000 0.000000 1.316361 -69.389556 1.432750 74.133824 79.504379 52.193728 15.592144 -1.593700 1.805027 7.360214 6.393489 -0.139852 14.823146 12.399954 13.351760 -15.730780 19.603694 10.882878 7.771535 28.262925 -1.188100 -4.232851 39.287963 14.420011 0.000077 -0.000022 0.000006 0.142335 -0.043637 -0.223744 0.916075 -3.687757 -11.246627 -0.658592 3.599300 -11.128574 -18.861219 64.490581 18.586846 -148.945740 51.199620 -48.828142 34.005700 -80.305053 -42.070750 33.079861 8.590886 -10.800876 -5.882102 9.861279 0.702590 -10.936861 -0.360574 7.156197 0.000000 8.774815 0.000000 -16.922565 18.339496 7.694101 -1.844031 2.498503 -2.507276 -10.163590 4.678941 4.621104 -20.975996 -0.000001 0.000001 -21.226254 2.451698 -3.593995 0.000000 -0.000006 0.000000 -1.362681 2.240797 -0.746323 -21.334892 0.584910 3.008319 -13.821196 -0.000001 0.000001 -23.887129 -0.249075 -0.839485 -64.440824 1.598683 -0.757303 -0.294025 1.679686 0.833255 -14.218195 0.093215 1.300579 -34.212002 -0.287561 0.967166 -20.033176 0.964536 1.212838 0.000000 0.000000 0.000000 -3.440387 0.788233 0.501655 -15.928172 -3.167306 2.999703 -6.338817 0.000000 0.000001 -18.123419 3.648181 -4.905662 -0.000004 0.000000 -0.000002 -7.018697 21.033928 18.529246 39.384398 -30.755594 16.050460 8.408879 49.222126 4.325656 44.020253 2.624899 -67.462589 2.243540 -5.255033 -3.180156 14.282877 -0.826594 6.952496 0.000000 -12.690593 -0.000001 16.688945 -18.140647 1.085119 1.665665 -1.955920 -2.878297 4.727794 -4.170584 4.993919 11.020511 0.000001 -0.000000 12.109032 -3.735715 -2.866778 0.000000 0.000000 0.000000 1.291985 -1.928548 -1.498088 14.800115 0.567467 3.865604 14.242553 -1.341738 -6.660648 19.631935 0.143921 -0.648243 52.253130 0.929213 -7.344688 0.353029 -1.511150 -0.031940 20.222769 3.684305 2.316629 18.787249 0.000001 -0.000001 10.751608 -0.479870 1.397903 0.000000 0.000000 0.000000 3.273804 0.305947 -0.580110 21.486790 11.830364 2.266131 8.162915 0.000000 0.000000 18.399052 -3.798986 -4.940567 0.000003 0.000000 -0.000001 -39.914390 -32.665340 -89.830955 -1.313435 0.518197 107.234692 -19.942242 24.830883 11.392386 1.764374 -2.925142 3.575601 0.000000 0.000000 0.000002 -105.609390 -55.143467 -30.594856 0.330380 0.100051 141.078640 2.862613 -1.629723 -15.050288 -1.154250 0.058858 5.574477 0.000000 0.000000 -0.000001
