HIERARCHY
ROOT Root
{
  OFFSET 0.000000 0.000000 0.000000
  CHANNELS 6 Xposition Yposition Zposition Zrotation Yrotation Xrotation
  JOINT Hips
  {
    OFFSET 0.000000 100.000000 0.000000
    CHANNELS 6 Xposition Yposition Zposition Zrotation Yrotation Xrotation
    JOINT Spine1
    {
      OFFSET -0.013727 5.003763 -0.053727
      CHANNELS 3 Zrotation Yrotation Xrotation
      JOINT Spine2
      {
        OFFSET -0.000000 7.125301 -0.029825
        CHANNELS 3 Zrotation Yrotation Xrotation
        JOINT Chest
        {
          OFFSET -0.000001 7.550063 -0.815971
          CHANNELS 3 Zrotation Yrotation Xrotation
          JOINT Neck1
          {
            OFFSET -0.181677 26.311295 -0.553348
            CHANNELS 3 Zrotation Yrotation Xrotation
            JOINT Neck2
            {
              OFFSET -0.000003 7.709397 2.302585
              CHANNELS 3 Zrotation Yrotation Xrotation
              JOINT Head
              {
                OFFSET -0.000005 6.128916 1.953709
                CHANNELS 3 Zrotation Yrotation Xrotation
                JOINT HeadEnd
                {
                  OFFSET 0.003598 16.065403 -1.835379
                  CHANNELS 3 Zrotation Yrotation Xrotation
                }
                JOINT Jaw
                {
                  OFFSET 0.002637 0.475592 3.094941
                  CHANNELS 3 Zrotation Yrotation Xrotation
                }
                JOINT LeftEye
                {
                  OFFSET 3.206381 5.380205 7.586883
                  CHANNELS 3 Zrotation Yrotation Xrotation
                }
                JOINT RightEye
                {
                  OFFSET -3.222440 5.361869 7.558234
                  CHANNELS 3 Zrotation Yrotation Xrotation
                }
              }
            }
          }
          JOINT LeftShoulder
          {
            OFFSET 1.621652 23.237164 5.113413
            CHANNELS 3 Zrotation Yrotation Xrotation
            JOINT LeftArm
            {
              OFFSET 14.919846 0.000002 -5.502326
              CHANNELS 3 Zrotation Yrotation Xrotation
              JOINT LeftForeArm
              {
                OFFSET 28.739307 0.000000 -0.002588
                CHANNELS 3 Zrotation Yrotation Xrotation
                JOINT LeftHand
                {
                  OFFSET 27.093981 -0.000001 0.002609
                  CHANNELS 3 Zrotation Yrotation Xrotation
                  JOINT LeftHandThumb1
                  {
                    OFFSET 2.276482 -1.392045 3.191413
                    CHANNELS 3 Zrotation Yrotation Xrotation
                    JOINT LeftHandThumb2
                    {
                      OFFSET 4.012836 -1.828127 1.641654
                      CHANNELS 3 Zrotation Yrotation Xrotation
                      JOINT LeftHandThumb3
                      {
                        OFFSET 2.798515 0.000000 -0.000003
                        CHANNELS 3 Zrotation Yrotation Xrotation
                        JOINT LeftHandThumbEnd
                        {
                          OFFSET 3.180793 -0.000004 0.000004
                          CHANNELS 3 Zrotation Yrotation Xrotation
                        }
                      }
                    }
                  }
                  JOINT LeftHandIndex1
                  {
                    OFFSET 3.247555 -0.531998 2.296169
                    CHANNELS 3 Zrotation Yrotation Xrotation
                    JOINT LeftHandIndex2
                    {
                      OFFSET 6.364578 0.012060 0.178600
                      CHANNELS 3 Zrotation Yrotation Xrotation
                      JOINT LeftHandIndex3
                      {
                        OFFSET 3.662364 0.000000 0.000000
                        CHANNELS 3 Zrotation Yrotation Xrotation
                        JOINT LeftHandIndex4
                        {
                          OFFSET 2.329242 0.000004 0.000004
                          CHANNELS 3 Zrotation Yrotation Xrotation
                          JOINT LeftHandIndexEnd
                          {
                            OFFSET 2.759615 -0.180537 -0.113024
                            CHANNELS 3 Zrotation Yrotation Xrotation
                          }
                        }
                      }
                    }
                  }
                  JOINT LeftHandMiddle1
                  {
                    OFFSET 3.163495 0.240981 1.000332
                    CHANNELS 3 Zrotation Yrotation Xrotation
                    JOINT LeftHandMiddle2
                    {
                      OFFSET 6.190780 -0.259278 -1.002548
                      CHANNELS 3 Zrotation Yrotation Xrotation
                      JOINT LeftHandMiddle3
                      {
                        OFFSET 4.356520 -0.000004 -0.000001
                        CHANNELS 3 Zrotation Yrotation Xrotation
                        JOINT LeftHandMiddle4
                        {
                          OFFSET 2.996877 -0.000008 0.000000
                          CHANNELS 3 Zrotation Yrotation Xrotation
                          JOINT LeftHandMiddleEnd
                          {
                            OFFSET 2.304287 -0.294569 -0.031741
                            CHANNELS 3 Zrotation Yrotation Xrotation
                          }
                        }
                      }
                    }
                  }
                  JOINT LeftHandRing1
                  {
                    OFFSET 2.882643 -0.053652 -0.322543
                    CHANNELS 3 Zrotation Yrotation Xrotation
                    JOINT LeftHandRing2
                    {
                      OFFSET 5.854541 -0.486202 -1.373841
                      CHANNELS 3 Zrotation Yrotation Xrotation
                      JOINT LeftHandRing3
                      {
                        OFFSET 4.350578 0.000000 0.000003
                        CHANNELS 3 Zrotation Yrotation Xrotation
                        JOINT LeftHandRing4
                        {
                          OFFSET 2.651321 0.000007 0.000002
                          CHANNELS 3 Zrotation Yrotation Xrotation
                          JOINT LeftHandRingEnd
                          {
                            OFFSET 1.936105 0.077687 -0.000071
                            CHANNELS 3 Zrotation Yrotation Xrotation
                          }
                        }
                      }
                    }
                  }
                  JOINT LeftHandPinky1
                  {
                    OFFSET 2.865500 -0.310005 -1.600378
                    CHANNELS 3 Zrotation Yrotation Xrotation
                    JOINT LeftHandPinky2
                    {
                      OFFSET 5.087849 -1.331141 -1.771230
                      CHANNELS 3 Zrotation Yrotation Xrotation
                      JOINT LeftHandPinky3
                      {
                        OFFSET 3.070974 0.000004 0.000000
                        CHANNELS 3 Zrotation Yrotation Xrotation
                        JOINT LeftHandPinky4
                        {
                          OFFSET 1.549672 0.000000 0.000001
                          CHANNELS 3 Zrotation Yrotation Xrotation
                          JOINT LeftHandPinkyEnd
                          {
                            OFFSET 1.944893 -0.157802 0.057219
                            CHANNELS 3 Zrotation Yrotation Xrotation
                          }
                        }
                      }
                    }
                  }
                }
              }
            }
          }
          JOINT RightShoulder
          {
            OFFSET -1.380118 23.180309 5.214158
            CHANNELS 3 Zrotation Yrotation Xrotation
            JOINT RightArm
            {
              OFFSET -15.037196 0.000012 -5.545604
              CHANNELS 3 Zrotation Yrotation Xrotation
              JOINT RightForeArm
              {
                OFFSET -28.736639 0.000002 -0.002597
                CHANNELS 3 Zrotation Yrotation Xrotation
                JOINT RightHand
                {
                  OFFSET -27.133619 -0.000000 0.002613
                  CHANNELS 3 Zrotation Yrotation Xrotation
                  JOINT RightHandThumb1
                  {
                    OFFSET -2.274032 -1.383988 3.163127
                    CHANNELS 3 Zrotation Yrotation Xrotation
                    JOINT RightHandThumb2
                    {
                      OFFSET -4.011429 -1.827466 1.640914
                      CHANNELS 3 Zrotation Yrotation Xrotation
                      JOINT RightHandThumb3
                      {
                        OFFSET -2.794935 -0.000004 -0.000003
                        CHANNELS 3 Zrotation Yrotation Xrotation
                        JOINT RightHandThumbEnd
                        {
                          OFFSET -3.183852 0.000004 0.000001
                          CHANNELS 3 Zrotation Yrotation Xrotation
                        }
                      }
                    }
                  }
                  JOINT RightHandIndex1
                  {
                    OFFSET -3.253266 -0.520057 2.282866
                    CHANNELS 3 Zrotation Yrotation Xrotation
                    JOINT RightHandIndex2
                    {
                      OFFSET -6.341917 0.012471 0.178266
                      CHANNELS 3 Zrotation Yrotation Xrotation
                      JOINT RightHandIndex3
                      {
                        OFFSET -3.654871 -0.000008 -0.000000
                        CHANNELS 3 Zrotation Yrotation Xrotation
                        JOINT RightHandIndex4
                        {
                          OFFSET -2.327586 0.000000 0.000001
                          CHANNELS 3 Zrotation Yrotation Xrotation
                          JOINT RightHandIndexEnd
                          {
                            OFFSET -2.761790 -0.180656 -0.113078
                            CHANNELS 3 Zrotation Yrotation Xrotation
                          }
                        }
                      }
                    }
                  }
                  JOINT RightHandMiddle1
                  {
                    OFFSET -3.168106 0.246593 1.001030
                    CHANNELS 3 Zrotation Yrotation Xrotation
                    JOINT RightHandMiddle2
                    {
                      OFFSET -6.180828 -0.258836 -1.000895
                      CHANNELS 3 Zrotation Yrotation Xrotation
                      JOINT RightHandMiddle3
                      {
                        OFFSET -4.348901 0.000000 -0.000000
                        CHANNELS 3 Zrotation Yrotation Xrotation
                        JOINT RightHandMiddle4
                        {
                          OFFSET -3.000240 -0.000004 -0.000002
                          CHANNELS 3 Zrotation Yrotation Xrotation
                          JOINT RightHandMiddleEnd
                          {
                            OFFSET -2.302520 -0.294370 -0.031706
                            CHANNELS 3 Zrotation Yrotation Xrotation
                          }
                        }
                      }
                    }
                  }
                  JOINT RightHandRing1
                  {
                    OFFSET -2.885690 -0.067952 -0.308858
                    CHANNELS 3 Zrotation Yrotation Xrotation
                    JOINT RightHandRing2
                    {
                      OFFSET -5.854198 -0.486130 -1.373731
                      CHANNELS 3 Zrotation Yrotation Xrotation
                      JOINT RightHandRing3
                      {
                        OFFSET -4.338810 -0.000004 -0.000000
                        CHANNELS 3 Zrotation Yrotation Xrotation
                        JOINT RightHandRing4
                        {
                          OFFSET -2.654903 -0.000004 0.000004
                          CHANNELS 3 Zrotation Yrotation Xrotation
                          JOINT RightHandRingEnd
                          {
                            OFFSET -1.933568 0.077527 -0.000052
                            CHANNELS 3 Zrotation Yrotation Xrotation
                          }
                        }
                      }
                    }
                  }
                  JOINT RightHandPinky1
                  {
                    OFFSET -2.866425 -0.342796 -1.584145
                    CHANNELS 3 Zrotation Yrotation Xrotation
                    JOINT RightHandPinky2
                    {
                      OFFSET -5.091371 -1.332055 -1.772385
                      CHANNELS 3 Zrotation Yrotation Xrotation
                      JOINT RightHandPinky3
                      {
                        OFFSET -3.062664 -0.000004 0.000001
                        CHANNELS 3 Zrotation Yrotation Xrotation
                        JOINT RightHandPinky4
                        {
                          OFFSET -1.546529 0.000004 -0.000002
                          CHANNELS 3 Zrotation Yrotation Xrotation
                          JOINT RightHandPinkyEnd
                          {
                            OFFSET -1.945119 -0.157718 0.057211
                            CHANNELS 3 Zrotation Yrotation Xrotation
                          }
                        }
                      }
                    }
                  }
                }
              }
            }
          }
        }
      }
    }
    JOINT LeftLeg
    {
      OFFSET 10.043214 -8.434526 2.595655
      CHANNELS 3 Zrotation Yrotation Xrotation
      JOINT LeftShin
      {
        OFFSET -0.000001 -43.221752 -0.802913
        CHANNELS 3 Zrotation Yrotation Xrotation
        JOINT LeftFoot
        {
          OFFSET 0.000001 -42.155094 -3.481523
          CHANNELS 3 Zrotation Yrotation Xrotation
          JOINT LeftToeBase
          {
            OFFSET 0.000000 -5.059472 13.231529
            CHANNELS 3 Zrotation Yrotation Xrotation
            JOINT LeftToeEnd
            {
              OFFSET -0.009607 -1.647619 6.513017
              CHANNELS 3 Zrotation Yrotation Xrotation
            }
          }
        }
      }
    }
    JOINT RightLeg
    {
      OFFSET -10.047278 -8.295260 2.620317
      CHANNELS 3 Zrotation Yrotation Xrotation
      JOINT RightShin
      {
        OFFSET 0.000001 -43.362206 -0.805556
        CHANNELS 3 Zrotation Yrotation Xrotation
        JOINT RightFoot
        {
          OFFSET 0.000002 -42.117393 -3.478398
          CHANNELS 3 Zrotation Yrotation Xrotation
          JOINT RightToeBase
          {
            OFFSET -0.000000 -5.079609 13.284196
            CHANNELS 3 Zrotation Yrotation Xrotation
            JOINT RightToeEnd
            {
              OFFSET 0.009532 -1.634378 6.460591
              CHANNELS 3 Zrotation Yrotation Xrotation
            }
          }
        }
      }
    }
  }
}
MOTION
Frames: 34
Frame Time: 0.03333333
0.000000 0.000000 0.000000 0.000000 -0.000000 0.000000 1.430803 -0.702536 3.136440 -3.329579 85.733818 -3.116781 -1.162804 -1.021989 -6.427814 -1.078683 -2.751925 -8.383238 -1.352162 -5.573677 18.212753 6.640400 0.056962 4.502054 -3.153365 -7.148816 -3.592915 0.215707 -10.004225 -8.903956 0.000077 -0.000022 0.000006 0.001474 0.050644 -0.016019 0.732569 -3.687764 -10.642100 -0.726381 3.799295 -10.662364 -14.435991 -8.537083 25.655624 -52.102802 -30.025160 47.552662 -0.510885 -16.415442 -0.038873 6.056561 -2.531479 -16.739494 -5.882102 9.861279 0.702590 -10.936861 -0.360574 7.156197 0.000000 8.774815 -0.000000 -15.264977 17.812323 6.321848 -1.844031 2.498503 -2.507276 -10.163590 4.678941 4.621104 -20.975996 -0.000001 0.000001 -21.226254 2.451698 -3.593995 0.000000 -0.000006 -0.000000 -1.362681 2.240797 -0.746323 -21.334892 0.584910 3.008319 -13.821196 -0.000001 0.000001 -23.887129 -0.249075 -0.839485 -60.196568 2.479364 -0.692440 -0.294025 1.679686 0.833255 -14.218195 0.093215 1.300579 -34.212002 -0.287561 0.967166 -20.033176 0.964536 1.212838 0.000000 -0.000000 0.000000 -3.440387 0.788233 0.501655 -15.928172 -3.167306 2.999703 -6.338817 -0.000000 0.000001 -18.123419 3.648181 -4.905662 -0.000004 0.000000 -0.000002 14.550281 3.265587 22.111040 62.010742 22.198185 36.903511 0.399614 16.790449 0.113667 -9.903035 -0.676597 -31.375578 2.243540 -5.255033 -3.180156 14.282877 -0.826594 6.952496 -0.000000 -12.690593 -0.000001 15.942316 -17.558207 2.718468 1.665665 -1.955920 -2.878297 4.727794 -4.170584 4.993919 11.020511 0.000001 -0.000000 12.109032 -3.735715 -2.866778 0.000000 -0.000000 0.000000 1.291985 -1.928548 -1.498088 14.800115 0.567467 3.865604 14.242553 -1.341738 -6.660648 19.631935 0.143921 -0.648243 49.057503 -0.591148 -6.027537 0.353029 -1.511150 -0.031940 20.222769 3.684305 2.316629 18.787249 0.000001 -0.000001 10.751608 -0.479870 1.397903 0.000000 -0.000000 0.000000 3.273804 0.305947 -0.580110 21.486790 11.830364 2.266131 8.162915 0.000000 -0.000000 18.399052 -3.798986 -4.940567 0.000003 0.000000 -0.000001 13.538748 -11.936691 -2.867537 0.050913 -0.411297 1.742750 -15.825729 4.118597 0.208867 1.629190 -2.042138 0.086429 0.000000 -0.000000 0.000002 -7.356105 4.663723 5.417098 -0.019158 0.457434 1.860792 8.764098 -10.709435 -6.861263 -1.420636 1.179629 0.807582 0.000000 -0.000000 -0.000001
0.000000 0.000000 0.000000 0.000000 -0.000000 0.000000 1.430803 -0.705328 3.136440 -3.100230 85.734711 -2.888398 -1.190581 -1.020814 -6.449495 -1.074803 -2.780923 -8.388781 -1.374097 -5.581669 18.215246 6.681410 0.021274 4.540700 -3.145137 -7.135047 -3.602135 0.180654 -9.998785 -8.837387 0.000077 -0.000022 0.000006 0.001867 0.048251 -0.018235 0.734655 -3.689716 -10.643434 -0.727608 3.796520 -10.662605 -14.400780 -8.543501 25.649618 -52.085964 -30.064228 47.784477 -0.491621 -16.448782 -0.037554 6.028291 -2.510932 -16.755209 -5.882102 9.861279 0.702590 -10.936861 -0.360574 7.156197 0.000000 8.774815 -0.000000 -15.275710 17.841194 6.334497 -1.844031 2.498503 -2.507276 -10.163590 4.678941 4.621104 -20.975996 -0.000001 0.000001 -21.226254 2.451698 -3.593995 0.000000 -0.000006 -0.000000 -1.362681 2.240797 -0.746323 -21.334892 0.584910 3.008319 -13.821196 -0.000001 0.000001 -23.887129 -0.249075 -0.839485 -60.237911 2.494309 -0.705920 -0.294025 1.679686 0.833255 -14.218195 0.093215 1.300579 -34.212002 -0.287561 0.967166 -20.033176 0.964536 1.212838 0.000000 -0.000000 0.000000 -3.440387 0.788233 0.501655 -15.928172 -3.167306 2.999703 -6.338817 -0.000000 0.000001 -18.123419 3.648181 -4.905662 -0.000004 0.000000 -0.000002 14.574990 3.224945 22.086649 61.976196 22.164713 36.826420 0.394952 16.847284 0.111594 -9.874219 -0.732978 -31.310677 2.243540 -5.255033 -3.180156 14.282877 -0.826594 6.952496 -0.000000 -12.690593 -0.000001 15.958660 -17.556873 2.715987 1.665665 -1.955920 -2.878297 4.727794 -4.170584 4.993919 11.020511 0.000001 -0.000000 12.109032 -3.735715 -2.866778 0.000000 -0.000000 0.000000 1.291985 -1.928548 -1.498088 14.800115 0.567467 3.865604 14.242553 -1.341738 -6.660648 19.631935 0.143921 -0.648243 49.045353 -0.582966 -6.024176 0.353029 -1.511150 -0.031940 20.222769 3.684305 2.316629 18.787249 0.000001 -0.000001 10.751608 -0.479870 1.397903 0.000000 -0.000000 0.000000 3.273804 0.305947 -0.580110 21.486790 11.830364 2.266131 8.162915 0.000000 -0.000000 18.399052 -3.798986 -4.940567 0.000003 0.000000 -0.000001 13.529588 -11.954679 -2.893658 0.055965 -0.402933 1.759557 -15.845042 4.044800 0.228815 1.629236 -2.025471 0.084275 0.000000 -0.000000 0.000002 -7.367008 4.610882 5.440957 -0.017536 0.454769 1.853804 8.795606 -10.698649 -6.894587 -1.419655 1.191069 0.816047 0.000000 -0.000000 -0.000001
0.000000 0.000000 0.000000 0.000000 -0.000000 0.000000 1.430803 -0.704779 3.136440 -2.988612 85.735111 -2.779972 -1.204401 -1.020514 -6.457840 -1.070794 -2.799745 -8.385302 -1.391616 -5.586516 18.204155 6.715827 -0.007550 4.567388 -3.157702 -7.123312 -3.600140 0.164166 -9.995796 -8.800179 0.000077 -0.000022 0.000006 0.003123 0.045952 -0.015805 0.736138 -3.690105 -10.631651 -0.726403 3.792168 -10.651159 -14.389363 -8.557754 25.648222 -52.055004 -30.102764 47.923893 -0.500226 -16.471745 -0.021479 6.039490 -2.477648 -16.779964 -5.882102 9.861279 0.702590 -10.936861 -0.360574 7.156197 0.000000 8.774815 -0.000000 -15.266818 17.841347 6.342496 -1.844031 2.498503 -2.507276 -10.163590 4.678941 4.621104 -20.975996 -0.000001 0.000001 -21.226254 2.451698 -3.593995 0.000000 -0.000006 -0.000000 -1.362681 2.240797 -0.746323 -21.334892 0.584910 3.008319 -13.821196 -0.000001 0.000001 -23.887129 -0.249075 -0.839485 -60.215515 2.472602 -0.698068 -0.294025 1.679686 0.833255 -14.218195 0.093215 1.300579 -34.212002 -0.287561 0.967166 -20.033176 0.964536 1.212838 0.000000 -0.000000 0.000000 -3.440387 0.788233 0.501655 -15.928172 -3.167306 2.999703 -6.338817 -0.000000 0.000001 -18.123419 3.648181 -4.905662 -0.000004 0.000000 -0.000002 14.581833 3.183320 22.070242 61.925568 22.161068 36.695648 0.404339 16.901129 0.116264 -9.886596 -0.742567 -31.266287 2.243540 -5.255033 -3.180156 14.282877 -0.826594 6.952496 -0.000000 -12.690593 -0.000001 15.961918 -17.544769 2.709025 1.665665 -1.955920 -2.878297 4.727794 -4.170584 4.993919 11.020511 0.000001 -0.000000 12.109032 -3.735715 -2.866778 0.000000 -0.000000 0.000000 1.291985 -1.928548 -1.498088 14.800115 0.567467 3.865604 14.242553 -1.341738 -6.660648 19.631935 0.143921 -0.648243 49.024174 -0.574018 -6.015532 0.353029 -1.511150 -0.031940 20.222769 3.684305 2.316629 18.787249 0.000001 -0.000001 10.751608 -0.479870 1.397903 0.000000 -0.000000 0.000000 3.273804 0.305947 -0.580110 21.486790 11.830364 2.266131 8.162915 0.000000 -0.000000 18.399052 -3.798986 -4.940567 0.000003 0.000000 -0.000001 13.528230 -11.974278 -2.907934 0.057127 -0.395935 1.758915 -15.859764 4.001917 0.257607 1.629127 -2.005346 0.082300 0.000000 -0.000000 0.000002 -7.374578 4.554787 5.434400 -0.012780 0.458407 1.859635 8.813153 -10.674542 -6.908558 -1.417508 1.203918 0.793869 0.000000 -0.000000 -0.000001
0.000000 0.000000 0.000000 0.000000 -0.000000 0.000000 1.430803 -0.700926 3.136440 -2.958579 85.735186 -2.758522 -1.206455 -1.018424 -6.443419 -1.062037 -2.805871 -8.374127 -1.401645 -5.581627 18.169598 6.751054 -0.026884 4.575514 -3.187462 -7.104250 -3.596922 0.156524 -9.996591 -8.777373 0.000077 -0.000022 0.000006 0.003880 0.044066 -0.011254 0.736202 -3.690028 -10.617585 -0.724726 3.788207 -10.638958 -14.407718 -8.582603 25.683174 -52.022038 -30.147102 47.890759 -0.519894 -16.476686 -0.007186 6.028471 -2.471876 -16.685287 -5.882102 9.861279 0.702590 -10.936861 -0.360574 7.156197 0.000000 8.774815 -0.000000 -15.265839 17.834814 6.338133 -1.844031 2.498503 -2.507276 -10.163590 4.678941 4.621104 -20.975996 -0.000001 0.000001 -21.226254 2.451698 -3.593995 0.000000 -0.000006 -0.000000 -1.362681 2.240797 -0.746323 -21.334892 0.584910 3.008319 -13.821196 -0.000001 0.000001 -23.887129 -0.249075 -0.839485 -60.168648 2.434969 -0.700136 -0.294025 1.679686 0.833255 -14.218195 0.093215 1.300579 -34.212002 -0.287561 0.967166 -20.033176 0.964536 1.212838 0.000000 -0.000000 0.000000 -3.440387 0.788233 0.501655 -15.928172 -3.167306 2.999703 -6.338817 -0.000000 0.000001 -18.123419 3.648181 -4.905662 -0.000004 0.000000 -0.000002 14.598525 3.129917 22.086298 61.821503 22.205082 36.538319 0.430139 16.951527 0.131694 -9.918194 -0.721264 -31.143005 2.243540 -5.255033 -3.180156 14.282877 -0.826594 6.952496 -0.000000 -12.690593 -0.000001 15.968102 -17.549917 2.698159 1.665665 -1.955920 -2.878297 4.727794 -4.170584 4.993919 11.020511 0.000001 -0.000000 12.109032 -3.735715 -2.866778 0.000000 -0.000000 0.000000 1.291985 -1.928548 -1.498088 14.800115 0.567467 3.865604 14.242553 -1.341738 -6.660648 19.631935 0.143921 -0.648243 49.029381 -0.572918 -6.020198 0.353029 -1.511150 -0.031940 20.222769 3.684305 2.316629 18.787249 0.000001 -0.000001 10.751608 -0.479870 1.397903 0.000000 -0.000000 0.000000 3.273804 0.305947 -0.580110 21.486790 11.830364 2.266131 8.162915 0.000000 -0.000000 18.399052 -3.798986 -4.940567 0.000003 0.000000 -0.000001 13.532201 -11.982656 -2.936120 0.050644 -0.394260 1.782252 -15.850757 4.017555 0.288176 1.629082 -1.989645 0.056768 0.000000 -0.000000 0.000002 -7.375152 4.557459 5.428308 -0.005218 0.462827 1.900417 8.831719 -10.655316 -6.914413 -1.414279 1.212736 0.768309 0.000000 -0.000000 -0.000001
0.000000 0.000000 0.000000 0.000000 -0.000000 0.000000 1.430803 -0.700781 3.136440 -2.569173 85.736515 -2.360644 -1.198250 -1.002438 -6.458200 -1.060065 -2.843693 -8.352090 -1.453279 -5.599149 18.157251 6.787287 -0.056720 4.543114 -3.215614 -7.107968 -3.595896 0.140332 -9.943163 -8.705673 0.000077 -0.000022 0.000006 0.002594 0.019425 -0.005494 0.735203 -3.713480 -10.593741 -0.725987 3.762576 -10.613680 -14.390102 -8.621736 25.650576 -51.995808 -30.143770 47.882961 -0.577710 -16.535593 0.023415 6.057094 -2.462822 -16.422270 -5.882102 9.861279 0.702590 -10.936861 -0.360574 7.156197 0.000000 8.774815 -0.000000 -15.289116 17.867470 6.327203 -1.844031 2.498503 -2.507276 -10.163590 4.678941 4.621104 -20.975996 -0.000001 0.000001 -21.226254 2.451698 -3.593995 0.000000 -0.000006 -0.000000 -1.362681 2.240797 -0.746323 -21.334892 0.584910 3.008319 -13.821196 -0.000001 0.000001 -23.887129 -0.249075 -0.839485 -60.145889 2.426057 -0.713867 -0.294025 1.679686 0.833255 -14.218195 0.093215 1.300579 -34.212002 -0.287561 0.967166 -20.033176 0.964536 1.212838 0.000000 -0.000000 0.000000 -3.440387 0.788233 0.501655 -15.928172 -3.167306 2.999703 -6.338817 -0.000000 0.000001 -18.123419 3.648181 -4.905662 -0.000004 0.000000 -0.000002 14.562163 3.091888 22.154066 61.802750 22.294432 36.417297 0.404337 16.976931 0.132770 -9.916407 -0.671525 -31.170658 2.243540 -5.255033 -3.180156 14.282877 -0.826594 6.952496 -0.000000 -12.690593 -0.000001 15.985620 -17.528318 2.670818 1.665665 -1.955920 -2.878297 4.727794 -4.170584 4.993919 11.020511 0.000001 -0.000000 12.109032 -3.735715 -2.866778 0.000000 -0.000000 0.000000 1.291985 -1.928548 -1.498088 14.800115 0.567467 3.865604 14.242553 -1.341738 -6.660648 19.631935 0.143921 -0.648243 49.043732 -0.541445 -5.975049 0.353029 -1.511150 -0.031940 20.222769 3.684305 2.316629 18.787249 0.000001 -0.000001 10.751608 -0.479870 1.397903 0.000000 -0.000000 0.000000 3.273804 0.305947 -0.580110 21.486790 11.830364 2.266131 8.162915 0.000000 -0.000000 18.399052 -3.798986 -4.940567 0.000003 0.000000 -0.000001 13.497640 -11.986202 -2.989892 0.051520 -0.373265 1.809032 -15.794866 3.991341 0.313588 1.634309 -1.984831 0.016911 0.000000 -0.000000 0.000002 -7.436920 4.440225 5.405842 0.003043 0.462548 1.930681 8.820880 -10.566648 -6.918038 -1.413259 1.211791 0.774389 0.000000 -0.000000 -0.000001
0.000000 0.000000 0.000000 0.000000 -0.000000 0.000000 1.430803 -0.698340 3.136440 -2.979447 85.735123 -2.776160 -1.157558 -1.019892 -6.429874 -1.039656 -2.791574 -8.360635 -1.440671 -5.576369 18.131491 6.698547 0.024923 4.552619 -3.215742 -7.152541 -3.591465 0.215780 -9.918508 -8.695481 0.000077 -0.000022 0.000006 0.001511 0.017706 -0.007119 0.733886 -3.720405 -10.627841 -0.726853 3.766700 -10.648189 -14.450978 -8.591091 25.675243 -51.956619 -30.140924 47.833622 -0.555202 -16.614510 -0.001998 6.000778 -2.472293 -16.516218 -5.882102 9.861279 0.702590 -10.936861 -0.360574 7.156197 0.000000 8.774815 -0.000000 -15.304682 17.821320 6.334712 -1.844031 2.498503 -2.507276 -10.163590 4.678941 4.621104 -20.975996 -0.000001 0.000001 -21.226254 2.451698 -3.593995 0.000000 -0.000006 -0.000000 -1.362681 2.240797 -0.746323 -21.334892 0.584910 3.008319 -13.821196 -0.000001 0.000001 -23.887129 -0.249075 -0.839485 -60.228172 2.407210 -0.672413 -0.294025 1.679686 0.833255 -14.218195 0.093215 1.300579 -34.212002 -0.287561 0.967166 -20.033176 0.964536 1.212838 0.000000 -0.000000 0.000000 -3.440387 0.788233 0.501655 -15.928172 -3.167306 2.999703 -6.338817 -0.000000 0.000001 -18.123419 3.648181 -4.905662 -0.000004 0.000000 -0.000002 14.541392 3.126007 22.094877 61.717999 22.291187 36.274200 0.470550 17.026079 0.143377 -9.947633 -0.772207 -31.041124 2.243540 -5.255033 -3.180156 14.282877 -0.826594 6.952496 -0.000000 -12.690593 -0.000001 15.982889 -17.532337 2.663450 1.665665 -1.955920 -2.878297 4.727794 -4.170584 4.993919 11.020511 0.000001 -0.000000 12.109032 -3.735715 -2.866778 0.000000 -0.000000 0.000000 1.291985 -1.928548 -1.498088 14.800115 0.567467 3.865604 14.242553 -1.341738 -6.660648 19.631935 0.143921 -0.648243 49.081291 -0.564717 -6.014288 0.353029 -1.511150 -0.031940 20.222769 3.684305 2.316629 18.787249 0.000001 -0.000001 10.751608 -0.479870 1.397903 0.000000 -0.000000 0.000000 3.273804 0.305947 -0.580110 21.486790 11.830364 2.266131 8.162915 0.000000 -0.000000 18.399052 -3.798986 -4.940567 0.000003 0.000000 -0.000001 13.530026 -11.877131 -2.945942 0.040664 -0.399249 1.846407 -15.823146 4.029714 0.270515 1.635544 -2.007288 0.018647 0.000000 -0.000000 0.000002 -7.405249 4.546434 5.345043 -0.007521 0.466680 1.967972 8.825167 -10.460366 -6.897822 -1.412505 1.196587 0.757853 0.000000 -0.000000 -0.000001
0.000000 0.000000 0.000000 0.000000 -0.000000 0.000000 1.430803 -0.700590 3.136440 -3.088868 85.734685 -2.894342 -1.131087 -1.013736 -6.416450 -1.031113 -2.776424 -8.353337 -1.434008 -5.577428 18.116541 6.635340 0.053408 4.509017 -3.189662 -7.087049 -3.584206 0.213543 -9.848515 -8.625344 0.000077 -0.000022 0.000006 0.001290 0.007362 -0.005869 0.736859 -3.734615 -10.637471 -0.730294 3.760514 -10.656113 -14.485571 -8.561398 25.679541 -51.951527 -30.126041 47.869717 -0.504597 -16.720098 -0.018334 5.949311 -2.438158 -16.517067 -5.882102 9.861279 0.702590 -10.936861 -0.360574 7.156197 0.000000 8.774815 -0.000000 -15.304807 17.816971 6.337187 -1.844031 2.498503 -2.507276 -10.163590 4.678941 4.621104 -20.975996 -0.000001 0.000001 -21.226254 2.451698 -3.593995 0.000000 -0.000006 -0.000000 -1.362681 2.240797 -0.746323 -21.334892 0.584910 3.008319 -13.821196 -0.000001 0.000001 -23.887129 -0.249075 -0.839485 -60.256348 2.425924 -0.660748 -0.294025 1.679686 0.833255 -14.218195 0.093215 1.300579 -34.212002 -0.287561 0.967166 -20.033176 0.964536 1.212838 0.000000 -0.000000 0.000000 -3.440387 0.788233 0.501655 -15.928172 -3.167306 2.999703 -6.338817 -0.000000 0.000001 -18.123419 3.648181 -4.905662 -0.000004 0.000000 -0.000002 14.500961 3.175970 22.088436 61.698860 22.342287 36.162148 0.469602 16.989094 0.141765 -9.925679 -0.821268 -30.927624 2.243540 -5.255033 -3.180156 14.282877 -0.826594 6.952496 -0.000000 -12.690593 -0.000001 15.990472 -17.535431 2.650162 1.665665 -1.955920 -2.878297 4.727794 -4.170584 4.993919 11.020511 0.000001 -0.000000 12.109032 -3.735715 -2.866778 0.000000 -0.000000 0.000000 1.291985 -1.928548 -1.498088 14.800115 0.567467 3.865604 14.242553 -1.341738 -6.660648 19.631935 0.143921 -0.648243 49.123199 -0.566432 -6.029780 0.353029 -1.511150 -0.031940 20.222769 3.684305 2.316629 18.787249 0.000001 -0.000001 10.751608 -0.479870 1.397903 0.000000 -0.000000 0.000000 3.273804 0.305947 -0.580110 21.486790 11.830364 2.266131 8.162915 0.000000 -0.000000 18.399052 -3.798986 -4.940567 0.000003 0.000000 -0.000001 13.523784 -11.820080 -2.908220 0.042076 -0.404238 1.866604 -15.815722 4.114552 0.219898 1.637889 -2.026169 0.025271 0.000000 -0.000000 0.000002 -7.414667 4.607630 5.293960 -0.010880 0.467426 1.984332 8.799297 -10.374995 -6.886760 -1.414326 1.183775 0.752607 0.000000 -0.000000 -0.000001
0.000000 0.000000 0.000000 0.000000 -0.000000 0.000000 1.430803 -0.698912 3.136440 -3.144288 85.734438 -2.958500 -1.114887 -1.004797 -6.399786 -1.032245 -2.776510 -8.346983 -1.419670 -5.584152 18.106443 6.580274 0.089987 4.470035 -3.160981 -7.027540 -3.580613 0.171165 -9.775242 -8.585154 0.000077 -0.000022 0.000006 0.001599 0.001120 -0.004814 0.738891 -3.740784 -10.636727 -0.731796 3.754179 -10.654897 -14.506581 -8.545574 25.669500 -51.958534 -30.114748 48.007191 -0.429094 -16.814871 -0.040701 5.880285 -2.381130 -16.508930 -5.882102 9.861279 0.702590 -10.936861 -0.360574 7.156197 0.000000 8.774815 -0.000000 -15.293733 17.816671 6.357326 -1.844031 2.498503 -2.507276 -10.163590 4.678941 4.621104 -20.975996 -0.000001 0.000001 -21.226254 2.451698 -3.593995 0.000000 -0.000006 -0.000000 -1.362681 2.240797 -0.746323 -21.334892 0.584910 3.008319 -13.821196 -0.000001 0.000001 -23.887129 -0.249075 -0.839485 -60.273560 2.446333 -0.637664 -0.294025 1.679686 0.833255 -14.218195 0.093215 1.300579 -34.212002 -0.287561 0.967166 -20.033176 0.964536 1.212838 0.000000 -0.000000 0.000000 -3.440387 0.788233 0.501655 -15.928172 -3.167306 2.999703 -6.338817 -0.000000 0.000001 -18.123419 3.648181 -4.905662 -0.000004 0.000000 -0.000002 14.491466 3.215325 22.080023 61.666916 22.395908 36.053345 0.465227 16.950336 0.135631 -9.885660 -0.856299 -30.838373 2.243540 -5.255033 -3.180156 14.282877 -0.826594 6.952496 -0.000000 -12.690593 -0.000001 15.976198 -17.543957 2.651658 1.665665 -1.955920 -2.878297 4.727794 -4.170584 4.993919 11.020511 0.000001 -0.000000 12.109032 -3.735715 -2.866778 0.000000 -0.000000 0.000000 1.291985 -1.928548 -1.498088 14.800115 0.567467 3.865604 14.242553 -1.341738 -6.660648 19.631935 0.143921 -0.648243 49.134865 -0.565885 -6.035215 0.353029 -1.511150 -0.031940 20.222769 3.684305 2.316629 18.787249 0.000001 -0.000001 10.751608 -0.479870 1.397903 0.000000 -0.000000 0.000000 3.273804 0.305947 -0.580110 21.486790 11.830364 2.266131 8.162915 0.000000 -0.000000 18.399052 -3.798986 -4.940567 0.000003 0.000000 -0.000001 13.513740 -11.772644 -2.862916 0.044017 -0.410000 1.862911 -15.803214 4.186106 0.199318 1.638333 -2.041384 0.039852 0.000000 -0.000000 0.000002 -7.430381 4.641369 5.246895 -0.014438 0.467735 2.003736 8.806406 -10.285846 -6.865311 -1.416410 1.176446 0.778577 0.000000 -0.000000 -0.000001
0.000000 0.000000 0.000000 0.000000 -0.000000 0.000000 1.430803 -0.694464 3.136440 -3.098023 85.734578 -2.921476 -1.104915 -1.008652 -6.380501 -1.038383 -2.779078 -8.345240 -1.398412 -5.585382 18.111315 6.515285 0.137255 4.438234 -3.136500 -6.994048 -3.585802 0.138036 -9.716403 -8.586222 0.000077 -0.000022 0.000006 0.001419 0.000603 -0.004385 0.738009 -3.739051 -10.629848 -0.731378 3.751586 -10.649577 -14.520130 -8.531079 25.644703 -51.966263 -30.134071 48.187553 -0.378488 -16.894464 -0.057222 5.824730 -2.323837 -16.538231 -5.882102 9.861279 0.702590 -10.936861 -0.360574 7.156197 0.000000 8.774815 -0.000000 -15.282074 17.827444 6.381118 -1.844031 2.498503 -2.507276 -10.163590 4.678941 4.621104 -20.975996 -0.000001 0.000001 -21.226254 2.451698 -3.593995 0.000000 -0.000006 -0.000000 -1.362681 2.240797 -0.746323 -21.334892 0.584910 3.008319 -13.821196 -0.000001 0.000001 -23.887129 -0.249075 -0.839485 -60.283413 2.460437 -0.610359 -0.294025 1.679686 0.833255 -14.218195 0.093215 1.300579 -34.212002 -0.287561 0.967166 -20.033176 0.964536 1.212838 0.000000 -0.000000 0.000000 -3.440387 0.788233 0.501655 -15.928172 -3.167306 2.999703 -6.338817 -0.000000 0.000001 -18.123419 3.648181 -4.905662 -0.000004 0.000000 -0.000002 14.508039 3.238717 22.091597 61.607372 22.463856 35.928181 0.474142 16.920151 0.132424 -9.848833 -0.861022 -30.796467 2.243540 -5.255033 -3.180156 14.282877 -0.826594 6.952496 -0.000000 -12.690593 -0.000001 15.960762 -17.542854 2.662471 1.665665 -1.955920 -2.878297 4.727794 -4.170584 4.993919 11.020511 0.000001 -0.000000 12.109032 -3.735715 -2.866778 0.000000 -0.000000 0.000000 1.291985 -1.928548 -1.498088 14.800115 0.567467 3.865604 14.242553 -1.341738 -6.660648 19.631935 0.143921 -0.648243 49.138218 -0.561267 -6.018899 0.353029 -1.511150 -0.031940 20.222769 3.684305 2.316629 18.787249 0.000001 -0.000001 10.751608 -0.479870 1.397903 0.000000 -0.000000 0.000000 3.273804 0.305947 -0.580110 21.486790 11.830364 2.266131 8.162915 0.000000 -0.000000 18.399052 -3.798986 -4.940567 0.000003 0.000000 -0.000001 13.496615 -11.687740 -2.818580 0.045891 -0.414346 1.853271 -15.805636 4.215669 0.210658 1.636420 -2.051868 0.078665 0.000000 -0.000000 0.000002 -7.460226 4.633272 5.207756 -0.018377 0.469149 2.023884 8.844570 -10.181870 -6.835145 -1.418269 1.172234 0.814086 0.000000 -0.000000 -0.000001
0.000000 0.000000 0.000000 0.000000 -0.000000 0.000000 1.430803 -0.686117 3.136440 -2.997868 85.734938 -2.825125 -1.096122 -1.019993 -6.366145 -1.045903 -2.776951 -8.344143 -1.372958 -5.589780 18.128588 6.439708 0.190875 4.411479 -3.118149 -6.989469 -3.595189 0.112748 -9.667725 -8.611347 0.000077 -0.000022 0.000006 0.000917 0.005803 -0.004955 0.735393 -3.730343 -10.620394 -0.729883 3.753081 -10.642042 -14.529175 -8.508134 25.609850 -51.971859 -30.203079 48.342300 -0.392651 -16.926668 -0.057329 5.822542 -2.303058 -16.553015 -5.882102 9.861279 0.702590 -10.936861 -0.360574 7.156197 0.000000 8.774815 -0.000000 -15.269027 17.852795 6.396200 -1.844031 2.498503 -2.507276 -10.163590 4.678941 4.621104 -20.975996 -0.000001 0.000001 -21.226254 2.451698 -3.593995 0.000000 -0.000006 -0.000000 -1.362681 2.240797 -0.746323 -21.334892 0.584910 3.008319 -13.821196 -0.000001 0.000001 -23.887129 -0.249075 -0.839485 -60.278320 2.465759 -0.609930 -0.294025 1.679686 0.833255 -14.218195 0.093215 1.300579 -34.212002 -0.287561 0.967166 -20.033176 0.964536 1.212838 0.000000 -0.000000 0.000000 -3.440387 0.788233 0.501655 -15.928172 -3.167306 2.999703 -6.338817 -0.000000 0.000001 -18.123419 3.648181 -4.905662 -0.000004 0.000000 -0.000002 14.535341 3.235404 22.108322 61.548386 22.528852 35.815720 0.488230 16.898022 0.129770 -9.835289 -0.834027 -30.832788 2.243540 -5.255033 -3.180156 14.282877 -0.826594 6.952496 -0.000000 -12.690593 -0.000001 15.941617 -17.537397 2.676964 1.665665 -1.955920 -2.878297 4.727794 -4.170584 4.993919 11.020511 0.000001 -0.000000 12.109032 -3.735715 -2.866778 0.000000 -0.000000 0.000000 1.291985 -1.928548 -1.498088 14.800115 0.567467 3.865604 14.242553 -1.341738 -6.660648 19.631935 0.143921 -0.648243 49.134918 -0.557578 -5.993154 0.353029 -1.511150 -0.031940 20.222769 3.684305 2.316629 18.787249 0.000001 -0.000001 10.751608 -0.479870 1.397903 0.000000 -0.000000 0.000000 3.273804 0.305947 -0.580110 21.486790 11.830364 2.266131 8.162915 0.000000 -0.000000 18.399052 -3.798986 -4.940567 0.000003 0.000000 -0.000001 13.471017 -11.581886 -2.788042 0.048375 -0.412563 1.838171 -15.809483 4.217833 0.247686 1.633405 -2.054487 0.107651 0.000000 -0.000000 0.000002 -7.497996 4.595215 5.170759 -0.020450 0.469672 2.035031 8.896811 -10.084895 -6.788355 -1.419475 1.173627 0.833459 0.000000 -0.000000 -0.000001
0.000000 0.000000 0.000000 0.000000 -0.000000 0.000000 1.430803 -0.677412 3.136440 -2.766988 85.735712 -2.605518 -1.092054 -1.029785 -6.353441 -1.054695 -2.769291 -8.344549 -1.354315 -5.599046 18.159466 6.368386 0.220184 4.403251 -3.100681 -6.976509 -3.599660 0.101814 -9.630282 -8.648602 0.000077 -0.000022 0.000006 0.000823 0.017127 -0.005747 0.733414 -3.715251 -10.607184 -0.728223 3.760382 -10.631285 -14.528645 -8.476187 25.562983 -51.972481 -30.301025 48.477901 -0.440378 -16.920006 -0.038688 5.853787 -2.318783 -16.571205 -5.882102 9.861279 0.702590 -10.936861 -0.360574 7.156197 0.000000 8.774815 -0.000000 -15.267884 17.877825 6.397416 -1.844031 2.498503 -2.507276 -10.163590 4.678941 4.621104 -20.975996 -0.000001 0.000001 -21.226254 2.451698 -3.593995 0.000000 -0.000006 -0.000000 -1.362681 2.240797 -0.746323 -21.334892 0.584910 3.008319 -13.821196 -0.000001 0.000001 -23.887129 -0.249075 -0.839485 -60.266018 2.461975 -0.641775 -0.294025 1.679686 0.833255 -14.218195 0.093215 1.300579 -34.212002 -0.287561 0.967166 -20.033176 0.964536 1.212838 0.000000 -0.000000 0.000000 -3.440387 0.788233 0.501655 -15.928172 -3.167306 2.999703 -6.338817 -0.000000 0.000001 -18.123419 3.648181 -4.905662 -0.000004 0.000000 -0.000002 14.551918 3.215360 22.125917 61.523300 22.578152 35.713940 0.500367 16.894432 0.130131 -9.831216 -0.815855 -30.929272 2.243540 -5.255033 -3.180156 14.282877 -0.826594 6.952496 -0.000000 -12.690593 -0.000001 15.922316 -17.525541 2.682780 1.665665 -1.955920 -2.878297 4.727794 -4.170584 4.993919 11.020511 0.000001 -0.000000 12.109032 -3.735715 -2.866778 0.000000 -0.000000 0.000000 1.291985 -1.928548 -1.498088 14.800115 0.567467 3.865604 14.242553 -1.341738 -6.660648 19.631935 0.143921 -0.648243 49.105377 -0.565264 -5.980182 0.353029 -1.511150 -0.031940 20.222769 3.684305 2.316629 18.787249 0.000001 -0.000001 10.751608 -0.479870 1.397903 0.000000 -0.000000 0.000000 3.273804 0.305947 -0.580110 21.486790 11.830364 2.266131 8.162915 0.000000 -0.000000 18.399052 -3.798986 -4.940567 0.000003 0.000000 -0.000001 13.429146 -11.504567 -2.760177 0.051549 -0.405204 1.813561 -15.798486 4.207162 0.296345 1.630477 -2.049946 0.097866 0.000000 -0.000000 0.000002 -7.546512 4.527310 5.155624 -0.020542 0.473597 2.030874 8.948617 -9.999407 -6.739638 -1.420258 1.178389 0.825294 0.000000 -0.000000 -0.000001
0.000000 0.000000 0.000000 0.000000 -0.000000 0.000000 1.430803 -0.666556 3.136440 -2.388129 85.736896 -2.229149 -1.094889 -1.034438 -6.352391 -1.059869 -2.764925 -8.346343 -1.340786 -5.610274 18.188177 6.296207 0.241022 4.408896 -3.080232 -6.933442 -3.604451 0.102333 -9.617435 -8.690807 0.000077 -0.000022 0.000006 0.001403 0.026936 -0.007486 0.732828 -3.703374 -10.601315 -0.726549 3.768124 -10.627381 -14.530536 -8.432693 25.516954 -51.973473 -30.394291 48.575184 -0.481612 -16.881453 -0.020637 5.906736 -2.356554 -16.567839 -5.882102 9.861279 0.702590 -10.936861 -0.360574 7.156197 0.000000 8.774815 -0.000000 -15.280826 17.896421 6.388383 -1.844031 2.498503 -2.507276 -10.163590 4.678941 4.621104 -20.975996 -0.000001 0.000001 -21.226254 2.451698 -3.593995 0.000000 -0.000006 -0.000000 -1.362681 2.240797 -0.746323 -21.334892 0.584910 3.008319 -13.821196 -0.000001 0.000001 -23.887129 -0.249075 -0.839485 -60.264015 2.465568 -0.692946 -0.294025 1.679686 0.833255 -14.218195 0.093215 1.300579 -34.212002 -0.287561 0.967166 -20.033176 0.964536 1.212838 0.000000 -0.000000 0.000000 -3.440387 0.788233 0.501655 -15.928172 -3.167306 2.999703 -6.338817 -0.000000 0.000001 -18.123419 3.648181 -4.905662 -0.000004 0.000000 -0.000002 14.559779 3.185767 22.136513 61.519733 22.600857 35.592308 0.528056 16.907108 0.134927 -9.836679 -0.837690 -30.958529 2.243540 -5.255033 -3.180156 14.282877 -0.826594 6.952496 -0.000000 -12.690593 -0.000001 15.908269 -17.520370 2.685205 1.665665 -1.955920 -2.878297 4.727794 -4.170584 4.993919 11.020511 0.000001 -0.000000 12.109032 -3.735715 -2.866778 0.000000 -0.000000 0.000000 1.291985 -1.928548 -1.498088 14.800115 0.567467 3.865604 14.242553 -1.341738 -6.660648 19.631935 0.143921 -0.648243 49.080719 -0.574366 -5.979066 0.353029 -1.511150 -0.031940 20.222769 3.684305 2.316629 18.787249 0.000001 -0.000001 10.751608 -0.479870 1.397903 0.000000 -0.000000 0.000000 3.273804 0.305947 -0.580110 21.486790 11.830364 2.266131 8.162915 0.000000 -0.000000 18.399052 -3.798986 -4.940567 0.000003 0.000000 -0.000001 13.377575 -11.428581 -2.745053 0.055878 -0.395331 1.773062 -15.772766 4.175829 0.374325 1.627965 -2.039174 0.073401 0.000000 -0.000000 0.000002 -7.603824 4.470315 5.123912 -0.021479 0.482365 2.051127 8.996711 -9.943240 -6.701257 -1.419986 1.186544 0.804511 0.000000 -0.000000 -0.000001
0.000000 0.000000 0.000000 0.000000 -0.000000 0.000000 1.430803 -0.660620 3.136440 -1.983836 85.737988 -1.815046 -1.098919 -1.035337 -6.356424 -1.057357 -2.766958 -8.347663 -1.331618 -5.620184 18.199223 6.217041 0.253415 4.413977 -3.050469 -6.858983 -3.603049 0.104435 -9.592762 -8.720009 0.000077 -0.000022 0.000006 0.001950 0.034083 -0.010475 0.734666 -3.696345 -10.603622 -0.727300 3.775635 -10.630397 -14.519817 -8.381647 25.465736 -52.014206 -30.458303 48.612354 -0.507770 -16.830574 -0.010397 5.951121 -2.403342 -16.577059 -5.882102 9.861279 0.702590 -10.936861 -0.360574 7.156197 0.000000 8.774815 -0.000000 -15.291533 17.894550 6.369556 -1.844031 2.498503 -2.507276 -10.163590 4.678941 4.621104 -20.975996 -0.000001 0.000001 -21.226254 2.451698 -3.593995 0.000000 -0.000006 -0.000000 -1.362681 2.240797 -0.746323 -21.334892 0.584910 3.008319 -13.821196 -0.000001 0.000001 -23.887129 -0.249075 -0.839485 -60.259769 2.469436 -0.733131 -0.294025 1.679686 0.833255 -14.218195 0.093215 1.300579 -34.212002 -0.287561 0.967166 -20.033176 0.964536 1.212838 0.000000 -0.000000 0.000000 -3.440387 0.788233 0.501655 -15.928172 -3.167306 2.999703 -6.338817 -0.000000 0.000001 -18.123419 3.648181 -4.905662 -0.000004 0.000000 -0.000002 14.539362 3.175503 22.136124 61.561768 22.577812 35.492767 0.547709 16.905140 0.139675 -9.838950 -0.857968 -30.978760 2.243540 -5.255033 -3.180156 14.282877 -0.826594 6.952496 -0.000000 -12.690593 -0.000001 15.898910 -17.509716 2.686171 1.665665 -1.955920 -2.878297 4.727794 -4.170584 4.993919 11.020511 0.000001 -0.000000 12.109032 -3.735715 -2.866778 0.000000 -0.000000 0.000000 1.291985 -1.928548 -1.498088 14.800115 0.567467 3.865604 14.242553 -1.341738 -6.660648 19.631935 0.143921 -0.648243 49.057568 -0.580836 -5.981238 0.353029 -1.511150 -0.031940 20.222769 3.684305 2.316629 18.787249 0.000001 -0.000001 10.751608 -0.479870 1.397903 0.000000 -0.000000 0.000000 3.273804 0.305947 -0.580110 21.486790 11.830364 2.266131 8.162915 0.000000 -0.000000 18.399052 -3.798986 -4.940567 0.000003 0.000000 -0.000001 13.329530 -11.356569 -2.752141 0.059300 -0.386640 1.737355 -15.740241 4.140818 0.434739 1.626000 -2.029910 0.060465 0.000000 -0.000000 0.000002 -7.660967 4.433004 5.083782 -0.023345 0.487483 2.068995 9.024526 -9.911215 -6.685412 -1.418678 1.189725 0.800566 0.000000 -0.000000 -0.000001
0.000000 0.000000 0.000000 0.000000 -0.000000 0.000000 1.430803 -0.662077 3.136440 -1.593972 85.738850 -1.405870 -1.104398 -1.037727 -6.362516 -1.050102 -2.773100 -8.350707 -1.323134 -5.618646 18.197247 6.150235 0.253188 4.422666 -3.026327 -6.785937 -3.599458 0.105842 -9.560032 -8.737935 0.000077 -0.000022 0.000006 0.002317 0.040027 -0.012805 0.738566 -3.690644 -10.603369 -0.730501 3.782015 -10.632255 -14.491116 -8.342870 25.409891 -52.093777 -30.489685 48.638294 -0.516118 -16.784395 -0.006194 5.994722 -2.453393 -16.636612 -5.882102 9.861279 0.702590 -10.936861 -0.360574 7.156197 0.000000 8.774815 -0.000000 -15.301034 17.873194 6.345781 -1.844031 2.498503 -2.507276 -10.163590 4.678941 4.621104 -20.975996 -0.000001 0.000001 -21.226254 2.451698 -3.593995 0.000000 -0.000006 -0.000000 -1.362681 2.240797 -0.746323 -21.334892 0.584910 3.008319 -13.821196 -0.000001 0.000001 -23.887129 -0.249075 -0.839485 -60.238354 2.455970 -0.754124 -0.294025 1.679686 0.833255 -14.218195 0.093215 1.300579 -34.212002 -0.287561 0.967166 -20.033176 0.964536 1.212838 0.000000 -0.000000 0.000000 -3.440387 0.788233 0.501655 -15.928172 -3.167306 2.999703 -6.338817 -0.000000 0.000001 -18.123419 3.648181 -4.905662 -0.000004 0.000000 -0.000002 14.496361 3.165367 22.117378 61.633709 22.504793 35.412971 0.555292 16.906265 0.142653 -9.797079 -0.835390 -30.951273 2.243540 -5.255033 -3.180156 14.282877 -0.826594 6.952496 -0.000000 -12.690593 -0.000001 15.889033 -17.489317 2.690408 1.665665 -1.955920 -2.878297 4.727794 -4.170584 4.993919 11.020511 0.000001 -0.000000 12.109032 -3.735715 -2.866778 0.000000 -0.000000 0.000000 1.291985 -1.928548 -1.498088 14.800115 0.567467 3.865604 14.242553 -1.341738 -6.660648 19.631935 0.143921 -0.648243 49.031754 -0.586704 -5.981794 0.353029 -1.511150 -0.031940 20.222769 3.684305 2.316629 18.787249 0.000001 -0.000001 10.751608 -0.479870 1.397903 0.000000 -0.000000 0.000000 3.273804 0.305947 -0.580110 21.486790 11.830364 2.266131 8.162915 0.000000 -0.000000 18.399052 -3.798986 -4.940567 0.000003 0.000000 -0.000001 13.287616 -11.300294 -2.783999 0.060911 -0.380867 1.714627 -15.721405 4.081970 0.459985 1.624006 -2.018476 0.043658 0.000000 -0.000000 0.000002 -7.717252 4.362759 5.053104 -0.024672 0.491347 2.065603 9.036391 -9.878522 -6.692674 -1.416920 1.194324 0.804304 0.000000 -0.000000 -0.000001
0.000000 0.000000 0.000000 0.000000 -0.000000 0.000000 1.430803 -0.668936 3.136440 -1.205689 85.739493 -0.998152 -1.106835 -1.041340 -6.357863 -1.043773 -2.780996 -8.354096 -1.319002 -5.611518 18.182745 6.106334 0.259399 4.418695 -3.017720 -6.738423 -3.597519 0.106177 -9.536831 -8.740631 0.000077 -0.000022 0.000006 0.002910 0.047533 -0.013886 0.742424 -3.684480 -10.604724 -0.733139 3.791202 -10.636366 -14.467020 -8.304208 25.381664 -52.164120 -30.529331 48.668900 -0.505729 -16.729595 -0.005530 6.044895 -2.510927 -16.720640 -5.882102 9.861279 0.702590 -10.936861 -0.360574 7.156197 0.000000 8.774815 -0.000000 -15.328253 17.857906 6.320330 -1.844031 2.498503 -2.507276 -10.163590 4.678941 4.621104 -20.975996 -0.000001 0.000001 -21.226254 2.451698 -3.593995 0.000000 -0.000006 -0.000000 -1.362681 2.240797 -0.746323 -21.334892 0.584910 3.008319 -13.821196 -0.000001 0.000001 -23.887129 -0.249075 -0.839485 -60.221684 2.434428 -0.758300 -0.294025 1.679686 0.833255 -14.218195 0.093215 1.300579 -34.212002 -0.287561 0.967166 -20.033176 0.964536 1.212838 0.000000 -0.000000 0.000000 -3.440387 0.788233 0.501655 -15.928172 -3.167306 2.999703 -6.338817 -0.000000 0.000001 -18.123419 3.648181 -4.905662 -0.000004 0.000000 -0.000002 14.454320 3.145835 22.085175 61.696594 22.393578 35.300514 0.572305 16.926407 0.145044 -9.739045 -0.776980 -30.852167 2.243540 -5.255033 -3.180156 14.282877 -0.826594 6.952496 -0.000000 -12.690593 -0.000001 15.887722 -17.476715 2.696884 1.665665 -1.955920 -2.878297 4.727794 -4.170584 4.993919 11.020511 0.000001 -0.000000 12.109032 -3.735715 -2.866778 0.000000 -0.000000 0.000000 1.291985 -1.928548 -1.498088 14.800115 0.567467 3.865604 14.242553 -1.341738 -6.660648 19.631935 0.143921 -0.648243 49.029190 -0.595477 -5.981853 0.353029 -1.511150 -0.031940 20.222769 3.684305 2.316629 18.787249 0.000001 -0.000001 10.751608 -0.479870 1.397903 0.000000 -0.000000 0.000000 3.273804 0.305947 -0.580110 21.486790 11.830364 2.266131 8.162915 0.000000 -0.000000 18.399052 -3.798986 -4.940567 0.000003 0.000000 -0.000001 13.253864 -11.249226 -2.844359 0.060297 -0.382513 1.724827 -15.718902 4.001672 0.464302 1.623033 -2.006080 0.018018 0.000000 -0.000000 0.000002 -7.773296 4.277018 5.029168 -0.024118 0.494647 2.067654 9.047215 -9.857960 -6.724952 -1.415215 1.202123 0.795841 0.000000 -0.000000 -0.000001
0.000000 0.000000 0.000000 0.000000 -0.000000 0.000000 1.430803 -0.672278 3.136440 -0.892483 85.739866 -0.659148 -1.104673 -1.049959 -6.355659 -1.040262 -2.784555 -8.355479 -1.314012 -5.609059 18.156429 6.079580 0.265636 4.402900 -3.013626 -6.707250 -3.598216 0.117373 -9.492345 -8.742536 0.000077 -0.000022 0.000006 0.002955 0.048407 -0.012628 0.744963 -3.684995 -10.602597 -0.735506 3.793637 -10.635200 -14.444003 -8.274230 25.359486 -52.243599 -30.551823 48.722404 -0.476986 -16.677900 -0.010927 6.105282 -2.560944 -16.748915 -5.882102 9.861279 0.702590 -10.936861 -0.360574 7.156197 0.000000 8.774815 -0.000000 -15.355492 17.852201 6.312192 -1.844031 2.498503 -2.507276 -10.163590 4.678941 4.621104 -20.975996 -0.000001 0.000001 -21.226254 2.451698 -3.593995 0.000000 -0.000006 -0.000000 -1.362681 2.240797 -0.746323 -21.334892 0.584910 3.008319 -13.821196 -0.000001 0.000001 -23.887129 -0.249075 -0.839485 -60.231216 2.410059 -0.745270 -0.294025 1.679686 0.833255 -14.218195 0.093215 1.300579 -34.212002 -0.287561 0.967166 -20.033176 0.964536 1.212838 0.000000 -0.000000 0.000000 -3.440387 0.788233 0.501655 -15.928172 -3.167306 2.999703 -6.338817 -0.000000 0.000001 -18.123419 3.648181 -4.905662 -0.000004 0.000000 -0.000002 14.416018 3.121217 22.046238 61.747635 22.264330 35.262192 0.574640 16.941507 0.142408 -9.680823 -0.723776 -30.785313 2.243540 -5.255033 -3.180156 14.282877 -0.826594 6.952496 -0.000000 -12.690593 -0.000001 15.900408 -17.470547 2.703143 1.665665 -1.955920 -2.878297 4.727794 -4.170584 4.993919 11.020511 0.000001 -0.000000 12.109032 -3.735715 -2.866778 0.000000 -0.000000 0.000000 1.291985 -1.928548 -1.498088 14.800115 0.567467 3.865604 14.242553 -1.341738 -6.660648 19.631935 0.143921 -0.648243 49.064762 -0.601366 -5.979705 0.353029 -1.511150 -0.031940 20.222769 3.684305 2.316629 18.787249 0.000001 -0.000001 10.751608 -0.479870 1.397903 0.000000 -0.000000 0.000000 3.273804 0.305947 -0.580110 21.486790 11.830364 2.266131 8.162915 0.000000 -0.000000 18.399052 -3.798986 -4.940567 0.000003 0.000000 -0.000001 13.233678 -11.225188 -2.929984 0.057053 -0.387626 1.753492 -15.719605 3.913159 0.479661 1.622616 -1.998840 -0.010158 0.000000 -0.000000 0.000002 -7.818829 4.176950 5.005874 -0.022755 0.502437 2.074801 9.051697 -9.853224 -6.744938 -1.413695 1.208361 0.776281 0.000000 -0.000000 -0.000001
0.000000 0.000000 0.000000 0.000000 -0.000000 0.000000 1.430803 -0.669623 3.136440 -0.639786 85.740059 -0.384635 -1.103511 -1.059365 -6.351599 -1.036839 -2.782986 -8.353676 -1.310361 -5.619185 18.129065 6.066907 0.287006 4.372869 -3.019136 -6.715086 -3.603420 0.144259 -9.434248 -8.763645 0.000077 -0.000022 0.000006 0.002186 0.040350 -0.009885 0.744294 -3.694214 -10.601504 -0.736264 3.786772 -10.633480 -14.413140 -8.270518 25.327219 -52.320614 -30.531639 48.751453 -0.438164 -16.648052 -0.018770 6.141518 -2.594537 -16.751392 -5.882102 9.861279 0.702590 -10.936861 -0.360574 7.156197 0.000000 8.774815 -0.000000 -15.386215 17.853830 6.314482 -1.844031 2.498503 -2.507276 -10.163590 4.678941 4.621104 -20.975996 -0.000001 0.000001 -21.226254 2.451698 -3.593995 0.000000 -0.000006 -0.000000 -1.362681 2.240797 -0.746323 -21.334892 0.584910 3.008319 -13.821196 -0.000001 0.000001 -23.887129 -0.249075 -0.839485 -60.264652 2.385580 -0.717914 -0.294025 1.679686 0.833255 -14.218195 0.093215 1.300579 -34.212002 -0.287561 0.967166 -20.033176 0.964536 1.212838 0.000000 -0.000000 0.000000 -3.440387 0.788233 0.501655 -15.928172 -3.167306 2.999703 -6.338817 -0.000000 0.000001 -18.123419 3.648181 -4.905662 -0.000004 0.000000 -0.000002 14.385840 3.101729 22.025490 61.784424 22.143265 35.226498 0.591616 16.942719 0.139844 -9.620884 -0.666972 -30.747641 2.243540 -5.255033 -3.180156 14.282877 -0.826594 6.952496 -0.000000 -12.690593 -0.000001 15.914505 -17.473364 2.711576 1.665665 -1.955920 -2.878297 4.727794 -4.170584 4.993919 11.020511 0.000001 -0.000000 12.109032 -3.735715 -2.866778 0.000000 -0.000000 0.000000 1.291985 -1.928548 -1.498088 14.800115 0.567467 3.865604 14.242553 -1.341738 -6.660648 19.631935 0.143921 -0.648243 49.104492 -0.609274 -5.975737 0.353029 -1.511150 -0.031940 20.222769 3.684305 2.316629 18.787249 0.000001 -0.000001 10.751608 -0.479870 1.397903 0.000000 -0.000000 0.000000 3.273804 0.305947 -0.580110 21.486790 11.830364 2.266131 8.162915 0.000000 -0.000000 18.399052 -3.798986 -4.940567 0.000003 0.000000 -0.000001 13.220407 -11.218501 -3.013376 0.053519 -0.393056 1.785062 -15.727669 3.830453 0.518636 1.623407 -1.999214 -0.023015 0.000000 -0.000000 0.000002 -7.856471 4.068919 4.994148 -0.022406 0.510564 2.072704 9.058841 -9.863221 -6.734110 -1.412382 1.212001 0.760537 0.000000 -0.000000 -0.000001
0.000000 0.000000 0.000000 0.000000 -0.000000 0.000000 1.430803 -0.664152 3.136440 -0.525932 85.740113 -0.262818 -1.100032 -1.059835 -6.341102 -1.033929 -2.773478 -8.345784 -1.300416 -5.640486 18.097273 6.051704 0.310866 4.336906 -3.019823 -6.697260 -3.605607 0.177508 -9.392747 -8.791620 0.000077 -0.000022 0.000006 0.001489 0.031299 -0.006641 0.742383 -3.705163 -10.600463 -0.735637 3.779677 -10.630550 -14.375289 -8.282245 25.283863 -52.399559 -30.469004 48.744576 -0.400459 -16.642483 -0.025219 6.148745 -2.569113 -16.683479 -5.882102 9.861279 0.702590 -10.936861 -0.360574 7.156197 0.000000 8.774815 -0.000000 -15.394060 17.843025 6.328353 -1.844031 2.498503 -2.507276 -10.163590 4.678941 4.621104 -20.975996 -0.000001 0.000001 -21.226254 2.451698 -3.593995 0.000000 -0.000006 -0.000000 -1.362681 2.240797 -0.746323 -21.334892 0.584910 3.008319 -13.821196 -0.000001 0.000001 -23.887129 -0.249075 -0.839485 -60.304996 2.371696 -0.681646 -0.294025 1.679686 0.833255 -14.218195 0.093215 1.300579 -34.212002 -0.287561 0.967166 -20.033176 0.964536 1.212838 0.000000 -0.000000 0.000000 -3.440387 0.788233 0.501655 -15.928172 -3.167306 2.999703 -6.338817 -0.000000 0.000001 -18.123419 3.648181 -4.905662 -0.000004 0.000000 -0.000002 14.340991 3.098865 22.037846 61.832256 22.042637 35.199898 0.598556 16.926279 0.140431 -9.534330 -0.619268 -30.781866 2.243540 -5.255033 -3.180156 14.282877 -0.826594 6.952496 -0.000000 -12.690593 -0.000001 15.908648 -17.484732 2.720793 1.665665 -1.955920 -2.878297 4.727794 -4.170584 4.993919 11.020511 0.000001 -0.000000 12.109032 -3.735715 -2.866778 0.000000 -0.000000 0.000000 1.291985 -1.928548 -1.498088 14.800115 0.567467 3.865604 14.242553 -1.341738 -6.660648 19.631935 0.143921 -0.648243 49.141232 -0.611301 -5.972587 0.353029 -1.511150 -0.031940 20.222769 3.684305 2.316629 18.787249 0.000001 -0.000001 10.751608 -0.479870 1.397903 0.000000 -0.000000 0.000000 3.273804 0.305947 -0.580110 21.486790 11.830364 2.266131 8.162915 0.000000 -0.000000 18.399052 -3.798986 -4.940567 0.000003 0.000000 -0.000001 13.212545 -11.230634 -3.065446 0.048602 -0.405505 1.809557 -15.728968 3.786969 0.549888 1.624194 -2.007550 -0.012382 0.000000 -0.000000 0.000002 -7.876917 4.003543 4.995911 -0.021539 0.510152 2.082815 9.068056 -9.907590 -6.709713 -1.411599 1.211176 0.731083 0.000000 -0.000000 -0.000001
0.000000 0.000000 0.000000 0.000000 -0.000000 0.000000 1.430803 -0.657423 3.136440 -0.468076 85.740129 -0.207774 -1.106358 -1.045456 -6.319829 -1.031067 -2.761016 -8.337827 -1.279885 -5.652009 18.059359 6.067489 0.315770 4.305695 -3.014381 -6.643847 -3.613226 0.178009 -9.390102 -8.818931 0.000077 -0.000022 0.000006 0.002179 0.035319 -0.008686 0.741355 -3.702337 -10.602821 -0.733153 3.784607 -10.631939 -14.344284 -8.312635 25.286806 -52.495628 -30.410984 48.674187 -0.363744 -16.584284 -0.035339 6.139121 -2.557278 -16.492155 -5.882102 9.861279 0.702590 -10.936861 -0.360574 7.156197 0.000000 8.774815 -0.000000 -15.393635 17.843121 6.335100 -1.844031 2.498503 -2.507276 -10.163590 4.678941 4.621104 -20.975996 -0.000001 0.000001 -21.226254 2.451698 -3.593995 0.000000 -0.000006 -0.000000 -1.362681 2.240797 -0.746323 -21.334892 0.584910 3.008319 -13.821196 -0.000001 0.000001 -23.887129 -0.249075 -0.839485 -60.329247 2.381039 -0.670145 -0.294025 1.679686 0.833255 -14.218195 0.093215 1.300579 -34.212002 -0.287561 0.967166 -20.033176 0.964536 1.212838 0.000000 -0.000000 0.000000 -3.440387 0.788233 0.501655 -15.928172 -3.167306 2.999703 -6.338817 -0.000000 0.000001 -18.123419 3.648181 -4.905662 -0.000004 0.000000 -0.000002 14.320997 3.087731 22.046524 61.834270 21.937550 35.184181 0.614601 16.941656 0.148875 -9.451929 -0.580764 -30.751852 2.243540 -5.255033 -3.180156 14.282877 -0.826594 6.952496 -0.000000 -12.690593 -0.000001 15.916713 -17.510838 2.730428 1.665665 -1.955920 -2.878297 4.727794 -4.170584 4.993919 11.020511 0.000001 -0.000000 12.109032 -3.735715 -2.866778 0.000000 -0.000000 0.000000 1.291985 -1.928548 -1.498088 14.800115 0.567467 3.865604 14.242553 -1.341738 -6.660648 19.631935 0.143921 -0.648243 49.190891 -0.620749 -5.992490 0.353029 -1.511150 -0.031940 20.222769 3.684305 2.316629 18.787249 0.000001 -0.000001 10.751608 -0.479870 1.397903 0.000000 -0.000000 0.000000 3.273804 0.305947 -0.580110 21.486790 11.830364 2.266131 8.162915 0.000000 -0.000000 18.399052 -3.798986 -4.940567 0.000003 0.000000 -0.000001 13.206333 -11.261616 -3.102851 0.044835 -0.422252 1.855192 -15.720000 3.805835 0.564419 1.625223 -2.018919 -0.017290 0.000000 -0.000000 0.000002 -7.884447 4.009028 5.005656 -0.020124 0.510061 2.103640 9.102036 -9.976376 -6.690881 -1.410920 1.206772 0.720236 0.000000 -0.000000 -0.000001
0.000000 0.000000 0.000000 0.000000 -0.000000 0.000000 1.430803 -0.660353 3.136440 -0.053782 85.740130 0.215027 -1.112252 -1.011122 -6.321431 -1.043251 -2.795372 -8.314580 -1.302272 -5.687919 18.023048 6.099946 0.302415 4.254814 -3.000903 -6.625355 -3.619315 0.157763 -9.318877 -8.797734 0.000077 -0.000022 0.000006 0.001183 0.009030 -0.006773 0.741197 -3.727642 -10.591061 -0.734799 3.757212 -10.615651 -14.260939 -8.354576 25.187540 -52.609352 -30.278389 48.754890 -0.372088 -16.538492 -0.020305 6.215076 -2.513413 -16.242840 -5.882102 9.861279 0.702590 -10.936861 -0.360574 7.156197 0.000000 8.774815 -0.000000 -15.410179 17.887518 6.336219 -1.844031 2.498503 -2.507276 -10.163590 4.678941 4.621104 -20.975996 -0.000001 0.000001 -21.226254 2.451698 -3.593995 0.000000 -0.000006 -0.000000 -1.362681 2.240797 -0.746323 -21.334892 0.584910 3.008319 -13.821196 -0.000001 0.000001 -23.887129 -0.249075 -0.839485 -60.377037 2.421657 -0.651069 -0.294025 1.679686 0.833255 -14.218195 0.093215 1.300579 -34.212002 -0.287561 0.967166 -20.033176 0.964536 1.212838 0.000000 -0.000000 0.000000 -3.440387 0.788233 0.501655 -15.928172 -3.167306 2.999703 -6.338817 -0.000000 0.000001 -18.123419 3.648181 -4.905662 -0.000004 0.000000 -0.000002 14.252457 3.083491 22.064190 61.930645 21.851355 35.246933 0.575308 16.941229 0.142280 -9.359423 -0.528298 -30.882242 2.243540 -5.255033 -3.180156 14.282877 -0.826594 6.952496 -0.000000 -12.690593 -0.000001 15.924690 -17.518021 2.724002 1.665665 -1.955920 -2.878297 4.727794 -4.170584 4.993919 11.020511 0.000001 -0.000000 12.109032 -3.735715 -2.866778 0.000000 -0.000000 0.000000 1.291985 -1.928548 -1.498088 14.800115 0.567467 3.865604 14.242553 -1.341738 -6.660648 19.631935 0.143921 -0.648243 49.209225 -0.595630 -5.971348 0.353029 -1.511150 -0.031940 20.222769 3.684305 2.316629 18.787249 0.000001 -0.000001 10.751608 -0.479870 1.397903 0.000000 -0.000000 0.000000 3.273804 0.305947 -0.580110 21.486790 11.830364 2.266131 8.162915 0.000000 -0.000000 18.399052 -3.798986 -4.940567 0.000003 0.000000 -0.000001 13.163652 -11.345889 -3.168451 0.055040 -0.412551 1.908192 -15.700259 3.832638 0.545179 1.629149 -2.038225 -0.028614 0.000000 -0.000000 0.000002 -7.942245 3.921025 5.010064 -0.016223 0.505349 2.115108 9.130102 -9.988491 -6.708973 -1.411842 1.200723 0.745813 0.000000 -0.000000 -0.000001
0.000000 0.000000 0.000000 0.000000 -0.000000 0.000000 1.430803 -0.654814 3.136440 -0.433089 85.740132 -0.183385 -1.096845 -1.012157 -6.275083 -1.039049 -2.759001 -8.326416 -1.257246 -5.650441 17.991539 6.076234 0.350646 4.227979 -2.982826 -6.640057 -3.619357 0.194431 -9.313608 -8.841624 0.000077 -0.000022 0.000006 0.001543 0.024788 -0.015956 0.742280 -3.712754 -10.613701 -0.735302 3.774029 -10.640798 -14.228302 -8.364150 25.199614 -52.712090 -30.197432 48.776653 -0.374298 -16.480824 -0.035480 6.238739 -2.480204 -16.353436 -5.882102 9.861279 0.702590 -10.936861 -0.360574 7.156197 0.000000 8.774815 -0.000000 -15.406719 17.827898 6.336535 -1.844031 2.498503 -2.507276 -10.163590 4.678941 4.621104 -20.975996 -0.000001 0.000001 -21.226254 2.451698 -3.593995 0.000000 -0.000006 -0.000000 -1.362681 2.240797 -0.746323 -21.334892 0.584910 3.008319 -13.821196 -0.000001 0.000001 -23.887129 -0.249075 -0.839485 -60.379707 2.415390 -0.614747 -0.294025 1.679686 0.833255 -14.218195 0.093215 1.300579 -34.212002 -0.287561 0.967166 -20.033176 0.964536 1.212838 0.000000 -0.000000 0.000000 -3.440387 0.788233 0.501655 -15.928172 -3.167306 2.999703 -6.338817 -0.000000 0.000001 -18.123419 3.648181 -4.905662 -0.000004 0.000000 -0.000002 14.207727 3.101033 21.984390 61.938335 21.730360 35.207607 0.611184 16.959692 0.157927 -9.258836 -0.584246 -30.738733 2.243540 -5.255033 -3.180156 14.282877 -0.826594 6.952496 -0.000000 -12.690593 -0.000001 15.904789 -17.543549 2.744929 1.665665 -1.955920 -2.878297 4.727794 -4.170584 4.993919 11.020511 0.000001 -0.000000 12.109032 -3.735715 -2.866778 0.000000 -0.000000 0.000000 1.291985 -1.928548 -1.498088 14.800115 0.567467 3.865604 14.242553 -1.341738 -6.660648 19.631935 0.143921 -0.648243 49.234039 -0.619377 -6.017791 0.353029 -1.511150 -0.031940 20.222769 3.684305 2.316629 18.787249 0.000001 -0.000001 10.751608 -0.479870 1.397903 0.000000 -0.000000 0.000000 3.273804 0.305947 -0.580110 21.486790 11.830364 2.266131 8.162915 0.000000 -0.000000 18.399052 -3.798986 -4.940567 0.000003 0.000000 -0.000001 13.179995 -11.354454 -3.171304 0.047837 -0.439893 2.011364 -15.780920 3.944108 0.471865 1.627032 -2.068029 0.000470 0.000000 -0.000000 0.000002 -7.919967 4.045862 4.979063 -0.024827 0.506832 2.111910 9.202839 -9.939413 -6.663970 -1.414027 1.191300 0.768936 0.000000 -0.000000 -0.000001
0.000000 0.000000 0.000000 0.000000 -0.000000 0.000000 1.430803 -0.653059 3.136440 -0.552637 85.740091 -0.307070 -1.096578 -1.003785 -6.261328 -1.045324 -2.763794 -8.322040 -1.229640 -5.665987 17.970037 6.063980 0.377014 4.162318 -2.942795 -6.573572 -3.613442 0.180954 -9.232091 -8.821097 0.000077 -0.000022 0.000006 0.001189 0.031344 -0.017236 0.742551 -3.706661 -10.616662 -0.736321 3.780814 -10.643894 -14.159542 -8.358480 25.150003 -52.832973 -30.081806 48.997566 -0.346984 -16.429813 -0.040718 6.244748 -2.421637 -16.315968 -5.882102 9.861279 0.702590 -10.936861 -0.360574 7.156197 0.000000 8.774815 -0.000000 -15.390725 17.823185 6.362989 -1.844031 2.498503 -2.507276 -10.163590 4.678941 4.621104 -20.975996 -0.000001 0.000001 -21.226254 2.451698 -3.593995 0.000000 -0.000006 -0.000000 -1.362681 2.240797 -0.746323 -21.334892 0.584910 3.008319 -13.821196 -0.000001 0.000001 -23.887129 -0.249075 -0.839485 -60.396896 2.433834 -0.589651 -0.294025 1.679686 0.833255 -14.218195 0.093215 1.300579 -34.212002 -0.287561 0.967166 -20.033176 0.964536 1.212838 0.000000 -0.000000 0.000000 -3.440387 0.788233 0.501655 -15.928172 -3.167306 2.999703 -6.338817 -0.000000 0.000001 -18.123419 3.648181 -4.905662 -0.000004 0.000000 -0.000002 14.145149 3.150973 21.985273 61.976200 21.710104 35.292778 0.613757 16.935097 0.163288 -9.203653 -0.627287 -30.818804 2.243540 -5.255033 -3.180156 14.282877 -0.826594 6.952496 -0.000000 -12.690593 -0.000001 15.904309 -17.547438 2.746332 1.665665 -1.955920 -2.878297 4.727794 -4.170584 4.993919 11.020511 0.000001 -0.000000 12.109032 -3.735715 -2.866778 0.000000 -0.000000 0.000000 1.291985 -1.928548 -1.498088 14.800115 0.567467 3.865604 14.242553 -1.341738 -6.660648 19.631935 0.143921 -0.648243 49.243748 -0.607872 -6.021641 0.353029 -1.511150 -0.031940 20.222769 3.684305 2.316629 18.787249 0.000001 -0.000001 10.751608 -0.479870 1.397903 0.000000 -0.000000 0.000000 3.273804 0.305947 -0.580110 21.486790 11.830364 2.266131 8.162915 0.000000 -0.000000 18.399052 -3.798986 -4.940567 0.000003 0.000000 -0.000001 13.179347 -11.360396 -3.175677 0.051808 -0.441296 2.087123 -15.824820 4.015756 0.415940 1.625906 -2.081120 0.025281 0.000000 -0.000000 0.000002 -7.925269 4.059974 4.972946 -0.027506 0.504695 2.088266 9.194582 -9.863116 -6.624672 -1.415256 1.181003 0.799573 0.000000 -0.000000 -0.000001
0.000000 0.000000 0.000000 0.000000 -0.000000 0.000000 1.430803 -0.649084 3.136440 -0.721303 85.740001 -0.479392 -1.094822 -0.996010 -6.257162 -1.047302 -2.768765 -8.317360 -1.220016 -5.697508 17.966309 6.061200 0.396340 4.095702 -2.900823 -6.513185 -3.605439 0.167781 -9.150596 -8.803645 0.000077 -0.000022 0.000006 0.000919 0.036023 -0.016667 0.740889 -3.701620 -10.616081 -0.735273 3.784950 -10.643425 -14.089023 -8.358219 25.107410 -52.918072 -29.983370 49.242458 -0.314645 -16.397449 -0.048446 6.196580 -2.388810 -16.292101 -5.882102 9.861279 0.702590 -10.936861 -0.360574 7.156197 0.000000 8.774815 -0.000000 -15.378780 17.824028 6.390389 -1.844031 2.498503 -2.507276 -10.163590 4.678941 4.621104 -20.975996 -0.000001 0.000001 -21.226254 2.451698 -3.593995 0.000000 -0.000006 -0.000000 -1.362681 2.240797 -0.746323 -21.334892 0.584910 3.008319 -13.821196 -0.000001 0.000001 -23.887129 -0.249075 -0.839485 -60.415169 2.447312 -0.586913 -0.294025 1.679686 0.833255 -14.218195 0.093215 1.300579 -34.212002 -0.287561 0.967166 -20.033176 0.964536 1.212838 0.000000 -0.000000 0.000000 -3.440387 0.788233 0.501655 -15.928172 -3.167306 2.999703 -6.338817 -0.000000 0.000001 -18.123419 3.648181 -4.905662 -0.000004 0.000000 -0.000002 14.088674 3.202880 21.985172 62.015850 21.723269 35.423462 0.606194 16.912760 0.159486 -9.181952 -0.663057 -30.959509 2.243540 -5.255033 -3.180156 14.282877 -0.826594 6.952496 -0.000000 -12.690593 -0.000001 15.897035 -17.541716 2.749879 1.665665 -1.955920 -2.878297 4.727794 -4.170584 4.993919 11.020511 0.000001 -0.000000 12.109032 -3.735715 -2.866778 0.000000 -0.000000 0.000000 1.291985 -1.928548 -1.498088 14.800115 0.567467 3.865604 14.242553 -1.341738 -6.660648 19.631935 0.143921 -0.648243 49.226387 -0.597020 -6.014512 0.353029 -1.511150 -0.031940 20.222769 3.684305 2.316629 18.787249 0.000001 -0.000001 10.751608 -0.479870 1.397903 0.000000 -0.000000 0.000000 3.273804 0.305947 -0.580110 21.486790 11.830364 2.266131 8.162915 0.000000 -0.000000 18.399052 -3.798986 -4.940567 0.000003 0.000000 -0.000001 13.185412 -11.359962 -3.167380 0.053472 -0.436260 2.131415 -15.835553 4.048422 0.387603 1.626266 -2.080842 0.044834 0.000000 -0.000000 0.000002 -7.924288 4.076497 4.968390 -0.028788 0.498403 2.064731 9.164163 -9.821717 -6.572310 -1.416596 1.175084 0.812934 0.000000 -0.000000 -0.000001
0.000000 0.000000 0.000000 0.000000 -0.000000 0.000000 1.430803 -0.645323 3.136440 -0.891305 85.739869 -0.655896 -1.091815 -0.998769 -6.250460 -1.044044 -2.758581 -8.314427 -1.217268 -5.722020 17.965534 6.061576 0.395052 4.031887 -2.874477 -6.461131 -3.597799 0.174525 -9.104245 -8.771195 0.000077 -0.000022 0.000006 0.000316 0.036437 -0.016662 0.738954 -3.701259 -10.618051 -0.734654 3.785349 -10.645412 -14.021877 -8.356841 25.038889 -52.984734 -29.884865 49.486248 -0.309014 -16.404118 -0.050589 6.149408 -2.361995 -16.221746 -5.882102 9.861279 0.702590 -10.936861 -0.360574 7.156197 0.000000 8.774815 -0.000000 -15.366521 17.822737 6.407274 -1.844031 2.498503 -2.507276 -10.163590 4.678941 4.621104 -20.975996 -0.000001 0.000001 -21.226254 2.451698 -3.593995 0.000000 -0.000006 -0.000000 -1.362681 2.240797 -0.746323 -21.334892 0.584910 3.008319 -13.821196 -0.000001 0.000001 -23.887129 -0.249075 -0.839485 -60.420689 2.459947 -0.605776 -0.294025 1.679686 0.833255 -14.218195 0.093215 1.300579 -34.212002 -0.287561 0.967166 -20.033176 0.964536 1.212838 0.000000 -0.000000 0.000000 -3.440387 0.788233 0.501655 -15.928172 -3.167306 2.999703 -6.338817 -0.000000 0.000001 -18.123419 3.648181 -4.905662 -0.000004 0.000000 -0.000002 14.027452 3.258852 21.992025 62.064548 21.756493 35.552887 0.583755 16.883081 0.151671 -9.169666 -0.694887 -31.123209 2.243540 -5.255033 -3.180156 14.282877 -0.826594 6.952496 -0.000000 -12.690593 -0.000001 15.880231 -17.540480 2.756733 1.665665 -1.955920 -2.878297 4.727794 -4.170584 4.993919 11.020511 0.000001 -0.000000 12.109032 -3.735715 -2.866778 0.000000 -0.000000 0.000000 1.291985 -1.928548 -1.498088 14.800115 0.567467 3.865604 14.242553 -1.341738 -6.660648 19.631935 0.143921 -0.648243 49.211285 -0.590708 -6.009175 0.353029 -1.511150 -0.031940 20.222769 3.684305 2.316629 18.787249 0.000001 -0.000001 10.751608 -0.479870 1.397903 0.000000 -0.000000 0.000000 3.273804 0.305947 -0.580110 21.486790 11.830364 2.266131 8.162915 0.000000 -0.000000 18.399052 -3.798986 -4.940567 0.000003 0.000000 -0.000001 13.189628 -11.358432 -3.131661 0.056207 -0.426354 2.128654 -15.819063 4.100176 0.373952 1.624890 -2.077285 0.074532 0.000000 -0.000000 0.000002 -7.920890 4.097595 4.963174 -0.027374 0.490835 2.040391 9.137283 -9.803784 -6.524569 -1.417671 1.172180 0.819398 0.000000 -0.000000 -0.000001
0.000000 0.000000 0.000000 0.000000 -0.000000 0.000000 1.430803 -0.644575 3.136440 -0.994895 85.739759 -0.770970 -1.087344 -1.011473 -6.235917 -1.037672 -2.747072 -8.309938 -1.215864 -5.731140 17.953493 6.064718 0.379374 3.986016 -2.862110 -6.415387 -3.599570 0.188402 -9.087849 -8.703793 0.000077 -0.000022 0.000006 -0.000230 0.038462 -0.018385 0.738219 -3.699884 -10.621783 -0.735133 3.788284 -10.650593 -13.968831 -8.346857 24.977972 -53.047882 -29.813673 49.697792 -0.310558 -16.403255 -0.049959 6.135767 -2.343130 -16.124609 -5.882102 9.861279 0.702590 -10.936861 -0.360574 7.156197 0.000000 8.774815 -0.000000 -15.354568 17.826088 6.420844 -1.844031 2.498503 -2.507276 -10.163590 4.678941 4.621104 -20.975996 -0.000001 0.000001 -21.226254 2.451698 -3.593995 0.000000 -0.000006 -0.000000 -1.362681 2.240797 -0.746323 -21.334892 0.584910 3.008319 -13.821196 -0.000001 0.000001 -23.887129 -0.249075 -0.839485 -60.417435 2.476952 -0.627548 -0.294025 1.679686 0.833255 -14.218195 0.093215 1.300579 -34.212002 -0.287561 0.967166 -20.033176 0.964536 1.212838 0.000000 -0.000000 0.000000 -3.440387 0.788233 0.501655 -15.928172 -3.167306 2.999703 -6.338817 -0.000000 0.000001 -18.123419 3.648181 -4.905662 -0.000004 0.000000 -0.000002 13.971299 3.317581 22.002369 62.101120 21.801357 35.651077 0.576633 16.856180 0.146338 -9.165471 -0.723772 -31.206120 2.243540 -5.255033 -3.180156 14.282877 -0.826594 6.952496 -0.000000 -12.690593 -0.000001 15.869284 -17.540680 2.761940 1.665665 -1.955920 -2.878297 4.727794 -4.170584 4.993919 11.020511 0.000001 -0.000000 12.109032 -3.735715 -2.866778 0.000000 -0.000000 0.000000 1.291985 -1.928548 -1.498088 14.800115 0.567467 3.865604 14.242553 -1.341738 -6.660648 19.631935 0.143921 -0.648243 49.206089 -0.587012 -5.993823 0.353029 -1.511150 -0.031940 20.222769 3.684305 2.316629 18.787249 0.000001 -0.000001 10.751608 -0.479870 1.397903 0.000000 -0.000000 0.000000 3.273804 0.305947 -0.580110 21.486790 11.830364 2.266131 8.162915 0.000000 -0.000000 18.399052 -3.798986 -4.940567 0.000003 0.000000 -0.000001 13.191319 -11.326903 -3.087163 0.057311 -0.419859 2.102655 -15.789692 4.143075 0.373916 1.624285 -2.074228 0.104818 0.000000 -0.000000 0.000002 -7.914348 4.136850 4.959388 -0.022043 0.483331 2.024429 9.118647 -9.812765 -6.507378 -1.417826 1.173342 0.830003 0.000000 -0.000000 -0.000001
0.000000 0.000000 0.000000 0.000000 -0.000000 0.000000 1.430803 -0.648154 3.136440 -1.092507 85.739639 -0.879367 -1.079589 -1.020585 -6.215658 -1.029587 -2.744522 -8.302094 -1.214838 -5.719551 17.931484 6.082508 0.362783 3.947039 -2.858701 -6.384451 -3.605468 0.191302 -9.087158 -8.607814 0.000077 -0.000022 0.000006 -0.001183 0.035958 -0.019319 0.737814 -3.703089 -10.622223 -0.736678 3.786580 -10.652814 -13.924241 -8.340997 24.920729 -53.107925 -29.748554 49.819588 -0.315086 -16.408667 -0.044900 6.149869 -2.336739 -16.093737 -5.882102 9.861279 0.702590 -10.936861 -0.360574 7.156197 0.000000 8.774815 -0.000000 -15.336423 17.830612 6.430946 -1.844031 2.498503 -2.507276 -10.163590 4.678941 4.621104 -20.975996 -0.000001 0.000001 -21.226254 2.451698 -3.593995 0.000000 -0.000006 -0.000000 -1.362681 2.240797 -0.746323 -21.334892 0.584910 3.008319 -13.821196 -0.000001 0.000001 -23.887129 -0.249075 -0.839485 -60.399666 2.491616 -0.633523 -0.294025 1.679686 0.833255 -14.218195 0.093215 1.300579 -34.212002 -0.287561 0.967166 -20.033176 0.964536 1.212838 0.000000 -0.000000 0.000000 -3.440387 0.788233 0.501655 -15.928172 -3.167306 2.999703 -6.338817 -0.000000 0.000001 -18.123419 3.648181 -4.905662 -0.000004 0.000000 -0.000002 13.924535 3.364465 22.013264 62.122593 21.838097 35.715389 0.584194 16.864058 0.144960 -9.155176 -0.750110 -31.255533 2.243540 -5.255033 -3.180156 14.282877 -0.826594 6.952496 -0.000000 -12.690593 -0.000001 15.871964 -17.529533 2.761839 1.665665 -1.955920 -2.878297 4.727794 -4.170584 4.993919 11.020511 0.000001 -0.000000 12.109032 -3.735715 -2.866778 0.000000 -0.000000 0.000000 1.291985 -1.928548 -1.498088 14.800115 0.567467 3.865604 14.242553 -1.341738 -6.660648 19.631935 0.143921 -0.648243 49.183697 -0.578800 -5.978614 0.353029 -1.511150 -0.031940 20.222769 3.684305 2.316629 18.787249 0.000001 -0.000001 10.751608 -0.479870 1.397903 0.000000 -0.000000 0.000000 3.273804 0.305947 -0.580110 21.486790 11.830364 2.266131 8.162915 0.000000 -0.000000 18.399052 -3.798986 -4.940567 0.000003 0.000000 -0.000001 13.201160 -11.281377 -3.067709 0.055414 -0.406562 2.110641 -15.759931 4.160571 0.362468 1.623933 -2.066860 0.122091 0.000000 -0.000000 0.000002 -7.904875 4.185671 4.945765 -0.016501 0.473399 2.025871 9.116296 -9.805241 -6.521691 -1.416422 1.179936 0.826958 0.000000 -0.000000 -0.000001
0.000000 0.000000 0.000000 0.000000 -0.000000 0.000000 1.430803 -0.654433 3.136440 -1.140018 85.739590 -0.922760 -1.073161 -1.013819 -6.200166 -1.024503 -2.756439 -8.299547 -1.222645 -5.701155 17.913509 6.130789 0.339958 3.914479 -2.879887 -6.383614 -3.602467 0.175749 -9.100551 -8.497231 0.000077 -0.000022 0.000006 -0.001098 0.035783 -0.020410 0.739281 -3.702723 -10.616805 -0.737932 3.785732 -10.649264 -13.896579 -8.339549 24.916885 -53.122471 -29.725246 49.810295 -0.355328 -16.431812 -0.030039 6.192864 -2.349714 -16.103495 -5.882102 9.861279 0.702590 -10.936861 -0.360574 7.156197 0.000000 8.774815 -0.000000 -15.329625 17.830053 6.412370 -1.844031 2.498503 -2.507276 -10.163590 4.678941 4.621104 -20.975996 -0.000001 0.000001 -21.226254 2.451698 -3.593995 0.000000 -0.000006 -0.000000 -1.362681 2.240797 -0.746323 -21.334892 0.584910 3.008319 -13.821196 -0.000001 0.000001 -23.887129 -0.249075 -0.839485 -60.352173 2.493527 -0.636163 -0.294025 1.679686 0.833255 -14.218195 0.093215 1.300579 -34.212002 -0.287561 0.967166 -20.033176 0.964536 1.212838 0.000000 -0.000000 0.000000 -3.440387 0.788233 0.501655 -15.928172 -3.167306 2.999703 -6.338817 -0.000000 0.000001 -18.123419 3.648181 -4.905662 -0.000004 0.000000 -0.000002 13.898865 3.380108 22.027699 62.118938 21.878687 35.816879 0.587097 16.913460 0.142970 -9.148051 -0.778535 -31.387285 2.243540 -5.255033 -3.180156 14.282877 -0.826594 6.952496 -0.000000 -12.690593 -0.000001 15.886870 -17.515184 2.755672 1.665665 -1.955920 -2.878297 4.727794 -4.170584 4.993919 11.020511 0.000001 -0.000000 12.109032 -3.735715 -2.866778 0.000000 -0.000000 0.000000 1.291985 -1.928548 -1.498088 14.800115 0.567467 3.865604 14.242553 -1.341738 -6.660648 19.631935 0.143921 -0.648243 49.148079 -0.579637 -5.982984 0.353029 -1.511150 -0.031940 20.222769 3.684305 2.316629 18.787249 0.000001 -0.000001 10.751608 -0.479870 1.397903 0.000000 -0.000000 0.000000 3.273804 0.305947 -0.580110 21.486790 11.830364 2.266131 8.162915 0.000000 -0.000000 18.399052 -3.798986 -4.940567 0.000003 0.000000 -0.000001 13.214695 -11.268236 -3.090910 0.053112 -0.389096 2.155739 -15.749445 4.180910 0.330172 1.623402 -2.054882 0.121404 0.000000 -0.000000 0.000002 -7.898440 4.240081 4.913559 -0.013139 0.469215 2.037375 9.111677 -9.805922 -6.557445 -1.414125 1.190416 0.800287 0.000000 -0.000000 -0.000001
0.000000 0.000000 0.000000 0.000000 -0.000000 0.000000 1.430803 -0.658972 3.136440 -1.260960 85.739476 -1.018518 -1.069201 -1.012227 -6.198511 -1.018323 -2.770971 -8.299640 -1.232433 -5.690382 17.895025 6.201268 0.299118 3.904467 -2.909413 -6.412860 -3.591256 0.147165 -9.091379 -8.400613 0.000077 -0.000022 0.000006 -0.001382 0.029156 -0.020569 0.739607 -3.707119 -10.602602 -0.738644 3.776618 -10.634902 -13.860832 -8.348844 24.939440 -53.153263 -29.733627 49.722984 -0.405930 -16.439039 -0.015499 6.255750 -2.382841 -16.097446 -5.882102 9.861279 0.702590 -10.936861 -0.360574 7.156197 0.000000 8.774815 -0.000000 -15.341966 17.814466 6.371831 -1.844031 2.498503 -2.507276 -10.163590 4.678941 4.621104 -20.975996 -0.000001 0.000001 -21.226254 2.451698 -3.593995 0.000000 -0.000006 -0.000000 -1.362681 2.240797 -0.746323 -21.334892 0.584910 3.008319 -13.821196 -0.000001 0.000001 -23.887129 -0.249075 -0.839485 -60.283443 2.466961 -0.638683 -0.294025 1.679686 0.833255 -14.218195 0.093215 1.300579 -34.212002 -0.287561 0.967166 -20.033176 0.964536 1.212838 0.000000 -0.000000 0.000000 -3.440387 0.788233 0.501655 -15.928172 -3.167306 2.999703 -6.338817 -0.000000 0.000001 -18.123419 3.648181 -4.905662 -0.000004 0.000000 -0.000002 13.878231 3.377366 22.021948 62.125229 21.911898 35.986229 0.579280 16.946522 0.141079 -9.193545 -0.794714 -31.543457 2.243540 -5.255033 -3.180156 14.282877 -0.826594 6.952496 -0.000000 -12.690593 -0.000001 15.904014 -17.500336 2.748041 1.665665 -1.955920 -2.878297 4.727794 -4.170584 4.993919 11.020511 0.000001 -0.000000 12.109032 -3.735715 -2.866778 0.000000 -0.000000 0.000000 1.291985 -1.928548 -1.498088 14.800115 0.567467 3.865604 14.242553 -1.341738 -6.660648 19.631935 0.143921 -0.648243 49.125317 -0.598097 -5.990208 0.353029 -1.511150 -0.031940 20.222769 3.684305 2.316629 18.787249 0.000001 -0.000001 10.751608 -0.479870 1.397903 0.000000 -0.000000 0.000000 3.273804 0.305947 -0.580110 21.486790 11.830364 2.266131 8.162915 0.000000 -0.000000 18.399052 -3.798986 -4.940567 0.000003 0.000000 -0.000001 13.243290 -11.300671 -3.151604 0.051078 -0.385473 2.200677 -15.779436 4.210117 0.299847 1.623073 -2.041230 0.100785 0.000000 -0.000000 0.000002 -7.881454 4.276581 4.865637 -0.009354 0.469261 2.055909 9.085586 -9.830864 -6.591166 -1.411784 1.199500 0.768157 0.000000 -0.000000 -0.000001
0.000000 0.000000 0.000000 0.000000 -0.000000 0.000000 1.430803 -0.661131 3.136440 -1.435928 85.739271 -1.168139 -1.066364 -1.022816 -6.199872 -1.011065 -2.784005 -8.294745 -1.246993 -5.692986 17.867575 6.270815 0.264728 3.926400 -2.945589 -6.491247 -3.582407 0.113470 -9.088611 -8.344436 0.000077 -0.000022 0.000006 -0.001805 0.016913 -0.019834 0.738586 -3.717937 -10.589372 -0.738306 3.762565 -10.621071 -13.808743 -8.386557 24.971260 -53.210304 -29.752632 49.630573 -0.446562 -16.422016 -0.007022 6.318618 -2.430544 -16.004454 -5.882102 9.861279 0.702590 -10.936861 -0.360574 7.156197 0.000000 8.774815 -0.000000 -15.372617 17.792509 6.337814 -1.844031 2.498503 -2.507276 -10.163590 4.678941 4.621104 -20.975996 -0.000001 0.000001 -21.226254 2.451698 -3.593995 0.000000 -0.000006 -0.000000 -1.362681 2.240797 -0.746323 -21.334892 0.584910 3.008319 -13.821196 -0.000001 0.000001 -23.887129 -0.249075 -0.839485 -60.249523 2.425019 -0.630102 -0.294025 1.679686 0.833255 -14.218195 0.093215 1.300579 -34.212002 -0.287561 0.967166 -20.033176 0.964536 1.212838 0.000000 -0.000000 0.000000 -3.440387 0.788233 0.501655 -15.928172 -3.167306 2.999703 -6.338817 -0.000000 0.000001 -18.123419 3.648181 -4.905662 -0.000004 0.000000 -0.000002 13.851267 3.372840 22.016348 62.165779 21.936710 36.135632 0.575867 16.953405 0.145107 -9.274308 -0.812687 -31.606096 2.243540 -5.255033 -3.180156 14.282877 -0.826594 6.952496 -0.000000 -12.690593 -0.000001 15.914222 -17.497551 2.744177 1.665665 -1.955920 -2.878297 4.727794 -4.170584 4.993919 11.020511 0.000001 -0.000000 12.109032 -3.735715 -2.866778 0.000000 -0.000000 0.000000 1.291985 -1.928548 -1.498088 14.800115 0.567467 3.865604 14.242553 -1.341738 -6.660648 19.631935 0.143921 -0.648243 49.115368 -0.623743 -6.000677 0.353029 -1.511150 -0.031940 20.222769 3.684305 2.316629 18.787249 0.000001 -0.000001 10.751608 -0.479870 1.397903 0.000000 -0.000000 0.000000 3.273804 0.305947 -0.580110 21.486790 11.830364 2.266131 8.162915 0.000000 -0.000000 18.399052 -3.798986 -4.940567 0.000003 0.000000 -0.000001 13.280743 -11.346238 -3.227050 0.046430 -0.393666 2.231334 -15.825241 4.212277 0.294581 1.623729 -2.038038 0.078062 0.000000 -0.000000 0.000002 -7.852869 4.286082 4.833232 -0.005190 0.468534 2.072689 9.054683 -9.878628 -6.616659 -1.410415 1.202629 0.760639 0.000000 -0.000000 -0.000001
0.000000 0.000000 0.000000 0.000000 0.000000 0.000000 1.430803 -0.660156 3.136440 -1.603174 85.739044 -1.313666 -1.058944 -1.030932 -6.208169 -1.015201 -2.800059 -8.282638 -1.264527 -5.706091 17.843658 6.345037 0.241458 3.940974 -2.994704 -6.569084 -3.575048 0.033420 -9.188428 -8.191820 0.000077 -0.000022 0.000006 -0.000573 0.010323 -0.015809 0.737392 -3.723915 -10.574767 -0.734562 3.755180 -10.606172 -13.765514 -8.448956 25.037071 -53.190792 -29.799388 49.669579 -0.456999 -16.526511 -0.012050 6.332887 -2.417522 -15.800810 -5.882102 9.861279 0.702590 -10.936861 -0.360574 7.156197 0.000000 8.774815 0.000000 -15.369884 17.785379 6.337293 -1.844031 2.498503 -2.507276 -10.163590 4.678941 4.621104 -20.975996 -0.000001 0.000001 -21.226254 2.451698 -3.593995 0.000000 -0.000006 0.000000 -1.362681 2.240797 -0.746323 -21.334892 0.584910 3.008319 -13.821196 -0.000001 0.000001 -23.887129 -0.249075 -0.839485 -60.243386 2.401473 -0.613743 -0.294025 1.679686 0.833255 -14.218195 0.093215 1.300579 -34.212002 -0.287561 0.967166 -20.033176 0.964536 1.212838 0.000000 0.000000 0.000000 -3.440387 0.788233 0.501655 -15.928172 -3.167306 2.999703 -6.338817 0.000000 0.000001 -18.123419 3.648181 -4.905662 -0.000004 0.000000 -0.000002 13.792012 3.381740 21.993449 62.263897 21.910146 36.321776 0.558865 16.991085 0.148217 -9.365878 -0.841794 -31.650511 2.243540 -5.255033 -3.180156 14.282877 -0.826594 6.952496 0.000000 -12.690593 -0.000001 15.922465 -17.500525 2.725049 1.665665 -1.955920 -2.878297 4.727794 -4.170584 4.993919 11.020511 0.000001 -0.000000 12.109032 -3.735715 -2.866778 0.000000 0.000000 0.000000 1.291985 -1.928548 -1.498088 14.800115 0.567467 3.865604 14.242553 -1.341738 -6.660648 19.631935 0.143921 -0.648243 49.102013 -0.629334 -6.014128 0.353029 -1.511150 -0.031940 20.222769 3.684305 2.316629 18.787249 0.000001 -0.000001 10.751608 -0.479870 1.397903 0.000000 0.000000 0.000000 3.273804 0.305947 -0.580110 21.486790 11.830364 2.266131 8.162915 0.000000 0.000000 18.399052 -3.798986 -4.940567 0.000003 0.000000 -0.000001 13.331098 -11.444162 -3.321393 0.045230 -0.405082 2.238352 -15.849018 4.216308 0.343618 1.624437 -2.044935 0.046558 0.000000 0.000000 0.000002 -7.795545 4.325176 4.792555 -0.005755 0.473564 2.154439 9.029986 -10.040215 -6.676658 -1.412329 1.201747 0.769873 0.000000 0.000000 -0.000001
0.000000 0.000000 0.000000 0.000000 0.000000 0.000000 1.430803 -0.655500 3.136440 -1.804686 85.738655 -1.523028 -1.041707 -1.040054 -6.207432 -1.018755 -2.794931 -8.278731 -1.273833 -5.705946 17.845352 6.376149 0.247059 3.939570 -3.026737 -6.628593 -3.571982 -0.023528 -9.302516 -8.026670 0.000077 -0.000022 0.000006 0.000525 0.012911 -0.015335 0.736726 -3.722396 -10.579716 -0.731842 3.758931 -10.612059 -13.750967 -8.476767 25.101853 -53.119449 -29.843747 49.774473 -0.461910 -16.682493 -0.023268 6.309806 -2.366778 -15.711252 -5.882102 9.861279 0.702590 -10.936861 -0.360574 7.156197 0.000000 8.774815 0.000000 -15.348532 17.784162 6.362266 -1.844031 2.498503 -2.507276 -10.163590 4.678941 4.621104 -20.975996 -0.000001 0.000001 -21.226254 2.451698 -3.593995 0.000000 -0.000006 0.000000 -1.362681 2.240797 -0.746323 -21.334892 0.584910 3.008319 -13.821196 -0.000001 0.000001 -23.887129 -0.249075 -0.839485 -60.268020 2.405944 -0.589641 -0.294025 1.679686 0.833255 -14.218195 0.093215 1.300579 -34.212002 -0.287561 0.967166 -20.033176 0.964536 1.212838 0.000000 0.000000 0.000000 -3.440387 0.788233 0.501655 -15.928172 -3.167306 2.999703 -6.338817 0.000000 0.000001 -18.123419 3.648181 -4.905662 -0.000004 0.000000 -0.000002 13.749556 3.403348 21.953116 62.323121 21.867961 36.519919 0.549822 17.009788 0.149937 -9.399819 -0.875012 -31.663072 2.243540 -5.255033 -3.180156 14.282877 -0.826594 6.952496 0.000000 -12.690593 -0.000001 15.935295 -17.503244 2.708054 1.665665 -1.955920 -2.878297 4.727794 -4.170584 4.993919 11.020511 0.000001 -0.000000 12.109032 -3.735715 -2.866778 0.000000 0.000000 0.000000 1.291985 -1.928548 -1.498088 14.800115 0.567467 3.865604 14.242553 -1.341738 -6.660648 19.631935 0.143921 -0.648243 49.095342 -0.619799 -6.025975 0.353029 -1.511150 -0.031940 20.222769 3.684305 2.316629 18.787249 0.000001 -0.000001 10.751608 -0.479870 1.397903 0.000000 0.000000 0.000000 3.273804 0.305947 -0.580110 21.486790 11.830364 2.266131 8.162915 0.000000 0.000000 18.399052 -3.798986 -4.940567 0.000003 0.000000 -0.000001 13.371140 -11.526243 -3.332095 0.044395 -0.415697 2.213637 -15.853313 4.251550 0.396014 1.624858 -2.053073 0.027875 0.000000 0.000000 0.000002 -7.728308 4.423858 4.768755 -0.011210 0.478393 2.242978 9.022108 -10.185878 -6.721321 -1.415272 1.197323 0.785186 0.000000 0.000000 -0.000001
0.000000 0.000000 0.000000 0.000000 0.000000 0.000000 1.430803 -0.654543 3.136440 -1.839592 85.738502 -1.592472 -1.024824 -1.041691 -6.208285 -1.021766 -2.788343 -8.276458 -1.283038 -5.698229 17.866355 6.376061 0.247172 3.925703 -3.033299 -6.642328 -3.576476 -0.073736 -9.361018 -7.868547 0.000077 -0.000022 0.000006 0.000686 0.018350 -0.018459 0.737013 -3.718290 -10.590973 -0.731967 3.765771 -10.624556 -13.740033 -8.468604 25.121592 -53.058786 -29.845928 49.904360 -0.468827 -16.820652 -0.033293 6.283181 -2.321545 -15.624907 -5.882102 9.861279 0.702590 -10.936861 -0.360574 7.156197 0.000000 8.774815 0.000000 -15.326081 17.793580 6.395230 -1.844031 2.498503 -2.507276 -10.163590 4.678941 4.621104 -20.975996 -0.000001 0.000001 -21.226254 2.451698 -3.593995 0.000000 -0.000006 0.000000 -1.362681 2.240797 -0.746323 -21.334892 0.584910 3.008319 -13.821196 -0.000001 0.000001 -23.887129 -0.249075 -0.839485 -60.296505 2.435655 -0.573976 -0.294025 1.679686 0.833255 -14.218195 0.093215 1.300579 -34.212002 -0.287561 0.967166 -20.033176 0.964536 1.212838 0.000000 0.000000 0.000000 -3.440387 0.788233 0.501655 -15.928172 -3.167306 2.999703 -6.338817 0.000000 0.000001 -18.123419 3.648181 -4.905662 -0.000004 0.000000 -0.000002 13.723074 3.441800 21.938967 62.339032 21.878573 36.720919 0.548974 16.967257 0.146302 -9.382069 -0.890703 -31.650534 2.243540 -5.255033 -3.180156 14.282877 -0.826594 6.952496 0.000000 -12.690593 -0.000001 15.950734 -17.496125 2.699839 1.665665 -1.955920 -2.878297 4.727794 -4.170584 4.993919 11.020511 0.000001 -0.000000 12.109032 -3.735715 -2.866778 0.000000 0.000000 0.000000 1.291985 -1.928548 -1.498088 14.800115 0.567467 3.865604 14.242553 -1.341738 -6.660648 19.631935 0.143921 -0.648243 49.088590 -0.605581 -6.018041 0.353029 -1.511150 -0.031940 20.222769 3.684305 2.316629 18.787249 0.000001 -0.000001 10.751608 -0.479870 1.397903 0.000000 0.000000 0.000000 3.273804 0.305947 -0.580110 21.486790 11.830364 2.266131 8.162915 0.000000 0.000000 18.399052 -3.798986 -4.940567 0.000003 0.000000 -0.000001 13.376638 -11.586348 -3.264223 0.049195 -0.413876 2.174157 -15.836298 4.325566 0.414151 1.626284 -2.059785 0.023798 0.000000 0.000000 0.000002 -7.680410 4.561889 4.776953 -0.015489 0.482995 2.298566 9.013393 -10.297894 -6.767910 -1.417912 1.199166 0.814517 0.000000 0.000000 -0.000001
0.000000 0.000000 0.000000 0.000000 0.000000 0.000000 1.430803 -0.656372 3.136440 -1.849962 85.738387 -1.641832 -1.008915 -1.036435 -6.216982 -1.018353 -2.784168 -8.278031 -1.285503 -5.684083 17.889987 6.351598 0.257539 3.907289 -3.021819 -6.643831 -3.580030 -0.130525 -9.364528 -7.726818 0.000077 -0.000022 0.000006 0.000600 0.022080 -0.022299 0.737402 -3.714709 -10.600286 -0.732657 3.769878 -10.635070 -13.736582 -8.433815 25.120341 -53.011895 -29.809064 49.996615 -0.469663 -16.917813 -0.036138 6.247385 -2.276490 -15.613593 -5.882102 9.861279 0.702590 -10.936861 -0.360574 7.156197 0.000000 8.774815 0.000000 -15.311145 17.796237 6.426144 -1.844031 2.498503 -2.507276 -10.163590 4.678941 4.621104 -20.975996 -0.000001 0.000001 -21.226254 2.451698 -3.593995 0.000000 -0.000006 0.000000 -1.362681 2.240797 -0.746323 -21.334892 0.584910 3.008319 -13.821196 -0.000001 0.000001 -23.887129 -0.249075 -0.839485 -60.315320 2.454368 -0.563083 -0.294025 1.679686 0.833255 -14.218195 0.093215 1.300579 -34.212002 -0.287561 0.967166 -20.033176 0.964536 1.212838 0.000000 0.000000 0.000000 -3.440387 0.788233 0.501655 -15.928172 -3.167306 2.999703 -6.338817 0.000000 0.000001 -18.123419 3.648181 -4.905662 -0.000004 0.000000 -0.000002 13.702497 3.501016 21.947836 62.321648 21.926366 36.944250 0.540489 16.887149 0.138676 -9.361198 -0.884399 -31.668574 2.243540 -5.255033 -3.180156 14.282877 -0.826594 6.952496 0.000000 -12.690593 -0.000001 15.958413 -17.475966 2.688953 1.665665 -1.955920 -2.878297 4.727794 -4.170584 4.993919 11.020511 0.000001 -0.000000 12.109032 -3.735715 -2.866778 0.000000 0.000000 0.000000 1.291985 -1.928548 -1.498088 14.800115 0.567467 3.865604 14.242553 -1.341738 -6.660648 19.631935 0.143921 -0.648243 49.045272 -0.594918 -6.006605 0.353029 -1.511150 -0.031940 20.222769 3.684305 2.316629 18.787249 0.000001 -0.000001 10.751608 -0.479870 1.397903 0.000000 0.000000 0.000000 3.273804 0.305947 -0.580110 21.486790 11.830364 2.266131 8.162915 0.000000 0.000000 18.399052 -3.798986 -4.940567 0.000003 0.000000 -0.000001 13.368830 -11.603074 -3.145330 0.053390 -0.406738 2.128672 -15.815756 4.445826 0.392710 1.627733 -2.058577 0.031405 0.000000 0.000000 0.000002 -7.639807 4.747969 4.790290 -0.018101 0.484794 2.330350 8.993618 -10.352646 -6.813504 -1.419059 1.205383 0.836396 0.000000 0.000000 -0.000001
0.000000 0.000000 0.000000 0.000000 0.000000 0.000000 1.430803 -0.660158 3.136440 -1.868725 85.738268 -1.692997 -0.995967 -1.030027 -6.233309 -1.007148 -2.776247 -8.285547 -1.283161 -5.662956 17.909793 6.332613 0.267652 3.893048 -3.023008 -6.637749 -3.585722 -0.183834 -9.343909 -7.583332 0.000077 -0.000022 0.000006 0.000341 0.023020 -0.025996 0.737477 -3.714194 -10.609193 -0.733348 3.771399 -10.645503 -13.741637 -8.367956 25.132840 -52.944283 -29.773148 50.021321 -0.471359 -17.003508 -0.030861 6.200310 -2.231127 -15.700340 -5.882102 9.861279 0.702590 -10.936861 -0.360574 7.156197 0.000000 8.774815 0.000000 -15.308414 17.797287 6.438127 -1.844031 2.498503 -2.507276 -10.163590 4.678941 4.621104 -20.975996 -0.000001 0.000001 -21.226254 2.451698 -3.593995 0.000000 -0.000006 0.000000 -1.362681 2.240797 -0.746323 -21.334892 0.584910 3.008319 -13.821196 -0.000001 0.000001 -23.887129 -0.249075 -0.839485 -60.324399 2.457662 -0.574796 -0.294025 1.679686 0.833255 -14.218195 0.093215 1.300579 -34.212002 -0.287561 0.967166 -20.033176 0.964536 1.212838 0.000000 0.000000 0.000000 -3.440387 0.788233 0.501655 -15.928172 -3.167306 2.999703 -6.338817 0.000000 0.000001 -18.123419 3.648181 -4.905662 -0.000004 0.000000 -0.000002 13.676930 3.580091 21.961173 62.301644 21.982153 37.208230 0.518356 16.784303 0.135137 -9.349765 -0.876797 -31.759746 2.243540 -5.255033 -3.180156 14.282877 -0.826594 6.952496 0.000000 -12.690593 -0.000001 15.954144 -17.455379 2.685524 1.665665 -1.955920 -2.878297 4.727794 -4.170584 4.993919 11.020511 0.000001 -0.000000 12.109032 -3.735715 -2.866778 0.000000 0.000000 0.000000 1.291985 -1.928548 -1.498088 14.800115 0.567467 3.865604 14.242553 -1.341738 -6.660648 19.631935 0.143921 -0.648243 48.981806 -0.592293 -5.995909 0.353029 -1.511150 -0.031940 20.222769 3.684305 2.316629 18.787249 0.000001 -0.000001 10.751608 -0.479870 1.397903 0.000000 0.000000 0.000000 3.273804 0.305947 -0.580110 21.486790 11.830364 2.266131 8.162915 0.000000 0.000000 18.399052 -3.798986 -4.940567 0.000003 0.000000 -0.000001 13.356069 -11.599592 -2.989894 0.054585 -0.396747 2.054894 -15.776984 4.633582 0.344493 1.628114 -2.051181 0.040565 0.000000 0.000000 0.000002 -7.606617 4.945628 4.796961 -0.018909 0.486789 2.340228 8.970178 -10.340347 -6.854454 -1.418730 1.212499 0.841448 0.000000 0.000000 -0.000001
