HIERARCHY
ROOT Root
{
  OFFSET 0.000000 0.000000 0.000000
  CHANNELS 6 Xposition Yposition Zposition Zrotation Yrotation Xrotation
  JOINT Hips
  {
    OFFSET 0.000000 100.000000 0.000000
    CHANNELS 6 Xposition Yposition Zposition Zrotation Yrotation Xrotation
    JOINT Spine1
    {
      OFFSET -0.013727 5.003763 -0.053727
      CHANNELS 3 Zrotation Yrotation Xrotation
      JOINT Spine2
      {
        OFFSET -0.000000 7.125301 -0.029825
        CHANNELS 3 Zrotation Yrotation Xrotation
        JOINT Chest
        {
          OFFSET -0.000001 7.550063 -0.815971
          CHANNELS 3 Zrotation Yrotation Xrotation
          JOINT Neck1
          {
            OFFSET -0.181677 26.311295 -0.553348
            CHANNELS 3 Zrotation Yrotation Xrotation
            JOINT Neck2
            {
              OFFSET -0.000003 7.709397 2.302585
              CHANNELS 3 Zrotation Yrotation Xrotation
              JOINT Head
              {
                OFFSET -0.000005 6.128916 1.953709
                CHANNELS 3 Zrotation Yrotation Xrotation
                JOINT HeadEnd
                {
                  OFFSET 0.003598 16.065403 -1.835379
                  CHANNELS 3 Zrotation Yrotation Xrotation
                }
                JOINT Jaw
                {
                  OFFSET 0.002637 0.475592 3.094941
                  CHANNELS 3 Zrotation Yrotation Xrotation
                }
                JOINT LeftEye
                {
                  OFFSET 3.206381 5.380205 7.586883
                  CHANNELS 3 Zrotation Yrotation Xrotation
                }
                JOINT RightEye
                {
                  OFFSET -3.222440 5.361869 7.558234
                  CHANNELS 3 Zrotation Yrotation Xrotation
                }
              }
            }
          }
          JOINT LeftShoulder
          {
            OFFSET 1.621652 23.237164 5.113413
            CHANNELS 3 Zrotation Yrotation Xrotation
            JOINT LeftArm
            {
              OFFSET 14.919846 0.000002 -5.502326
              CHANNELS 3 Zrotation Yrotation Xrotation
              JOINT LeftForeArm
              {
                OFFSET 28.739307 0.000000 -0.002588
                CHANNELS 3 Zrotation Yrotation Xrotation
                JOINT LeftHand
                {
                  OFFSET 27.093981 -0.000001 0.002609
                  CHANNELS 3 Zrotation Yrotation Xrotation
                  JOINT LeftHandThumb1
                  {
                    OFFSET 2.276482 -1.392045 3.191413
                    CHANNELS 3 Zrotation Yrotation Xrotation
                    JOINT LeftHandThumb2
                    {
                      OFFSET 4.012836 -1.828127 1.641654
                      CHANNELS 3 Zrotation Yrotation Xrotation
                      JOINT LeftHandThumb3
                      {
                        OFFSET 2.798515 0.000000 -0.000003
                        CHANNELS 3 Zrotation Yrotation Xrotation
                        JOINT LeftHandThumbEnd
                        {
                          OFFSET 3.180793 -0.000004 0.000004
                          CHANNELS 3 Zrotation Yrotation Xrotation
                        }
                      }
                    }
                  }
                  JOINT LeftHandIndex1
                  {
                    OFFSET 3.247555 -0.531998 2.296169
                    CHANNELS 3 Zrotation Yrotation Xrotation
                    JOINT LeftHandIndex2
                    {
                      OFFSET 6.364578 0.012060 0.178600
                      CHANNELS 3 Zrotation Yrotation Xrotation
                      JOINT LeftHandIndex3
                      {
                        OFFSET 3.662364 0.000000 0.000000
                        CHANNELS 3 Zrotation Yrotation Xrotation
                        JOINT LeftHandIndex4
                        {
                          OFFSET 2.329242 0.000004 0.000004
                          CHANNELS 3 Zrotation Yrotation Xrotation
                          JOINT LeftHandIndexEnd
                          {
                            OFFSET 2.759615 -0.180537 -0.113024
                            CHANNELS 3 Zrotation Yrotation Xrotation
                          }
                        }
                      }
                    }
                  }
                  JOINT LeftHandMiddle1
                  {
                    OFFSET 3.163495 0.240981 1.000332
                    CHANNELS 3 Zrotation Yrotation Xrotation
                    JOINT LeftHandMiddle2
                    {
                      OFFSET 6.190780 -0.259278 -1.002548
                      CHANNELS 3 Zrotation Yrotation Xrotation
                      JOINT LeftHandMiddle3
                      {
                        OFFSET 4.356520 -0.000004 -0.000001
                        CHANNELS 3 Zrotation Yrotation Xrotation
                        JOINT LeftHandMiddle4
                        {
                          OFFSET 2.996877 -0.000008 0.000000
                          CHANNELS 3 Zrotation Yrotation Xrotation
                          JOINT LeftHandMiddleEnd
                          {
                            OFFSET 2.304287 -0.294569 -0.031741
                            CHANNELS 3 Zrotation Yrotation Xrotation
                          }
                        }
                      }
                    }
                  }
                  JOINT LeftHandRing1
                  {
                    OFFSET 2.882643 -0.053652 -0.322543
                    CHANNELS 3 Zrotation Yrotation Xrotation
                    JOINT LeftHandRing2
                    {
                      OFFSET 5.854541 -0.486202 -1.373841
                      CHANNELS 3 Zrotation Yrotation Xrotation
                      JOINT LeftHandRing3
                      {
                        OFFSET 4.350578 0.000000 0.000003
                        CHANNELS 3 Zrotation Yrotation Xrotation
                        JOINT LeftHandRing4
                        {
                          OFFSET 2.651321 0.000007 0.000002
                          CHANNELS 3 Zrotation Yrotation Xrotation
                          JOINT LeftHandRingEnd
                          {
                            OFFSET 1.936105 0.077687 -0.000071
                            CHANNELS 3 Zrotation Yrotation Xrotation
                          }
                        }
                      }
                    }
                  }
                  JOINT LeftHandPinky1
                  {
                    OFFSET 2.865500 -0.310005 -1.600378
                    CHANNELS 3 Zrotation Yrotation Xrotation
                    JOINT LeftHandPinky2
                    {
                      OFFSET 5.087849 -1.331141 -1.771230
                      CHANNELS 3 Zrotation Yrotation Xrotation
                      JOINT LeftHandPinky3
                      {
                        OFFSET 3.070974 0.000004 0.000000
                        CHANNELS 3 Zrotation Yrotation Xrotation
                        JOINT LeftHandPinky4
                        {
                          OFFSET 1.549672 0.000000 0.000001
                          CHANNELS 3 Zrotation Yrotation Xrotation
                          JOINT LeftHandPinkyEnd
                          {
                            OFFSET 1.944893 -0.157802 0.057219
                            CHANNELS 3 Zrotation Yrotation Xrotation
                          }
                        }
                      }
                    }
                  }
                }
              }
            }
          }
          JOINT RightShoulder
          {
            OFFSET -1.380118 23.180309 5.214158
            CHANNELS 3 Zrotation Yrotation Xrotation
            JOINT RightArm
            {
              OFFSET -15.037196 0.000012 -5.545604
              CHANNELS 3 Zrotation Yrotation Xrotation
              JOINT RightForeArm
              {
                OFFSET -28.736639 0.000002 -0.002597
                CHANNELS 3 Zrotation Yrotation Xrotation
                JOINT RightHand
                {
                  OFFSET -27.133619 -0.000000 0.002613
                  CHANNELS 3 Zrotation Yrotation Xrotation
                  JOINT RightHandThumb1
                  {
                    OFFSET -2.274032 -1.383988 3.163127
                    CHANNELS 3 Zrotation Yrotation Xrotation
                    JOINT RightHandThumb2
                    {
                      OFFSET -4.011429 -1.827466 1.640914
                      CHANNELS 3 Zrotation Yrotation Xrotation
                      JOINT RightHandThumb3
                      {
                        OFFSET -2.794935 -0.000004 -0.000003
                        CHANNELS 3 Zrotation Yrotation Xrotation
                        JOINT RightHandThumbEnd
                        {
                          OFFSET -3.183852 0.000004 0.000001
                          CHANNELS 3 Zrotation Yrotation Xrotation
                        }
                      }
                    }
                  }
                  JOINT RightHandIndex1
                  {
                    OFFSET -3.253266 -0.520057 2.282866
                    CHANNELS 3 Zrotation Yrotation Xrotation
                    JOINT RightHandIndex2
                    {
                      OFFSET -6.341917 0.012471 0.178266
                      CHANNELS 3 Zrotation Yrotation Xrotation
                      JOINT RightHandIndex3
                      {
                        OFFSET -3.654871 -0.000008 -0.000000
                        CHANNELS 3 Zrotation Yrotation Xrotation
                        JOINT RightHandIndex4
                        {
                          OFFSET -2.327586 0.000000 0.000001
                          CHANNELS 3 Zrotation Yrotation Xrotation
                          JOINT RightHandIndexEnd
                          {
                            OFFSET -2.761790 -0.180656 -0.113078
                            CHANNELS 3 Zrotation Yrotation Xrotation
                          }
                        }
                      }
                    }
                  }
                  JOINT RightHandMiddle1
                  {
                    OFFSET -3.168106 0.246593 1.001030
                    CHANNELS 3 Zrotation Yrotation Xrotation
                    JOINT RightHandMiddle2
                    {
                      OFFSET -6.180828 -0.258836 -1.000895
                      CHANNELS 3 Zrotation Yrotation Xrotation
                      JOINT RightHandMiddle3
                      {
                        OFFSET -4.348901 0.000000 -0.000000
                        CHANNELS 3 Zrotation Yrotation Xrotation
                        JOINT RightHandMiddle4
                        {
                          OFFSET -3.000240 -0.000004 -0.000002
                          CHANNELS 3 Zrotation Yrotation Xrotation
                          JOINT RightHandMiddleEnd
                          {
                            OFFSET -2.302520 -0.294370 -0.031706
                            CHANNELS 3 Zrotation Yrotation Xrotation
                          }
                        }
                      }
                    }
                  }
                  JOINT RightHandRing1
                  {
                    OFFSET -2.885690 -0.067952 -0.308858
                    CHANNELS 3 Zrotation Yrotation Xrotation
                    JOINT RightHandRing2
                    {
                      OFFSET -5.854198 -0.486130 -1.373731
                      CHANNELS 3 Zrotation Yrotation Xrotation
                      JOINT RightHandRing3
                      {
                        OFFSET -4.338810 -0.000004 -0.000000
                        CHANNELS 3 Zrotation Yrotation Xrotation
                        JOINT RightHandRing4
                        {
                          OFFSET -2.654903 -0.000004 0.000004
                          CHANNELS 3 Zrotation Yrotation Xrotation
                          JOINT RightHandRingEnd
                          {
                            OFFSET -1.933568 0.077527 -0.000052
                            CHANNELS 3 Zrotation Yrotation Xrotation
                          }
                        }
                      }
                    }
                  }
                  JOINT RightHandPinky1
                  {
                    OFFSET -2.866425 -0.342796 -1.584145
                    CHANNELS 3 Zrotation Yrotation Xrotation
                    JOINT RightHandPinky2
                    {
                      OFFSET -5.091371 -1.332055 -1.772385
                      CHANNELS 3 Zrotation Yrotation Xrotation
                      JOINT RightHandPinky3
                      {
                        OFFSET -3.062664 -0.000004 0.000001
                        CHANNELS 3 Zrotation Yrotation Xrotation
                        JOINT RightHandPinky4
                        {
                          OFFSET -1.546529 0.000004 -0.000002
                          CHANNELS 3 Zrotation Yrotation Xrotation
                          JOINT RightHandPinkyEnd
                          {
                            OFFSET -1.945119 -0.157718 0.057211
                            CHANNELS 3 Zrotation Yrotation Xrotation
                          }
                        }
                      }
                    }
                  }
                }
              }
            }
          }
        }
      }
    }
    JOINT LeftLeg
    {
      OFFSET 10.043214 -8.434526 2.595655
      CHANNELS 3 Zrotation Yrotation Xrotation
      JOINT LeftShin
      {
        OFFSET -0.000001 -43.221752 -0.802913
        CHANNELS 3 Zrotation Yrotation Xrotation
        JOINT LeftFoot
        {
          OFFSET 0.000001 -42.155094 -3.481523
          CHANNELS 3 Zrotation Yrotation Xrotation
          JOINT LeftToeBase
          {
            OFFSET 0.000000 -5.059472 13.231529
            CHANNELS 3 Zrotation Yrotation Xrotation
            JOINT LeftToeEnd
            {
              OFFSET -0.009607 -1.647619 6.513017
              CHANNELS 3 Zrotation Yrotation Xrotation
            }
          }
        }
      }
    }
    JOINT RightLeg
    {
      OFFSET -10.047278 -8.295260 2.620317
      CHANNELS 3 Zrotation Yrotation Xrotation
      JOINT RightShin
      {
        OFFSET 0.000001 -43.362206 -0.805556
        CHANNELS 3 Zrotation Yrotation Xrotation
        JOINT RightFoot
        {
          OFFSET 0.000002 -42.117393 -3.478398
          CHANNELS 3 Zrotation Yrotation Xrotation
          JOINT RightToeBase
          {
            OFFSET -0.000000 -5.079609 13.284196
            CHANNELS 3 Zrotation Yrotation Xrotation
            JOINT RightToeEnd
            {
              OFFSET 0.009532 -1.634378 6.460591
              CHANNELS 3 Zrotation Yrotation Xrotation
            }
          }
        }
      }
    }
  }
}
MOTION
Frames: 20
Frame Time: 0.03333333
0.000000 0.000000 0.000000 0.000000 -0.000000 0.000000 -4.713715 -6.704443 111.577546 0.526693 -0.266102 11.350693 1.168142 1.065006 3.735030 -0.164025 2.157074 -3.150726 0.771356 -0.089634 10.486388 -6.196660 2.963774 -10.341573 -1.059862 -1.305855 -3.498143 0.254188 -3.559986 -23.503588 0.000077 -0.000022 0.000006 -0.028312 -0.020200 0.058591 0.525549 -3.782884 -10.597461 -0.595093 3.737491 -10.614015 -6.654712 -2.213656 15.689034 -64.759323 10.049868 15.525927 -179.463379 -68.802269 178.409256 1.726571 1.498712 -9.115047 -5.882102 9.861279 0.702590 -10.936861 -0.360574 7.156197 0.000000 8.774815 -0.000000 -15.949071 18.531332 6.157289 -1.844031 2.498503 -2.507276 -10.163590 4.678941 4.621104 -20.975996 -0.000001 0.000001 -21.226254 2.451698 -3.593995 0.000000 -0.000006 -0.000000 -1.362681 2.240797 -0.746323 -21.334892 0.584910 3.008319 -13.821196 -0.000001 0.000001 -23.887129 -0.249075 -0.839485 -60.970230 2.519444 -0.940989 -0.294025 1.679686 0.833255 -14.218195 0.093215 1.300579 -34.212002 -0.287561 0.967166 -20.033176 0.964536 1.212838 0.000000 -0.000000 0.000000 -3.440387 0.788233 0.501655 -15.928172 -3.167306 2.999703 -6.338817 -0.000000 0.000001 -18.123419 3.648181 -4.905662 -0.000004 0.000000 -0.000002 9.058307 14.243761 16.120968 59.296726 7.726168 -0.858901 179.379684 68.472427 178.354095 -4.315259 5.926649 -0.242096 2.243540 -5.255033 -3.180156 14.282877 -0.826594 6.952496 -0.000000 -12.690593 -0.000001 15.909954 -17.675943 3.033507 1.665665 -1.955920 -2.878297 4.727794 -4.170584 4.993919 11.020511 0.000001 -0.000000 12.109032 -3.735715 -2.866778 0.000000 -0.000000 0.000000 1.291985 -1.928548 -1.498088 14.800115 0.567467 3.865604 14.242553 -1.341738 -6.660648 19.631935 0.143921 -0.648243 50.314430 -0.765799 -6.090033 0.353029 -1.511150 -0.031940 20.222769 3.684305 2.316629 18.787249 0.000001 -0.000001 10.751608 -0.479870 1.397903 0.000000 -0.000000 0.000000 3.273804 0.305947 -0.580110 21.486790 11.830364 2.266131 8.162915 0.000000 -0.000000 18.399052 -3.798986 -4.940567 0.000003 0.000000 -0.000001 -0.422895 1.420177 -45.037083 -0.038977 0.324495 77.894218 -3.170618 3.704820 -2.236040 1.864808 -1.939340 -6.614416 0.000000 -0.000000 0.000002 4.254445 -4.624374 0.802539 -0.306385 -0.181980 25.735167 -2.262063 -1.745699 -20.101217 -1.434911 0.829622 -14.466447 0.000000 -0.000000 -0.000001
0.000000 0.000000 0.000000 0.000000 -0.000000 0.000000 -4.713715 -4.426252 111.577546 3.457235 -0.926510 12.475570 -0.131627 0.973954 2.823865 -0.700704 3.006243 -3.537461 -0.831489 0.536916 9.775588 -5.460311 2.854548 -9.584536 -1.219404 -2.028071 -3.555043 1.186837 -4.612442 -22.267458 0.000077 -0.000022 0.000006 -0.002922 0.052628 0.055300 0.570384 -3.698904 -10.581861 -0.589705 3.798537 -10.626143 -5.234833 -2.445010 15.934521 -64.403946 14.596833 15.428180 179.626083 -66.295525 179.729630 2.597073 1.856563 -10.266703 -5.882102 9.861279 0.702590 -10.936861 -0.360574 7.156197 0.000000 8.774815 -0.000000 -15.657831 18.467066 6.219727 -1.844031 2.498503 -2.507276 -10.163590 4.678941 4.621104 -20.975996 -0.000001 0.000001 -21.226254 2.451698 -3.593995 0.000000 -0.000006 -0.000000 -1.362681 2.240797 -0.746323 -21.334892 0.584910 3.008319 -13.821196 -0.000001 0.000001 -23.887129 -0.249075 -0.839485 -60.645176 2.425529 -0.886278 -0.294025 1.679686 0.833255 -14.218195 0.093215 1.300579 -34.212002 -0.287561 0.967166 -20.033176 0.964536 1.212838 0.000000 -0.000000 0.000000 -3.440387 0.788233 0.501655 -15.928172 -3.167306 2.999703 -6.338817 -0.000000 0.000001 -18.123419 3.648181 -4.905662 -0.000004 0.000000 -0.000002 7.009149 14.247057 15.169492 60.866009 9.572808 0.075089 179.017426 63.503944 178.378082 -3.259686 4.554879 -3.056627 2.243540 -5.255033 -3.180156 14.282877 -0.826594 6.952496 -0.000000 -12.690593 -0.000001 15.614385 -17.754284 3.138306 1.665665 -1.955920 -2.878297 4.727794 -4.170584 4.993919 11.020511 0.000001 -0.000000 12.109032 -3.735715 -2.866778 0.000000 -0.000000 0.000000 1.291985 -1.928548 -1.498088 14.800115 0.567467 3.865604 14.242553 -1.341738 -6.660648 19.631935 0.143921 -0.648243 50.569202 -0.814329 -6.162681 0.353029 -1.511150 -0.031940 20.222769 3.684305 2.316629 18.787249 0.000001 -0.000001 10.751608 -0.479870 1.397903 0.000000 -0.000000 0.000000 3.273804 0.305947 -0.580110 21.486790 11.830364 2.266131 8.162915 0.000000 -0.000000 18.399052 -3.798986 -4.940567 0.000003 0.000000 -0.000001 -5.718618 1.405102 -47.723972 0.050898 0.352397 65.968170 -4.272363 2.854504 -4.066755 1.843013 -1.983999 -6.426409 0.000000 -0.000000 0.000002 1.293110 -5.680014 7.687696 -0.178270 -0.373837 16.040087 -2.664153 -1.155650 -5.166184 -1.434008 0.688335 -25.205709 0.000000 -0.000000 -0.000001
0.000000 0.000000 0.000000 0.000000 -0.000000 0.000000 -4.713715 -2.604841 111.577546 4.726931 -1.300542 13.524493 -0.756111 0.889295 1.906799 -0.941292 3.304080 -3.892402 -1.794494 1.135001 9.248246 -4.715373 2.661984 -9.180106 -1.374011 -2.513659 -3.592643 1.793211 -5.111292 -21.289324 0.000077 -0.000022 0.000006 0.007201 0.081149 0.045563 0.599648 -3.659772 -10.571251 -0.599020 3.815395 -10.628452 -3.655756 -2.988903 16.287167 -65.289505 17.607122 15.002630 179.231369 -65.067566 -179.351379 3.118214 1.852238 -11.840309 -5.882102 9.861279 0.702590 -10.936861 -0.360574 7.156197 0.000000 8.774815 -0.000000 -15.318407 18.386663 6.311086 -1.844031 2.498503 -2.507276 -10.163590 4.678941 4.621104 -20.975996 -0.000001 0.000001 -21.226254 2.451698 -3.593995 0.000000 -0.000006 -0.000000 -1.362681 2.240797 -0.746323 -21.334892 0.584910 3.008319 -13.821196 -0.000001 0.000001 -23.887129 -0.249075 -0.839485 -60.261700 2.325838 -0.926060 -0.294025 1.679686 0.833255 -14.218195 0.093215 1.300579 -34.212002 -0.287561 0.967166 -20.033176 0.964536 1.212838 0.000000 -0.000000 0.000000 -3.440387 0.788233 0.501655 -15.928172 -3.167306 2.999703 -6.338817 -0.000000 0.000001 -18.123419 3.648181 -4.905662 -0.000004 0.000000 -0.000002 5.524083 14.054705 14.396673 62.025959 10.670105 1.727433 178.784363 59.138660 178.720398 -1.864060 3.753801 -5.869230 2.243540 -5.255033 -3.180156 14.282877 -0.826594 6.952496 -0.000000 -12.690593 -0.000001 15.631607 -17.810459 3.098476 1.665665 -1.955920 -2.878297 4.727794 -4.170584 4.993919 11.020511 0.000001 -0.000000 12.109032 -3.735715 -2.866778 0.000000 -0.000000 0.000000 1.291985 -1.928548 -1.498088 14.800115 0.567467 3.865604 14.242553 -1.341738 -6.660648 19.631935 0.143921 -0.648243 50.750580 -0.765557 -6.169448 0.353029 -1.511150 -0.031940 20.222769 3.684305 2.316629 18.787249 0.000001 -0.000001 10.751608 -0.479870 1.397903 0.000000 -0.000000 0.000000 3.273804 0.305947 -0.580110 21.486790 11.830364 2.266131 8.162915 0.000000 -0.000000 18.399052 -3.798986 -4.940567 0.000003 0.000000 -0.000001 -9.060005 1.990831 -47.846848 0.149221 0.328160 52.660088 -6.733512 1.519297 -5.481702 1.804243 -2.074852 -6.181549 0.000000 -0.000000 0.000002 0.286308 -5.963920 12.071211 0.060511 -0.619690 9.771773 -2.523663 -0.964966 12.128944 -1.404248 0.595405 -31.775093 0.000000 -0.000000 -0.000001
0.000000 0.000000 0.000000 0.000000 -0.000000 0.000000 -4.713715 -1.486120 111.577546 3.984712 -1.149005 13.906726 -0.460511 0.944566 1.397748 -0.876833 3.097870 -4.091684 -1.909814 1.690631 9.126379 -4.102390 2.560722 -9.171441 -1.545026 -2.620072 -3.566816 2.186128 -5.145942 -20.156471 0.000077 -0.000022 0.000006 0.009594 0.089030 0.037698 0.631700 -3.646262 -10.563869 -0.626266 3.816211 -10.616848 -3.024076 -3.459973 16.867519 -66.428963 18.732458 13.931280 179.448395 -64.979553 -179.013489 3.167159 1.582391 -13.162187 -5.882102 9.861279 0.702590 -10.936861 -0.360574 7.156197 0.000000 8.774815 -0.000000 -15.057396 18.208443 6.499981 -1.844031 2.498503 -2.507276 -10.163590 4.678941 4.621104 -20.975996 -0.000001 0.000001 -21.226254 2.451698 -3.593995 0.000000 -0.000006 -0.000000 -1.362681 2.240797 -0.746323 -21.334892 0.584910 3.008319 -13.821196 -0.000001 0.000001 -23.887129 -0.249075 -0.839485 -59.850605 2.288934 -0.960690 -0.294025 1.679686 0.833255 -14.218195 0.093215 1.300579 -34.212002 -0.287561 0.967166 -20.033176 0.964536 1.212838 0.000000 -0.000000 0.000000 -3.440387 0.788233 0.501655 -15.928172 -3.167306 2.999703 -6.338817 -0.000000 0.000001 -18.123419 3.648181 -4.905662 -0.000004 0.000000 -0.000002 5.281865 13.884053 14.309158 62.370583 11.479342 3.927455 179.138657 56.289619 179.334122 -0.221816 3.714347 -8.275878 2.243540 -5.255033 -3.180156 14.282877 -0.826594 6.952496 -0.000000 -12.690593 -0.000001 15.679099 -17.862396 3.121253 1.665665 -1.955920 -2.878297 4.727794 -4.170584 4.993919 11.020511 0.000001 -0.000000 12.109032 -3.735715 -2.866778 0.000000 -0.000000 0.000000 1.291985 -1.928548 -1.498088 14.800115 0.567467 3.865604 14.242553 -1.341738 -6.660648 19.631935 0.143921 -0.648243 50.777782 -0.755001 -6.043994 0.353029 -1.511150 -0.031940 20.222769 3.684305 2.316629 18.787249 0.000001 -0.000001 10.751608 -0.479870 1.397903 0.000000 -0.000000 0.000000 3.273804 0.305947 -0.580110 21.486790 11.830364 2.266131 8.162915 0.000000 -0.000000 18.399052 -3.798986 -4.940567 0.000003 0.000000 -0.000001 -9.936223 3.483747 -45.363857 0.226948 0.374226 40.147141 -10.016847 0.904906 -7.589408 1.727282 -2.184646 -6.421515 0.000000 -0.000000 0.000002 1.319538 -4.925481 13.189211 0.121692 -0.610623 10.411126 -0.428078 -2.183979 26.695841 -1.257572 0.627424 -24.562063 0.000000 -0.000000 -0.000001
0.000000 0.000000 0.000000 0.000000 -0.000000 0.000000 -4.713715 -1.382337 111.577546 2.528977 -0.762280 13.375825 0.001542 0.908034 1.463864 -0.693927 2.823313 -4.095014 -1.526008 1.684183 9.436867 -3.597057 2.625191 -9.355792 -1.573531 -2.558082 -3.552057 2.466137 -4.549317 -18.920706 0.000077 -0.000022 0.000006 0.012221 0.124024 0.047336 0.653136 -3.605257 -10.551209 -0.642237 3.842564 -10.591526 -3.762705 -3.720515 17.498652 -67.013802 17.837482 12.570709 178.938599 -65.881363 -178.241867 3.007834 1.340014 -13.365474 -5.882102 9.861279 0.702590 -10.936861 -0.360574 7.156197 0.000000 8.774815 -0.000000 -14.942053 18.110327 6.701697 -1.844031 2.498503 -2.507276 -10.163590 4.678941 4.621104 -20.975996 -0.000001 0.000001 -21.226254 2.451698 -3.593995 0.000000 -0.000006 -0.000000 -1.362681 2.240797 -0.746323 -21.334892 0.584910 3.008319 -13.821196 -0.000001 0.000001 -23.887129 -0.249075 -0.839485 -59.496597 2.373337 -0.964506 -0.294025 1.679686 0.833255 -14.218195 0.093215 1.300579 -34.212002 -0.287561 0.967166 -20.033176 0.964536 1.212838 0.000000 -0.000000 0.000000 -3.440387 0.788233 0.501655 -15.928172 -3.167306 2.999703 -6.338817 -0.000000 0.000001 -18.123419 3.648181 -4.905662 -0.000004 0.000000 -0.000002 5.883344 13.616873 14.791441 62.571827 11.926822 6.512596 179.511108 55.870270 179.610413 1.453108 4.355052 -9.673940 2.243540 -5.255033 -3.180156 14.282877 -0.826594 6.952496 -0.000000 -12.690593 -0.000001 15.540425 -17.902994 3.192841 1.665665 -1.955920 -2.878297 4.727794 -4.170584 4.993919 11.020511 0.000001 -0.000000 12.109032 -3.735715 -2.866778 0.000000 -0.000000 0.000000 1.291985 -1.928548 -1.498088 14.800115 0.567467 3.865604 14.242553 -1.341738 -6.660648 19.631935 0.143921 -0.648243 50.674446 -0.880856 -5.956539 0.353029 -1.511150 -0.031940 20.222769 3.684305 2.316629 18.787249 0.000001 -0.000001 10.751608 -0.479870 1.397903 0.000000 -0.000000 0.000000 3.273804 0.305947 -0.580110 21.486790 11.830364 2.266131 8.162915 0.000000 -0.000000 18.399052 -3.798986 -4.940567 0.000003 0.000000 -0.000001 -9.432898 4.962726 -41.095310 0.274284 0.421019 31.718470 -12.119867 1.079766 -9.583969 1.635738 -2.242899 -6.551315 0.000000 -0.000000 0.000002 2.781542 -3.609377 10.922504 -0.064968 -0.344901 19.653479 4.097915 -3.305598 33.525040 -1.091137 0.826386 -10.052624 0.000000 -0.000000 -0.000001
0.000000 0.000000 0.000000 0.000000 -0.000000 0.000000 -4.713715 -2.452993 111.577546 2.094723 -0.614384 12.221228 -0.297251 0.504305 2.031298 -0.736444 2.478418 -3.961385 -1.220318 0.806078 9.927975 -2.751655 2.760063 -9.347581 -1.437907 -2.306347 -3.494484 2.388499 -3.625946 -18.390709 0.000077 -0.000022 0.000006 0.023006 0.152073 0.076862 0.630212 -3.580794 -10.526868 -0.598125 3.869357 -10.552577 -5.094067 -4.066743 17.512646 -66.943626 15.355462 10.967492 177.935471 -67.867599 -177.311478 3.115679 1.263094 -12.578616 -5.882102 9.861279 0.702590 -10.936861 -0.360574 7.156197 0.000000 8.774815 -0.000000 -14.971624 18.021357 6.649369 -1.844031 2.498503 -2.507276 -10.163590 4.678941 4.621104 -20.975996 -0.000001 0.000001 -21.226254 2.451698 -3.593995 0.000000 -0.000006 -0.000000 -1.362681 2.240797 -0.746323 -21.334892 0.584910 3.008319 -13.821196 -0.000001 0.000001 -23.887129 -0.249075 -0.839485 -59.139507 2.486035 -1.037178 -0.294025 1.679686 0.833255 -14.218195 0.093215 1.300579 -34.212002 -0.287561 0.967166 -20.033176 0.964536 1.212838 0.000000 -0.000000 0.000000 -3.440387 0.788233 0.501655 -15.928172 -3.167306 2.999703 -6.338817 -0.000000 0.000001 -18.123419 3.648181 -4.905662 -0.000004 0.000000 -0.000002 6.563643 12.909919 15.199554 63.264431 11.311535 9.433999 179.701004 58.185127 179.544189 2.936195 5.102328 -9.795026 2.243540 -5.255033 -3.180156 14.282877 -0.826594 6.952496 -0.000000 -12.690593 -0.000001 15.403586 -18.069786 3.233227 1.665665 -1.955920 -2.878297 4.727794 -4.170584 4.993919 11.020511 0.000001 -0.000000 12.109032 -3.735715 -2.866778 0.000000 -0.000000 0.000000 1.291985 -1.928548 -1.498088 14.800115 0.567467 3.865604 14.242553 -1.341738 -6.660648 19.631935 0.143921 -0.648243 50.379730 -1.023523 -6.164874 0.353029 -1.511150 -0.031940 20.222769 3.684305 2.316629 18.787249 0.000001 -0.000001 10.751608 -0.479870 1.397903 0.000000 -0.000000 0.000000 3.273804 0.305947 -0.580110 21.486790 11.830364 2.266131 8.162915 0.000000 -0.000000 18.399052 -3.798986 -4.940567 0.000003 0.000000 -0.000001 -8.904095 4.747130 -36.302059 0.181605 0.442495 30.447084 -9.569475 1.755189 -10.080047 1.663777 -2.167371 -5.782320 0.000000 -0.000000 0.000002 2.279654 -4.469172 5.949859 -0.139818 -0.073693 36.001434 7.568231 -2.676876 30.383165 -1.114121 0.907990 -5.977519 0.000000 -0.000000 -0.000001
0.000000 0.000000 0.000000 0.000000 -0.000000 0.000000 -4.713715 -4.563009 111.577546 2.755141 -0.696773 11.005185 -1.273760 -0.025717 3.014573 -0.756548 1.630805 -3.760659 -1.326779 -0.117568 10.350123 -1.609357 2.752901 -9.010122 -1.247112 -1.871699 -3.528670 2.035892 -3.121772 -19.890985 0.000077 -0.000022 0.000006 0.042063 0.156540 0.087951 0.613846 -3.595812 -10.562643 -0.546543 3.893766 -10.633006 -6.831388 -5.219807 17.265818 -65.755981 11.658125 9.021341 177.947845 -70.126343 -177.565399 3.788729 1.501902 -11.667402 -5.882102 9.861279 0.702590 -10.936861 -0.360574 7.156197 0.000000 8.774815 -0.000000 -15.181943 18.086182 6.329251 -1.844031 2.498503 -2.507276 -10.163590 4.678941 4.621104 -20.975996 -0.000001 0.000001 -21.226254 2.451698 -3.593995 0.000000 -0.000006 -0.000000 -1.362681 2.240797 -0.746323 -21.334892 0.584910 3.008319 -13.821196 -0.000001 0.000001 -23.887129 -0.249075 -0.839485 -59.242119 2.422177 -1.143373 -0.294025 1.679686 0.833255 -14.218195 0.093215 1.300579 -34.212002 -0.287561 0.967166 -20.033176 0.964536 1.212838 0.000000 -0.000000 0.000000 -3.440387 0.788233 0.501655 -15.928172 -3.167306 2.999703 -6.338817 -0.000000 0.000001 -18.123419 3.648181 -4.905662 -0.000004 0.000000 -0.000002 7.438879 11.612176 15.552647 63.820160 9.352497 11.051817 179.196396 62.036800 179.023819 3.491162 5.372619 -9.844401 2.243540 -5.255033 -3.180156 14.282877 -0.826594 6.952496 -0.000000 -12.690593 -0.000001 15.478324 -18.134514 3.083233 1.665665 -1.955920 -2.878297 4.727794 -4.170584 4.993919 11.020511 0.000001 -0.000000 12.109032 -3.735715 -2.866778 0.000000 -0.000000 0.000000 1.291985 -1.928548 -1.498088 14.800115 0.567467 3.865604 14.242553 -1.341738 -6.660648 19.631935 0.143921 -0.648243 50.007320 -1.024573 -6.282237 0.353029 -1.511150 -0.031940 20.222769 3.684305 2.316629 18.787249 0.000001 -0.000001 10.751608 -0.479870 1.397903 0.000000 -0.000000 0.000000 3.273804 0.305947 -0.580110 21.486790 11.830364 2.266131 8.162915 0.000000 -0.000000 18.399052 -3.798986 -4.940567 0.000003 0.000000 -0.000001 -8.627605 1.552211 -33.507481 0.016121 0.380494 37.614815 0.224815 5.585056 -15.818845 1.721897 -1.964381 -3.057249 0.000000 -0.000000 0.000002 -0.028901 -6.911490 -0.691795 -0.067027 -0.060498 54.372147 7.081728 -2.310568 22.617338 -1.133427 0.927585 -5.615172 0.000000 -0.000000 -0.000001
0.000000 0.000000 0.000000 0.000000 -0.000000 0.000000 -4.713715 -7.026434 111.577546 4.281612 -0.925743 10.110565 -2.292260 -0.518056 4.123935 -1.092451 0.523862 -3.460788 -2.248681 -1.073876 10.980496 0.113489 2.432689 -8.936030 -0.955118 -1.517571 -3.599972 1.968202 -2.332006 -24.185421 0.000077 -0.000022 0.000006 0.037726 0.104892 0.130729 0.630689 -3.673457 -10.601110 -0.571986 3.872659 -10.659934 -7.998546 -6.863244 17.240669 -63.401329 5.791136 8.003325 177.874374 -72.323555 -178.150909 5.266238 1.899885 -11.141400 -5.882102 9.861279 0.702590 -10.936861 -0.360574 7.156197 0.000000 8.774815 -0.000000 -15.366104 18.492851 6.417775 -1.844031 2.498503 -2.507276 -10.163590 4.678941 4.621104 -20.975996 -0.000001 0.000001 -21.226254 2.451698 -3.593995 0.000000 -0.000006 -0.000000 -1.362681 2.240797 -0.746323 -21.334892 0.584910 3.008319 -13.821196 -0.000001 0.000001 -23.887129 -0.249075 -0.839485 -59.898281 2.400377 -1.082973 -0.294025 1.679686 0.833255 -14.218195 0.093215 1.300579 -34.212002 -0.287561 0.967166 -20.033176 0.964536 1.212838 0.000000 -0.000000 0.000000 -3.440387 0.788233 0.501655 -15.928172 -3.167306 2.999703 -6.338817 -0.000000 0.000001 -18.123419 3.648181 -4.905662 -0.000004 0.000000 -0.000002 8.798381 9.249548 16.075085 64.394150 6.899556 10.982003 177.688034 66.831718 177.641113 2.505263 6.250885 -9.939478 2.243540 -5.255033 -3.180156 14.282877 -0.826594 6.952496 -0.000000 -12.690593 -0.000001 15.685612 -17.928240 2.957169 1.665665 -1.955920 -2.878297 4.727794 -4.170584 4.993919 11.020511 0.000001 -0.000000 12.109032 -3.735715 -2.866778 0.000000 -0.000000 0.000000 1.291985 -1.928548 -1.498088 14.800115 0.567467 3.865604 14.242553 -1.341738 -6.660648 19.631935 0.143921 -0.648243 49.960670 -0.790240 -6.226793 0.353029 -1.511150 -0.031940 20.222769 3.684305 2.316629 18.787249 0.000001 -0.000001 10.751608 -0.479870 1.397903 0.000000 -0.000000 0.000000 3.273804 0.305947 -0.580110 21.486790 11.830364 2.266131 8.162915 0.000000 -0.000000 18.399052 -3.798986 -4.940567 0.000003 0.000000 -0.000001 -9.200391 -1.778767 -30.868986 0.302680 0.452521 44.744877 1.411401 8.560119 -24.248434 1.627027 -2.020533 -1.411852 0.000000 -0.000000 0.000002 -3.021236 -8.831271 -8.937535 -0.002573 -0.143638 71.152138 5.211999 -2.162814 13.681062 -1.192366 0.946274 -5.119151 0.000000 -0.000000 -0.000001
0.000000 0.000000 0.000000 0.000000 -0.000000 0.000000 -4.713715 -8.210920 111.577546 4.089671 -0.865267 9.757452 -2.412530 -0.756957 4.402102 -1.076680 -0.430771 -3.185376 -2.649995 -1.826853 11.989285 1.543183 2.179863 -9.366838 -0.951615 -0.893011 -3.660358 2.113331 -1.890718 -26.260664 0.000077 -0.000022 0.000006 0.007847 0.016333 0.135922 0.601331 -3.783839 -10.598804 -0.598775 3.812691 -10.655213 -9.631837 -8.193946 17.443775 -60.383408 -1.262981 6.895072 178.998795 -73.321167 -179.817215 5.578672 1.838297 -10.865812 -5.882102 9.861279 0.702590 -10.936861 -0.360574 7.156197 0.000000 8.774815 -0.000000 -15.659134 18.505121 6.395493 -1.844031 2.498503 -2.507276 -10.163590 4.678941 4.621104 -20.975996 -0.000001 0.000001 -21.226254 2.451698 -3.593995 0.000000 -0.000006 -0.000000 -1.362681 2.240797 -0.746323 -21.334892 0.584910 3.008319 -13.821196 -0.000001 0.000001 -23.887129 -0.249075 -0.839485 -60.092598 2.320735 -1.020739 -0.294025 1.679686 0.833255 -14.218195 0.093215 1.300579 -34.212002 -0.287561 0.967166 -20.033176 0.964536 1.212838 0.000000 -0.000000 0.000000 -3.440387 0.788233 0.501655 -15.928172 -3.167306 2.999703 -6.338817 -0.000000 0.000001 -18.123419 3.648181 -4.905662 -0.000004 0.000000 -0.000002 11.249948 6.914303 17.096750 64.357018 2.973982 9.492238 176.048386 71.193321 175.765228 -0.784299 7.003527 -8.909188 2.243540 -5.255033 -3.180156 14.282877 -0.826594 6.952496 -0.000000 -12.690593 -0.000001 15.751979 -17.793680 2.841454 1.665665 -1.955920 -2.878297 4.727794 -4.170584 4.993919 11.020511 0.000001 -0.000000 12.109032 -3.735715 -2.866778 0.000000 -0.000000 0.000000 1.291985 -1.928548 -1.498088 14.800115 0.567467 3.865604 14.242553 -1.341738 -6.660648 19.631935 0.143921 -0.648243 49.975986 -0.570313 -6.213976 0.353029 -1.511150 -0.031940 20.222769 3.684305 2.316629 18.787249 0.000001 -0.000001 10.751608 -0.479870 1.397903 0.000000 -0.000000 0.000000 3.273804 0.305947 -0.580110 21.486790 11.830364 2.266131 8.162915 0.000000 -0.000000 18.399052 -3.798986 -4.940567 0.000003 0.000000 -0.000001 -8.212733 -0.554952 -25.791838 0.136205 0.421380 46.100945 0.995677 7.232620 -30.351599 1.650222 -2.019997 -0.982040 0.000000 -0.000000 0.000002 -3.328970 -8.174449 -17.773441 -0.051883 -0.482596 81.648979 4.181811 -1.988057 5.279352 -1.252821 0.940059 -4.947686 0.000000 -0.000000 -0.000001
0.000000 0.000000 0.000000 0.000000 -0.000000 0.000000 -4.713715 -8.127683 111.577546 2.463149 -0.585741 9.788797 -1.972431 -0.971488 4.480773 -0.759024 -1.372801 -3.108160 -1.925523 -2.835435 12.082494 1.979245 2.167951 -9.155688 -0.803454 -0.335576 -3.642142 1.928389 -1.182121 -26.316843 0.000077 -0.000022 0.000006 -0.033941 -0.119228 0.093944 0.542496 -3.927825 -10.645738 -0.620018 3.691541 -10.695334 -9.032565 -9.449820 16.874769 -61.330311 -6.607527 5.327096 -177.242844 -71.318428 176.311890 4.888382 1.489621 -10.367541 -5.882102 9.861279 0.702590 -10.936861 -0.360574 7.156197 0.000000 8.774815 -0.000000 -15.680547 18.629269 6.249102 -1.844031 2.498503 -2.507276 -10.163590 4.678941 4.621104 -20.975996 -0.000001 0.000001 -21.226254 2.451698 -3.593995 0.000000 -0.000006 -0.000000 -1.362681 2.240797 -0.746323 -21.334892 0.584910 3.008319 -13.821196 -0.000001 0.000001 -23.887129 -0.249075 -0.839485 -59.807713 2.279567 -1.306076 -0.294025 1.679686 0.833255 -14.218195 0.093215 1.300579 -34.212002 -0.287561 0.967166 -20.033176 0.964536 1.212838 0.000000 -0.000000 0.000000 -3.440387 0.788233 0.501655 -15.928172 -3.167306 2.999703 -6.338817 -0.000000 0.000001 -18.123419 3.648181 -4.905662 -0.000004 0.000000 -0.000002 12.589417 5.231042 17.652657 64.283699 -3.156543 8.767079 176.545212 71.136383 175.598587 -2.237781 7.050294 -8.582837 2.243540 -5.255033 -3.180156 14.282877 -0.826594 6.952496 -0.000000 -12.690593 -0.000001 15.891556 -17.710144 2.621656 1.665665 -1.955920 -2.878297 4.727794 -4.170584 4.993919 11.020511 0.000001 -0.000000 12.109032 -3.735715 -2.866778 0.000000 -0.000000 0.000000 1.291985 -1.928548 -1.498088 14.800115 0.567467 3.865604 14.242553 -1.341738 -6.660648 19.631935 0.143921 -0.648243 50.346722 -0.454122 -6.279723 0.353029 -1.511150 -0.031940 20.222769 3.684305 2.316629 18.787249 0.000001 -0.000001 10.751608 -0.479870 1.397903 0.000000 -0.000000 0.000000 3.273804 0.305947 -0.580110 21.486790 11.830364 2.266131 8.162915 0.000000 -0.000000 18.399052 -3.798986 -4.940567 0.000003 0.000000 -0.000001 -5.459200 1.574782 -17.901705 -0.031104 0.016500 41.555969 0.345357 5.672954 -33.573055 1.697174 -1.944701 -1.756473 0.000000 -0.000000 0.000002 -1.896956 -6.745315 -26.341486 -0.045948 -0.651668 85.000412 4.543914 -2.071943 -0.937167 -1.245050 0.901591 -4.611129 0.000000 -0.000000 -0.000001
0.000000 0.000000 0.000000 0.000000 -0.000000 0.000000 -4.713715 -6.603140 111.577546 0.472244 -0.245110 10.172866 -1.338092 -1.185465 4.206508 -0.489631 -2.335248 -3.171283 -0.582988 -4.055361 11.610706 1.948761 2.253310 -8.767711 -0.345030 -0.022910 -3.670457 1.155951 0.150429 -25.165068 0.000077 -0.000022 0.000006 -0.072989 -0.273363 0.047796 0.479673 -4.085666 -10.718991 -0.630321 3.542964 -10.743275 -7.301312 -10.660231 16.010759 -64.072250 -9.789620 5.001887 -176.309601 -67.222389 175.571686 4.736106 1.086006 -11.293319 -5.882102 9.861279 0.702590 -10.936861 -0.360574 7.156197 0.000000 8.774815 -0.000000 -15.549121 18.891691 6.344025 -1.844031 2.498503 -2.507276 -10.163590 4.678941 4.621104 -20.975996 -0.000001 0.000001 -21.226254 2.451698 -3.593995 0.000000 -0.000006 -0.000000 -1.362681 2.240797 -0.746323 -21.334892 0.584910 3.008319 -13.821196 -0.000001 0.000001 -23.887129 -0.249075 -0.839485 -59.459244 2.327126 -1.358498 -0.294025 1.679686 0.833255 -14.218195 0.093215 1.300579 -34.212002 -0.287561 0.967166 -20.033176 0.964536 1.212838 0.000000 -0.000000 0.000000 -3.440387 0.788233 0.501655 -15.928172 -3.167306 2.999703 -6.338817 -0.000000 0.000001 -18.123419 3.648181 -4.905662 -0.000004 0.000000 -0.000002 13.525911 3.744674 17.567953 63.062851 -9.915966 9.084248 177.308838 68.169662 175.915848 -1.689466 6.813202 -8.408456 2.243540 -5.255033 -3.180156 14.282877 -0.826594 6.952496 -0.000000 -12.690593 -0.000001 16.245008 -17.601107 2.429573 1.665665 -1.955920 -2.878297 4.727794 -4.170584 4.993919 11.020511 0.000001 -0.000000 12.109032 -3.735715 -2.866778 0.000000 -0.000000 0.000000 1.291985 -1.928548 -1.498088 14.800115 0.567467 3.865604 14.242553 -1.341738 -6.660648 19.631935 0.143921 -0.648243 50.461037 -0.362241 -6.201623 0.353029 -1.511150 -0.031940 20.222769 3.684305 2.316629 18.787249 0.000001 -0.000001 10.751608 -0.479870 1.397903 0.000000 -0.000000 0.000000 3.273804 0.305947 -0.580110 21.486790 11.830364 2.266131 8.162915 0.000000 -0.000000 18.399052 -3.798986 -4.940567 0.000003 0.000000 -0.000001 -2.296540 2.593058 -8.174723 0.093439 -0.386820 32.026905 -0.754915 4.896733 -29.762030 1.791597 -1.918189 -5.313086 0.000000 -0.000000 0.000002 0.335640 -5.592065 -33.501801 -0.032700 -0.516208 81.164253 5.087813 -3.363102 -4.713194 -1.323803 0.876972 -4.459140 0.000000 -0.000000 -0.000001
0.000000 0.000000 0.000000 0.000000 -0.000000 0.000000 -4.713715 -4.263639 111.577546 -1.813691 0.195751 11.107413 -0.481023 -1.356168 3.237628 -0.120885 -3.122483 -3.501927 0.918104 -5.025202 11.055176 1.654378 2.193669 -8.405475 -0.066130 1.194773 -3.732151 0.274829 1.176360 -23.217649 0.000077 -0.000022 0.000006 -0.061701 -0.275133 0.017866 0.508936 -4.084080 -10.829347 -0.634936 3.536443 -10.817287 -5.530588 -11.369501 15.130301 -66.890137 -11.205709 5.972404 -177.086365 -62.831978 176.636948 4.720099 0.481692 -12.368049 -5.882102 9.861279 0.702590 -10.936861 -0.360574 7.156197 0.000000 8.774815 -0.000000 -15.801518 18.857967 6.330688 -1.844031 2.498503 -2.507276 -10.163590 4.678941 4.621104 -20.975996 -0.000001 0.000001 -21.226254 2.451698 -3.593995 0.000000 -0.000006 -0.000000 -1.362681 2.240797 -0.746323 -21.334892 0.584910 3.008319 -13.821196 -0.000001 0.000001 -23.887129 -0.249075 -0.839485 -59.825790 2.363599 -1.497869 -0.294025 1.679686 0.833255 -14.218195 0.093215 1.300579 -34.212002 -0.287561 0.967166 -20.033176 0.964536 1.212838 0.000000 -0.000000 0.000000 -3.440387 0.788233 0.501655 -15.928172 -3.167306 2.999703 -6.338817 -0.000000 0.000001 -18.123419 3.648181 -4.905662 -0.000004 0.000000 -0.000002 13.906122 3.068994 17.680593 61.777306 -15.613413 9.525779 178.118393 65.448685 176.764099 -1.011966 6.295463 -6.854707 2.243540 -5.255033 -3.180156 14.282877 -0.826594 6.952496 -0.000000 -12.690593 -0.000001 16.366283 -17.579002 2.277111 1.665665 -1.955920 -2.878297 4.727794 -4.170584 4.993919 11.020511 0.000001 -0.000000 12.109032 -3.735715 -2.866778 0.000000 -0.000000 0.000000 1.291985 -1.928548 -1.498088 14.800115 0.567467 3.865604 14.242553 -1.341738 -6.660648 19.631935 0.143921 -0.648243 50.246159 -0.386283 -6.342700 0.353029 -1.511150 -0.031940 20.222769 3.684305 2.316629 18.787249 0.000001 -0.000001 10.751608 -0.479870 1.397903 0.000000 -0.000000 0.000000 3.273804 0.305947 -0.580110 21.486790 11.830364 2.266131 8.162915 0.000000 -0.000000 18.399052 -3.798986 -4.940567 0.000003 0.000000 -0.000001 1.050929 3.301512 1.336830 0.256798 -0.529960 20.847891 -1.148415 4.581069 -17.392311 1.992089 -1.943856 -14.566473 0.000000 -0.000000 0.000002 3.126096 -4.315590 -38.432671 -0.104521 -0.465449 71.118866 5.152282 -4.752783 -5.050326 -1.348722 0.826657 -4.593801 0.000000 -0.000000 -0.000001
0.000000 0.000000 0.000000 0.000000 -0.000000 0.000000 -4.713715 -1.864866 111.577546 -3.683087 0.652684 12.436439 0.431872 -1.411174 1.783855 0.212830 -3.787357 -3.970041 2.142683 -5.591311 10.524960 1.006551 2.353181 -8.107134 0.068282 2.251435 -3.750930 -0.303846 1.981168 -21.071295 0.000077 -0.000022 0.000006 -0.038766 -0.244593 0.022474 0.529541 -4.044943 -10.853083 -0.608873 3.554594 -10.793143 -4.314909 -11.522589 14.371681 -68.581200 -11.493065 8.680299 -178.721863 -58.778339 178.405045 4.242009 -0.403561 -12.706851 -5.882102 9.861279 0.702590 -10.936861 -0.360574 7.156197 0.000000 8.774815 -0.000000 -16.168713 18.802961 6.224366 -1.844031 2.498503 -2.507276 -10.163590 4.678941 4.621104 -20.975996 -0.000001 0.000001 -21.226254 2.451698 -3.593995 0.000000 -0.000006 -0.000000 -1.362681 2.240797 -0.746323 -21.334892 0.584910 3.008319 -13.821196 -0.000001 0.000001 -23.887129 -0.249075 -0.839485 -60.526459 2.453539 -1.699647 -0.294025 1.679686 0.833255 -14.218195 0.093215 1.300579 -34.212002 -0.287561 0.967166 -20.033176 0.964536 1.212838 0.000000 -0.000000 0.000000 -3.440387 0.788233 0.501655 -15.928172 -3.167306 2.999703 -6.338817 -0.000000 0.000001 -18.123419 3.648181 -4.905662 -0.000004 0.000000 -0.000002 13.635826 2.907864 17.983707 61.060074 -19.590631 9.734881 178.582596 63.578140 177.726517 -0.528744 5.353551 -4.072066 2.243540 -5.255033 -3.180156 14.282877 -0.826594 6.952496 -0.000000 -12.690593 -0.000001 16.212126 -17.477882 2.289204 1.665665 -1.955920 -2.878297 4.727794 -4.170584 4.993919 11.020511 0.000001 -0.000000 12.109032 -3.735715 -2.866778 0.000000 -0.000000 0.000000 1.291985 -1.928548 -1.498088 14.800115 0.567467 3.865604 14.242553 -1.341738 -6.660648 19.631935 0.143921 -0.648243 50.056160 -0.479325 -6.409507 0.353029 -1.511150 -0.031940 20.222769 3.684305 2.316629 18.787249 0.000001 -0.000001 10.751608 -0.479870 1.397903 0.000000 -0.000000 0.000000 3.273804 0.305947 -0.580110 21.486790 11.830364 2.266131 8.162915 0.000000 -0.000000 18.399052 -3.798986 -4.940567 0.000003 0.000000 -0.000001 3.567198 4.034613 8.468180 0.244333 -0.380004 11.605162 -0.061762 4.434989 1.232850 2.241992 -1.813303 -24.335340 0.000000 -0.000000 0.000002 5.658861 -3.299489 -40.894241 -0.231735 -0.404947 56.838825 5.727409 -5.056467 -3.683027 -1.346113 0.777279 -4.818213 0.000000 -0.000000 -0.000001
0.000000 0.000000 0.000000 0.000000 -0.000000 0.000000 -4.713715 -0.199354 111.577546 -4.205534 0.854206 13.544712 0.854577 -1.384203 0.392832 0.433600 -4.374880 -4.408234 2.788675 -6.026793 10.234111 0.141694 2.755896 -8.068538 -0.009385 2.634028 -3.696146 -0.824662 2.390715 -19.098675 0.000077 -0.000022 0.000006 -0.021569 -0.227830 0.025663 0.535703 -4.015316 -10.778881 -0.580408 3.552591 -10.706051 -3.853122 -11.570621 13.921569 -68.593216 -11.339050 12.505491 -179.836914 -55.167000 179.466354 2.835021 -1.654611 -12.151345 -5.882102 9.861279 0.702590 -10.936861 -0.360574 7.156197 0.000000 8.774815 -0.000000 -16.272036 18.707855 6.101495 -1.844031 2.498503 -2.507276 -10.163590 4.678941 4.621104 -20.975996 -0.000001 0.000001 -21.226254 2.451698 -3.593995 0.000000 -0.000006 -0.000000 -1.362681 2.240797 -0.746323 -21.334892 0.584910 3.008319 -13.821196 -0.000001 0.000001 -23.887129 -0.249075 -0.839485 -60.594208 2.530348 -1.761566 -0.294025 1.679686 0.833255 -14.218195 0.093215 1.300579 -34.212002 -0.287561 0.967166 -20.033176 0.964536 1.212838 0.000000 -0.000000 0.000000 -3.440387 0.788233 0.501655 -15.928172 -3.167306 2.999703 -6.338817 -0.000000 0.000001 -18.123419 3.648181 -4.905662 -0.000004 0.000000 -0.000002 13.292371 3.106430 18.223667 60.867882 -22.450979 9.334620 178.703903 61.890392 178.522629 0.284020 4.338818 -1.521664 2.243540 -5.255033 -3.180156 14.282877 -0.826594 6.952496 -0.000000 -12.690593 -0.000001 16.031940 -17.403965 2.428127 1.665665 -1.955920 -2.878297 4.727794 -4.170584 4.993919 11.020511 0.000001 -0.000000 12.109032 -3.735715 -2.866778 0.000000 -0.000000 0.000000 1.291985 -1.928548 -1.498088 14.800115 0.567467 3.865604 14.242553 -1.341738 -6.660648 19.631935 0.143921 -0.648243 49.955303 -0.574058 -6.266006 0.353029 -1.511150 -0.031940 20.222769 3.684305 2.316629 18.787249 0.000001 -0.000001 10.751608 -0.479870 1.397903 0.000000 -0.000000 0.000000 3.273804 0.305947 -0.580110 21.486790 11.830364 2.266131 8.162915 0.000000 -0.000000 18.399052 -3.798986 -4.940567 0.000003 0.000000 -0.000001 4.229137 3.490253 11.965691 -0.004074 -0.159805 8.470020 1.434469 4.514802 17.970224 2.178885 -1.661724 -21.504139 0.000000 -0.000000 0.000002 6.994668 -3.356991 -40.923004 -0.240419 -0.303136 41.170002 7.277015 -3.888625 -1.665759 -1.380585 0.790933 -5.357886 0.000000 -0.000000 -0.000001
0.000000 0.000000 0.000000 0.000000 -0.000000 0.000000 -4.713715 0.399721 111.577546 -3.655317 0.733450 13.726991 0.813086 -1.338312 -0.248345 0.514512 -4.806274 -4.659470 2.991534 -6.319099 10.349033 -0.662347 3.197510 -8.413013 -0.178483 2.453001 -3.688476 -1.473300 2.718874 -17.669222 0.000077 -0.000022 0.000006 -0.008649 -0.207771 0.006933 0.570174 -3.980535 -10.739017 -0.589340 3.556449 -10.672464 -3.953569 -11.526486 13.893409 -67.645500 -11.177921 16.312561 179.962494 -53.230652 179.703537 0.553729 -2.742476 -11.158409 -5.882102 9.861279 0.702590 -10.936861 -0.360574 7.156197 0.000000 8.774815 -0.000000 -16.091970 18.610037 6.098087 -1.844031 2.498503 -2.507276 -10.163590 4.678941 4.621104 -20.975996 -0.000001 0.000001 -21.226254 2.451698 -3.593995 0.000000 -0.000006 -0.000000 -1.362681 2.240797 -0.746323 -21.334892 0.584910 3.008319 -13.821196 -0.000001 0.000001 -23.887129 -0.249075 -0.839485 -60.061378 2.492503 -1.603315 -0.294025 1.679686 0.833255 -14.218195 0.093215 1.300579 -34.212002 -0.287561 0.967166 -20.033176 0.964536 1.212838 0.000000 -0.000000 0.000000 -3.440387 0.788233 0.501655 -15.928172 -3.167306 2.999703 -6.338817 -0.000000 0.000001 -18.123419 3.648181 -4.905662 -0.000004 0.000000 -0.000002 13.346113 3.387619 18.351036 60.851700 -23.795238 8.687372 179.094345 60.506817 179.339645 1.304465 3.967217 0.034559 2.243540 -5.255033 -3.180156 14.282877 -0.826594 6.952496 -0.000000 -12.690593 -0.000001 15.927197 -17.499796 2.571481 1.665665 -1.955920 -2.878297 4.727794 -4.170584 4.993919 11.020511 0.000001 -0.000000 12.109032 -3.735715 -2.866778 0.000000 -0.000000 0.000000 1.291985 -1.928548 -1.498088 14.800115 0.567467 3.865604 14.242553 -1.341738 -6.660648 19.631935 0.143921 -0.648243 50.242119 -0.570653 -6.118564 0.353029 -1.511150 -0.031940 20.222769 3.684305 2.316629 18.787249 0.000001 -0.000001 10.751608 -0.479870 1.397903 0.000000 -0.000000 0.000000 3.273804 0.305947 -0.580110 21.486790 11.830364 2.266131 8.162915 0.000000 -0.000000 18.399052 -3.798986 -4.940567 0.000003 0.000000 -0.000001 3.254393 1.793156 12.152281 -0.015690 -0.107976 14.433341 2.138701 6.204873 22.882133 1.946022 -1.773724 -10.329754 0.000000 -0.000000 0.000002 7.014024 -3.449500 -39.052147 -0.171198 -0.220390 27.357637 9.518555 -2.882849 -0.920886 -1.413840 0.927129 -5.360449 0.000000 -0.000000 -0.000001
0.000000 0.000000 0.000000 0.000000 0.000000 0.000000 -4.713715 -1.414708 111.577546 -3.432693 0.568707 11.981290 1.296482 -0.941155 0.615290 0.620802 -4.216188 -4.401488 3.114128 -5.410254 10.772675 -2.131006 3.449549 -8.511059 -0.275719 2.045792 -3.669911 -2.132900 2.702556 -17.666283 0.000077 -0.000022 0.000006 0.004272 -0.121833 0.008299 0.608073 -3.879689 -10.676467 -0.603716 3.630601 -10.641384 -4.751378 -9.851238 14.755017 -67.487240 -7.776181 17.950700 -179.764712 -57.020285 179.377182 -0.829401 -2.461978 -7.591910 -5.882102 9.861279 0.702590 -10.936861 -0.360574 7.156197 0.000000 8.774815 0.000000 -15.887138 18.511089 6.173380 -1.844031 2.498503 -2.507276 -10.163590 4.678941 4.621104 -20.975996 -0.000001 0.000001 -21.226254 2.451698 -3.593995 0.000000 -0.000006 0.000000 -1.362681 2.240797 -0.746323 -21.334892 0.584910 3.008319 -13.821196 -0.000001 0.000001 -23.887129 -0.249075 -0.839485 -59.749533 2.460919 -1.304540 -0.294025 1.679686 0.833255 -14.218195 0.093215 1.300579 -34.212002 -0.287561 0.967166 -20.033176 0.964536 1.212838 0.000000 0.000000 0.000000 -3.440387 0.788233 0.501655 -15.928172 -3.167306 2.999703 -6.338817 0.000000 0.000001 -18.123419 3.648181 -4.905662 -0.000004 0.000000 -0.000002 13.263115 4.719813 18.270253 60.707592 -17.892549 8.094416 179.334614 60.518299 179.413267 2.057284 4.262659 -0.250489 2.243540 -5.255033 -3.180156 14.282877 -0.826594 6.952496 0.000000 -12.690593 -0.000001 15.930208 -17.704928 2.644040 1.665665 -1.955920 -2.878297 4.727794 -4.170584 4.993919 11.020511 0.000001 -0.000000 12.109032 -3.735715 -2.866778 0.000000 0.000000 0.000000 1.291985 -1.928548 -1.498088 14.800115 0.567467 3.865604 14.242553 -1.341738 -6.660648 19.631935 0.143921 -0.648243 50.441962 -0.770483 -6.137639 0.353029 -1.511150 -0.031940 20.222769 3.684305 2.316629 18.787249 0.000001 -0.000001 10.751608 -0.479870 1.397903 0.000000 0.000000 0.000000 3.273804 0.305947 -0.580110 21.486790 11.830364 2.266131 8.162915 0.000000 0.000000 18.399052 -3.798986 -4.940567 0.000003 0.000000 -0.000001 3.592877 1.354512 3.229965 0.089307 -0.232620 39.387955 1.069791 8.458343 17.184060 1.934275 -1.895945 -5.903173 0.000000 0.000000 0.000002 7.149145 -2.856594 -33.279407 -0.091736 -0.165667 23.769905 8.904980 -2.229068 -5.946924 -1.360764 1.066885 -4.476255 0.000000 0.000000 -0.000001
0.000000 0.000000 0.000000 0.000000 0.000000 0.000000 -4.713715 -3.226629 111.577546 -3.276788 0.421596 10.064322 1.964414 -0.332732 1.765398 0.620364 -2.813375 -4.003010 2.923728 -3.841963 10.835387 -3.332132 3.346412 -8.123563 -0.275773 1.604795 -3.609884 -2.181630 2.036227 -17.889835 0.000077 -0.000022 0.000006 0.000366 -0.086702 0.033194 0.602334 -3.834194 -10.579668 -0.608830 3.655550 -10.574290 -5.377227 -7.633284 15.354991 -67.467720 -2.408891 18.206676 -179.821355 -61.738838 179.221995 -0.978142 -1.411047 -4.488165 -5.882102 9.861279 0.702590 -10.936861 -0.360574 7.156197 0.000000 8.774815 0.000000 -16.023335 18.461902 6.146998 -1.844031 2.498503 -2.507276 -10.163590 4.678941 4.621104 -20.975996 -0.000001 0.000001 -21.226254 2.451698 -3.593995 0.000000 -0.000006 0.000000 -1.362681 2.240797 -0.746323 -21.334892 0.584910 3.008319 -13.821196 -0.000001 0.000001 -23.887129 -0.249075 -0.839485 -60.112781 2.504993 -1.169209 -0.294025 1.679686 0.833255 -14.218195 0.093215 1.300579 -34.212002 -0.287561 0.967166 -20.033176 0.964536 1.212838 0.000000 0.000000 0.000000 -3.440387 0.788233 0.501655 -15.928172 -3.167306 2.999703 -6.338817 0.000000 0.000001 -18.123419 3.648181 -4.905662 -0.000004 0.000000 -0.000002 12.591993 6.603744 18.044860 60.811007 -9.534568 7.398011 179.462707 60.016645 178.998752 1.888273 4.611013 -2.940921 2.243540 -5.255033 -3.180156 14.282877 -0.826594 6.952496 0.000000 -12.690593 -0.000001 16.026672 -17.762147 2.646218 1.665665 -1.955920 -2.878297 4.727794 -4.170584 4.993919 11.020511 0.000001 -0.000000 12.109032 -3.735715 -2.866778 0.000000 0.000000 0.000000 1.291985 -1.928548 -1.498088 14.800115 0.567467 3.865604 14.242553 -1.341738 -6.660648 19.631935 0.143921 -0.648243 50.391552 -0.905440 -6.185480 0.353029 -1.511150 -0.031940 20.222769 3.684305 2.316629 18.787249 0.000001 -0.000001 10.751608 -0.479870 1.397903 0.000000 0.000000 0.000000 3.273804 0.305947 -0.580110 21.486790 11.830364 2.266131 8.162915 0.000000 0.000000 18.399052 -3.798986 -4.940567 0.000003 0.000000 -0.000001 3.956854 2.755282 -8.446044 0.089678 -0.305092 60.091758 -1.213117 8.782315 9.954792 2.004549 -1.937187 -5.508857 0.000000 0.000000 0.000002 7.196255 -2.713494 -25.678236 -0.030757 -0.166959 26.947393 4.224726 -1.622781 -9.058900 -1.389062 1.000217 -5.255674 0.000000 0.000000 -0.000001
0.000000 0.000000 0.000000 0.000000 0.000000 0.000000 -4.713715 -3.996138 111.577546 -2.391099 0.212545 8.862471 2.001722 0.268446 2.455591 0.448039 -0.798953 -3.778149 2.379925 -2.355024 10.510495 -4.106225 3.246306 -7.454542 -0.298634 1.035745 -3.622167 -1.544624 0.882170 -18.240455 0.000077 -0.000022 0.000006 -0.008792 -0.078043 0.053319 0.581769 -3.820000 -10.546261 -0.609435 3.658916 -10.560480 -5.735725 -5.429583 15.560877 -67.210215 4.195317 17.540035 -179.508995 -65.285625 178.976409 -0.385800 0.262455 -2.433268 -5.882102 9.861279 0.702590 -10.936861 -0.360574 7.156197 0.000000 8.774815 0.000000 -16.034897 18.482539 6.092111 -1.844031 2.498503 -2.507276 -10.163590 4.678941 4.621104 -20.975996 -0.000001 0.000001 -21.226254 2.451698 -3.593995 0.000000 -0.000006 0.000000 -1.362681 2.240797 -0.746323 -21.334892 0.584910 3.008319 -13.821196 -0.000001 0.000001 -23.887129 -0.249075 -0.839485 -60.516696 2.458219 -1.141913 -0.294025 1.679686 0.833255 -14.218195 0.093215 1.300579 -34.212002 -0.287561 0.967166 -20.033176 0.964536 1.212838 0.000000 0.000000 0.000000 -3.440387 0.788233 0.501655 -15.928172 -3.167306 2.999703 -6.338817 0.000000 0.000001 -18.123419 3.648181 -4.905662 -0.000004 0.000000 -0.000002 11.271420 8.774073 17.348196 60.819605 -1.237316 7.267612 179.176023 58.434831 178.415415 0.931331 4.699328 -7.278855 2.243540 -5.255033 -3.180156 14.282877 -0.826594 6.952496 0.000000 -12.690593 -0.000001 16.052510 -17.706079 2.674274 1.665665 -1.955920 -2.878297 4.727794 -4.170584 4.993919 11.020511 0.000001 -0.000000 12.109032 -3.735715 -2.866778 0.000000 0.000000 0.000000 1.291985 -1.928548 -1.498088 14.800115 0.567467 3.865604 14.242553 -1.341738 -6.660648 19.631935 0.143921 -0.648243 50.387332 -0.824623 -6.100629 0.353029 -1.511150 -0.031940 20.222769 3.684305 2.316629 18.787249 0.000001 -0.000001 10.751608 -0.479870 1.397903 0.000000 0.000000 0.000000 3.273804 0.305947 -0.580110 21.486790 11.830364 2.266131 8.162915 0.000000 0.000000 18.399052 -3.798986 -4.940567 0.000003 0.000000 -0.000001 2.943124 4.058271 -19.909121 0.077221 -0.267154 68.857313 -3.299447 7.021342 3.228777 2.089032 -1.960554 -5.428050 0.000000 0.000000 0.000002 6.244520 -3.491011 -15.717330 -0.018294 -0.216702 29.967068 -0.484730 -0.125638 -9.654799 -1.430366 0.853364 -10.928797 0.000000 0.000000 -0.000001
0.000000 0.000000 0.000000 0.000000 0.000000 0.000000 -4.713715 -3.032952 111.577546 -0.961850 -0.007154 9.050921 1.519722 0.584884 1.959672 0.165843 1.040287 -3.912358 1.407819 -0.882845 10.179053 -4.286821 2.979414 -7.350168 -0.370640 0.442101 -3.677609 -0.531408 -0.360848 -17.820823 0.000077 -0.000022 0.000006 -0.006771 0.005223 0.050694 0.606093 -3.736134 -10.577668 -0.631787 3.739592 -10.608220 -5.446049 -3.751837 16.026604 -66.881321 10.350538 16.605265 -179.001635 -66.356150 178.744556 0.747419 1.549379 -1.476180 -5.882102 9.861279 0.702590 -10.936861 -0.360574 7.156197 0.000000 8.774815 0.000000 -15.756940 18.501529 6.120942 -1.844031 2.498503 -2.507276 -10.163590 4.678941 4.621104 -20.975996 -0.000001 0.000001 -21.226254 2.451698 -3.593995 0.000000 -0.000006 0.000000 -1.362681 2.240797 -0.746323 -21.334892 0.584910 3.008319 -13.821196 -0.000001 0.000001 -23.887129 -0.249075 -0.839485 -60.743749 2.436368 -1.173535 -0.294025 1.679686 0.833255 -14.218195 0.093215 1.300579 -34.212002 -0.287561 0.967166 -20.033176 0.964536 1.212838 0.000000 0.000000 0.000000 -3.440387 0.788233 0.501655 -15.928172 -3.167306 2.999703 -6.338817 0.000000 0.000001 -18.123419 3.648181 -4.905662 -0.000004 0.000000 -0.000002 9.050932 10.708808 16.340926 61.113174 5.685558 8.736762 179.051996 55.838281 178.735187 0.113142 4.674969 -11.082654 2.243540 -5.255033 -3.180156 14.282877 -0.826594 6.952496 0.000000 -12.690593 -0.000001 16.028177 -17.705677 2.753521 1.665665 -1.955920 -2.878297 4.727794 -4.170584 4.993919 11.020511 0.000001 -0.000000 12.109032 -3.735715 -2.866778 0.000000 0.000000 0.000000 1.291985 -1.928548 -1.498088 14.800115 0.567467 3.865604 14.242553 -1.341738 -6.660648 19.631935 0.143921 -0.648243 50.412556 -0.698897 -6.075736 0.353029 -1.511150 -0.031940 20.222769 3.684305 2.316629 18.787249 0.000001 -0.000001 10.751608 -0.479870 1.397903 0.000000 0.000000 0.000000 3.273804 0.305947 -0.580110 21.486790 11.830364 2.266131 8.162915 0.000000 0.000000 18.399052 -3.798986 -4.940567 0.000003 0.000000 -0.000001 0.440494 3.643096 -29.492888 0.202859 -0.106743 62.735841 -4.263563 5.345506 -0.024124 2.008218 -2.037385 -5.454732 0.000000 0.000000 0.000002 4.197672 -4.665789 -3.789263 -0.000739 -0.240499 24.950723 -0.005342 1.729204 0.453425 -1.404532 0.700068 -19.400424 0.000000 0.000000 -0.000001
0.000000 0.000000 0.000000 0.000000 0.000000 0.000000 -4.713715 -1.046241 111.577546 0.447108 -0.236260 9.633198 1.033275 0.732268 0.931551 -0.209339 2.319351 -4.345662 -0.046690 0.724105 9.564861 -3.509881 2.709553 -7.110075 -0.806241 -0.300407 -3.618587 0.685108 -1.883349 -16.300704 0.000077 -0.000022 0.000006 0.008290 0.087819 0.041675 0.642271 -3.665272 -10.616778 -0.639009 3.827815 -10.661861 -4.061990 -3.061249 16.671383 -66.939609 15.376583 16.342000 -179.152799 -64.938052 179.271408 1.586932 2.105109 -2.349808 -5.882102 9.861279 0.702590 -10.936861 -0.360574 7.156197 0.000000 8.774815 0.000000 -15.525773 18.437906 6.230501 -1.844031 2.498503 -2.507276 -10.163590 4.678941 4.621104 -20.975996 -0.000001 0.000001 -21.226254 2.451698 -3.593995 0.000000 -0.000006 0.000000 -1.362681 2.240797 -0.746323 -21.334892 0.584910 3.008319 -13.821196 -0.000001 0.000001 -23.887129 -0.249075 -0.839485 -60.732245 2.451943 -1.172756 -0.294025 1.679686 0.833255 -14.218195 0.093215 1.300579 -34.212002 -0.287561 0.967166 -20.033176 0.964536 1.212838 0.000000 0.000000 0.000000 -3.440387 0.788233 0.501655 -15.928172 -3.167306 2.999703 -6.338817 0.000000 0.000001 -18.123419 3.648181 -4.905662 -0.000004 0.000000 -0.000002 6.079647 12.195106 15.315761 62.643453 9.591763 11.538813 179.303869 51.917923 179.600712 0.609980 4.302902 -14.688422 2.243540 -5.255033 -3.180156 14.282877 -0.826594 6.952496 0.000000 -12.690593 -0.000001 15.949036 -17.926912 2.847596 1.665665 -1.955920 -2.878297 4.727794 -4.170584 4.993919 11.020511 0.000001 -0.000000 12.109032 -3.735715 -2.866778 0.000000 0.000000 0.000000 1.291985 -1.928548 -1.498088 14.800115 0.567467 3.865604 14.242553 -1.341738 -6.660648 19.631935 0.143921 -0.648243 50.433469 -0.645174 -6.056839 0.353029 -1.511150 -0.031940 20.222769 3.684305 2.316629 18.787249 0.000001 -0.000001 10.751608 -0.479870 1.397903 0.000000 0.000000 0.000000 3.273804 0.305947 -0.580110 21.486790 11.830364 2.266131 8.162915 0.000000 0.000000 18.399052 -3.798986 -4.940567 0.000003 0.000000 -0.000001 -2.601892 2.240392 -34.499886 0.335384 0.196850 42.976703 -5.941686 4.658136 0.149514 1.879415 -2.148621 -5.402086 0.000000 0.000000 0.000002 1.955551 -4.062612 7.785616 0.050341 -0.169185 17.298746 3.178750 0.968050 18.245607 -1.203184 0.671064 -16.511156 0.000000 0.000000 -0.000001
