HIERARCHY
ROOT Root
{
  OFFSET 0.000000 0.000000 0.000000
  CHANNELS 6 Xposition Yposition Zposition Zrotation Yrotation Xrotation
  JOINT Hips
  {
    OFFSET 0.000000 100.000000 0.000000
    CHANNELS 6 Xposition Yposition Zposition Zrotation Yrotation Xrotation
    JOINT Spine1
    {
      OFFSET -0.013727 5.003763 -0.053727
      CHANNELS 3 Zrotation Yrotation Xrotation
      JOINT Spine2
      {
        OFFSET -0.000000 7.125301 -0.029825
        CHANNELS 3 Zrotation Yrotation Xrotation
        JOINT Chest
        {
          OFFSET -0.000001 7.550063 -0.815971
          CHANNELS 3 Zrotation Yrotation Xrotation
          JOINT Neck1
          {
            OFFSET -0.181677 26.311295 -0.553348
            CHANNELS 3 Zrotation Yrotation Xrotation
            JOINT Neck2
            {
              OFFSET -0.000003 7.709397 2.302585
              CHANNELS 3 Zrotation Yrotation Xrotation
              JOINT Head
              {
                OFFSET -0.000005 6.128916 1.953709
                CHANNELS 3 Zrotation Yrotation Xrotation
                JOINT HeadEnd
                {
                  OFFSET 0.003598 16.065403 -1.835379
                  CHANNELS 3 Zrotation Yrotation Xrotation
                }
                JOINT Jaw
                {
                  OFFSET 0.002637 0.475592 3.094941
                  CHANNELS 3 Zrotation Yrotation Xrotation
                }
                JOINT LeftEye
                {
                  OFFSET 3.206381 5.380205 7.586883
                  CHANNELS 3 Zrotation Yrotation Xrotation
                }
                JOINT RightEye
                {
                  OFFSET -3.222440 5.361869 7.558234
                  CHANNELS 3 Zrotation Yrotation Xrotation
                }
              }
            }
          }
          JOINT LeftShoulder
          {
            OFFSET 1.621652 23.237164 5.113413
            CHANNELS 3 Zrotation Yrotation Xrotation
            JOINT LeftArm
            {
              OFFSET 14.919846 0.000002 -5.502326
              CHANNELS 3 Zrotation Yrotation Xrotation
              JOINT LeftForeArm
              {
                OFFSET 28.739307 0.000000 -0.002588
                CHANNELS 3 Zrotation Yrotation Xrotation
                JOINT LeftHand
                {
                  OFFSET 27.093981 -0.000001 0.002609
                  CHANNELS 3 Zrotation Yrotation Xrotation
                  JOINT LeftHandThumb1
                  {
                    OFFSET 2.276482 -1.392045 3.191413
                    CHANNELS 3 Zrotation Yrotation Xrotation
                    JOINT LeftHandThumb2
                    {
                      OFFSET 4.012836 -1.828127 1.641654
                      CHANNELS 3 Zrotation Yrotation Xrotation
                      JOINT LeftHandThumb3
                      {
                        OFFSET 2.798515 0.000000 -0.000003
                        CHANNELS 3 Zrotation Yrotation Xrotation
                        JOINT LeftHandThumbEnd
                        {
                          OFFSET 3.180793 -0.000004 0.000004
                          CHANNELS 3 Zrotation Yrotation Xrotation
                        }
                      }
                    }
                  }
                  JOINT LeftHandIndex1
                  {
                    OFFSET 3.247555 -0.531998 2.296169
                    CHANNELS 3 Zrotation Yrotation Xrotation
                    JOINT LeftHandIndex2
                    {
                      OFFSET 6.364578 0.012060 0.178600
                      CHANNELS 3 Zrotation Yrotation Xrotation
                      JOINT LeftHandIndex3
                      {
                        OFFSET 3.662364 0.000000 0.000000
                        CHANNELS 3 Zrotation Yrotation Xrotation
                        JOINT LeftHandIndex4
                        {
                          OFFSET 2.329242 0.000004 0.000004
                          CHANNELS 3 Zrotation Yrotation Xrotation
                          JOINT LeftHandIndexEnd
                          {
                            OFFSET 2.759615 -0.180537 -0.113024
                            CHANNELS 3 Zrotation Yrotation Xrotation
                          }
                        }
                      }
                    }
                  }
                  JOINT LeftHandMiddle1
                  {
                    OFFSET 3.163495 0.240981 1.000332
                    CHANNELS 3 Zrotation Yrotation Xrotation
                    JOINT LeftHandMiddle2
                    {
                      OFFSET 6.190780 -0.259278 -1.002548
                      CHANNELS 3 Zrotation Yrotation Xrotation
                      JOINT LeftHandMiddle3
                      {
                        OFFSET 4.356520 -0.000004 -0.000001
                        CHANNELS 3 Zrotation Yrotation Xrotation
                        JOINT LeftHandMiddle4
                        {
                          OFFSET 2.996877 -0.000008 0.000000
                          CHANNELS 3 Zrotation Yrotation Xrotation
                          JOINT LeftHandMiddleEnd
                          {
                            OFFSET 2.304287 -0.294569 -0.031741
                            CHANNELS 3 Zrotation Yrotation Xrotation
                          }
                        }
                      }
                    }
                  }
                  JOINT LeftHandRing1
                  {
                    OFFSET 2.882643 -0.053652 -0.322543
                    CHANNELS 3 Zrotation Yrotation Xrotation
                    JOINT LeftHandRing2
                    {
                      OFFSET 5.854541 -0.486202 -1.373841
                      CHANNELS 3 Zrotation Yrotation Xrotation
                      JOINT LeftHandRing3
                      {
                        OFFSET 4.350578 0.000000 0.000003
                        CHANNELS 3 Zrotation Yrotation Xrotation
                        JOINT LeftHandRing4
                        {
                          OFFSET 2.651321 0.000007 0.000002
                          CHANNELS 3 Zrotation Yrotation Xrotation
                          JOINT LeftHandRingEnd
                          {
                            OFFSET 1.936105 0.077687 -0.000071
                            CHANNELS 3 Zrotation Yrotation Xrotation
                          }
                        }
                      }
                    }
                  }
                  JOINT LeftHandPinky1
                  {
                    OFFSET 2.865500 -0.310005 -1.600378
                    CHANNELS 3 Zrotation Yrotation Xrotation
                    JOINT LeftHandPinky2
                    {
                      OFFSET 5.087849 -1.331141 -1.771230
                      CHANNELS 3 Zrotation Yrotation Xrotation
                      JOINT LeftHandPinky3
                      {
                        OFFSET 3.070974 0.000004 0.000000
                        CHANNELS 3 Zrotation Yrotation Xrotation
                        JOINT LeftHandPinky4
                        {
                          OFFSET 1.549672 0.000000 0.000001
                          CHANNELS 3 Zrotation Yrotation Xrotation
                          JOINT LeftHandPinkyEnd
                          {
                            OFFSET 1.944893 -0.157802 0.057219
                            CHANNELS 3 Zrotation Yrotation Xrotation
                          }
                        }
                      }
                    }
                  }
                }
              }
            }
          }
          JOINT RightShoulder
          {
            OFFSET -1.380118 23.180309 5.214158
            CHANNELS 3 Zrotation Yrotation Xrotation
            JOINT RightArm
            {
              OFFSET -15.037196 0.000012 -5.545604
              CHANNELS 3 Zrotation Yrotation Xrotation
              JOINT RightForeArm
              {
                OFFSET -28.736639 0.000002 -0.002597
                CHANNELS 3 Zrotation Yrotation Xrotation
                JOINT RightHand
                {
                  OFFSET -27.133619 -0.000000 0.002613
                  CHANNELS 3 Zrotation Yrotation Xrotation
                  JOINT RightHandThumb1
                  {
                    OFFSET -2.274032 -1.383988 3.163127
                    CHANNELS 3 Zrotation Yrotation Xrotation
                    JOINT RightHandThumb2
                    {
                      OFFSET -4.011429 -1.827466 1.640914
                      CHANNELS 3 Zrotation Yrotation Xrotation
                      JOINT RightHandThumb3
                      {
                        OFFSET -2.794935 -0.000004 -0.000003
                        CHANNELS 3 Zrotation Yrotation Xrotation
                        JOINT RightHandThumbEnd
                        {
                          OFFSET -3.183852 0.000004 0.000001
                          CHANNELS 3 Zrotation Yrotation Xrotation
                        }
                      }
                    }
                  }
                  JOINT RightHandIndex1
                  {
                    OFFSET -3.253266 -0.520057 2.282866
                    CHANNELS 3 Zrotation Yrotation Xrotation
                    JOINT RightHandIndex2
                    {
                      OFFSET -6.341917 0.012471 0.178266
                      CHANNELS 3 Zrotation Yrotation Xrotation
                      JOINT RightHandIndex3
                      {
                        OFFSET -3.654871 -0.000008 -0.000000
                        CHANNELS 3 Zrotation Yrotation Xrotation
                        JOINT RightHandIndex4
                        {
                          OFFSET -2.327586 0.000000 0.000001
                          CHANNELS 3 Zrotation Yrotation Xrotation
                          JOINT RightHandIndexEnd
                          {
                            OFFSET -2.761790 -0.180656 -0.113078
                            CHANNELS 3 Zrotation Yrotation Xrotation
                          }
                        }
                      }
                    }
                  }
                  JOINT RightHandMiddle1
                  {
                    OFFSET -3.168106 0.246593 1.001030
                    CHANNELS 3 Zrotation Yrotation Xrotation
                    JOINT RightHandMiddle2
                    {
                      OFFSET -6.180828 -0.258836 -1.000895
                      CHANNELS 3 Zrotation Yrotation Xrotation
                      JOINT RightHandMiddle3
                      {
                        OFFSET -4.348901 0.000000 -0.000000
                        CHANNELS 3 Zrotation Yrotation Xrotation
                        JOINT RightHandMiddle4
                        {
                          OFFSET -3.000240 -0.000004 -0.000002
                          CHANNELS 3 Zrotation Yrotation Xrotation
                          JOINT RightHandMiddleEnd
                          {
                            OFFSET -2.302520 -0.294370 -0.031706
                            CHANNELS 3 Zrotation Yrotation Xrotation
                          }
                        }
                      }
                    }
                  }
                  JOINT RightHandRing1
                  {
                    OFFSET -2.885690 -0.067952 -0.308858
                    CHANNELS 3 Zrotation Yrotation Xrotation
                    JOINT RightHandRing2
                    {
                      OFFSET -5.854198 -0.486130 -1.373731
                      CHANNELS 3 Zrotation Yrotation Xrotation
                      JOINT RightHandRing3
                      {
                        OFFSET -4.338810 -0.000004 -0.000000
                        CHANNELS 3 Zrotation Yrotation Xrotation
                        JOINT RightHandRing4
                        {
                          OFFSET -2.654903 -0.000004 0.000004
                          CHANNELS 3 Zrotation Yrotation Xrotation
                          JOINT RightHandRingEnd
                          {
                            OFFSET -1.933568 0.077527 -0.000052
                            CHANNELS 3 Zrotation Yrotation Xrotation
                          }
                        }
                      }
                    }
                  }
                  JOINT RightHandPinky1
                  {
                    OFFSET -2.866425 -0.342796 -1.584145
                    CHANNELS 3 Zrotation Yrotation Xrotation
                    JOINT RightHandPinky2
                    {
                      OFFSET -5.091371 -1.332055 -1.772385
                      CHANNELS 3 Zrotation Yrotation Xrotation
                      JOINT RightHandPinky3
                      {
                        OFFSET -3.062664 -0.000004 0.000001
                        CHANNELS 3 Zrotation Yrotation Xrotation
                        JOINT RightHandPinky4
                        {
                          OFFSET -1.546529 0.000004 -0.000002
                          CHANNELS 3 Zrotation Yrotation Xrotation
                          JOINT RightHandPinkyEnd
                          {
                            OFFSET -1.945119 -0.157718 0.057211
                            CHANNELS 3 Zrotation Yrotation Xrotation
                          }
                        }
                      }
                    }
                  }
                }
              }
            }
          }
        }
      }
    }
    JOINT LeftLeg
    {
      OFFSET 10.043214 -8.434526 2.595655
      CHANNELS 3 Zrotation Yrotation Xrotation
      JOINT LeftShin
      {
        OFFSET -0.000001 -43.221752 -0.802913
        CHANNELS 3 Zrotation Yrotation Xrotation
        JOINT LeftFoot
        {
          OFFSET 0.000001 -42.155094 -3.481523
          CHANNELS 3 Zrotation Yrotation Xrotation
          JOINT LeftToeBase
          {
            OFFSET 0.000000 -5.059472 13.231529
            CHANNELS 3 Zrotation Yrotation Xrotation
            JOINT LeftToeEnd
            {
              OFFSET -0.009607 -1.647619 6.513017
              CHANNELS 3 Zrotation Yrotation Xrotation
            }
          }
        }
      }
    }
    JOINT RightLeg
    {
      OFFSET -10.047278 -8.295260 2.620317
      CHANNELS 3 Zrotation Yrotation Xrotation
      JOINT RightShin
      {
        OFFSET 0.000001 -43.362206 -0.805556
        CHANNELS 3 Zrotation Yrotation Xrotation
        JOINT RightFoot
        {
          OFFSET 0.000002 -42.117393 -3.478398
          CHANNELS 3 Zrotation Yrotation Xrotation
          JOINT RightToeBase
          {
            OFFSET -0.000000 -5.079609 13.284196
            CHANNELS 3 Zrotation Yrotation Xrotation
            JOINT RightToeEnd
            {
              OFFSET 0.009532 -1.634378 6.460591
              CHANNELS 3 Zrotation Yrotation Xrotation
            }
          }
        }
      }
    }
  }
}
MOTION
Frames: 30
Frame Time: 0.03333333
0.000000 0.000000 0.000000 0.000000 -0.000000 0.000000 0.192289 -1.993714 -0.320389 24.309580 80.519226 27.491835 -0.920077 -1.843659 5.481437 0.561801 -5.108078 -4.214686 5.142951 -9.629263 17.747494 17.566677 -5.484036 7.801538 -5.950528 -20.160870 -2.129931 12.915869 -29.235945 -3.364374 0.000077 -0.000022 0.000006 -0.202236 0.308610 -0.282443 0.702061 -3.471596 -10.688011 -1.107451 4.082110 -10.816217 35.620285 -36.894432 2.286842 -113.455978 -39.132290 94.268097 166.412964 -74.371155 -169.320709 -17.887074 -3.373869 -32.212124 -5.882102 9.861279 0.702590 -10.936861 -0.360574 7.156197 0.000000 8.774815 -0.000000 -16.300537 17.623207 5.866233 -1.844031 2.498503 -2.507276 -10.163590 4.678941 4.621104 -20.975996 -0.000001 0.000001 -21.226254 2.451698 -3.593995 0.000000 -0.000006 -0.000000 -1.362681 2.240797 -0.746323 -21.334892 0.584910 3.008319 -13.821196 -0.000001 0.000001 -23.887129 -0.249075 -0.839485 -60.499939 2.298711 -0.648360 -0.294025 1.679686 0.833255 -14.218195 0.093215 1.300579 -34.212002 -0.287561 0.967166 -20.033176 0.964536 1.212838 0.000000 -0.000000 0.000000 -3.440387 0.788233 0.501655 -15.928172 -3.167306 2.999703 -6.338817 -0.000000 0.000001 -18.123419 3.648181 -4.905662 -0.000004 0.000000 -0.000002 -2.051939 21.429569 17.994377 84.868050 31.998180 18.867283 -172.330597 81.430603 -171.467255 -10.244139 5.799817 1.193307 2.243540 -5.255033 -3.180156 14.282877 -0.826594 6.952496 -0.000000 -12.690593 -0.000001 15.050876 -17.016523 3.565859 1.665665 -1.955920 -2.878297 4.727794 -4.170584 4.993919 11.020511 0.000001 -0.000000 12.109032 -3.735715 -2.866778 0.000000 -0.000000 0.000000 1.291985 -1.928548 -1.498088 14.800115 0.567467 3.865604 14.242553 -1.341738 -6.660648 19.631935 0.143921 -0.648243 50.598869 -0.380816 -5.571192 0.353029 -1.511150 -0.031940 20.222769 3.684305 2.316629 18.787249 0.000001 -0.000001 10.751608 -0.479870 1.397903 0.000000 -0.000000 0.000000 3.273804 0.305947 -0.580110 21.486790 11.830364 2.266131 8.162915 0.000000 -0.000000 18.399052 -3.798986 -4.940567 0.000003 0.000000 -0.000001 -5.581987 -2.966814 -19.959415 0.081298 0.510660 25.755718 2.732846 -17.010107 -7.966365 1.671654 -1.666677 0.229719 0.000000 -0.000000 0.000002 -8.589753 -35.902874 -6.477295 0.041293 -0.070988 27.119627 12.987172 -14.616354 -18.489670 -1.438425 1.211772 -0.615316 0.000000 -0.000000 -0.000001
0.000000 0.000000 0.000000 0.000000 -0.000000 0.000000 0.192289 -1.899186 -0.320389 24.115197 80.523698 27.459357 -0.805515 -1.797165 5.452242 0.590837 -4.923885 -4.232739 5.200860 -9.340091 17.717607 17.071238 -5.273390 7.791012 -5.860801 -19.886497 -2.127370 13.001652 -29.050482 -3.481895 0.000077 -0.000022 0.000006 -0.217271 0.316633 -0.298354 0.682930 -3.462639 -10.695314 -1.118103 4.089472 -10.833338 35.612705 -36.553188 2.119689 -113.284157 -38.444996 93.902222 166.070816 -74.493774 -169.005997 -17.855001 -3.144979 -32.212807 -5.882102 9.861279 0.702590 -10.936861 -0.360574 7.156197 0.000000 8.774815 -0.000000 -16.113974 17.550215 5.899832 -1.844031 2.498503 -2.507276 -10.163590 4.678941 4.621104 -20.975996 -0.000001 0.000001 -21.226254 2.451698 -3.593995 0.000000 -0.000006 -0.000000 -1.362681 2.240797 -0.746323 -21.334892 0.584910 3.008319 -13.821196 -0.000001 0.000001 -23.887129 -0.249075 -0.839485 -60.536221 2.267667 -0.647278 -0.294025 1.679686 0.833255 -14.218195 0.093215 1.300579 -34.212002 -0.287561 0.967166 -20.033176 0.964536 1.212838 0.000000 -0.000000 0.000000 -3.440387 0.788233 0.501655 -15.928172 -3.167306 2.999703 -6.338817 -0.000000 0.000001 -18.123419 3.648181 -4.905662 -0.000004 0.000000 -0.000002 -1.974767 21.550619 18.108122 84.445923 31.763256 18.779705 -172.446976 81.190277 -171.562653 -10.402928 5.418000 1.314641 2.243540 -5.255033 -3.180156 14.282877 -0.826594 6.952496 -0.000000 -12.690593 -0.000001 15.159407 -16.977638 3.465739 1.665665 -1.955920 -2.878297 4.727794 -4.170584 4.993919 11.020511 0.000001 -0.000000 12.109032 -3.735715 -2.866778 0.000000 -0.000000 0.000000 1.291985 -1.928548 -1.498088 14.800115 0.567467 3.865604 14.242553 -1.341738 -6.660648 19.631935 0.143921 -0.648243 50.584351 -0.381518 -5.544537 0.353029 -1.511150 -0.031940 20.222769 3.684305 2.316629 18.787249 0.000001 -0.000001 10.751608 -0.479870 1.397903 0.000000 -0.000000 0.000000 3.273804 0.305947 -0.580110 21.486790 11.830364 2.266131 8.162915 0.000000 -0.000000 18.399052 -3.798986 -4.940567 0.000003 0.000000 -0.000001 -5.481326 -2.679343 -19.799986 0.075716 0.477285 25.292473 2.566400 -16.624035 -7.939494 1.668281 -1.630197 0.278945 0.000000 -0.000000 0.000002 -8.318875 -35.316528 -6.550775 0.046647 -0.057762 26.632816 12.787115 -14.666535 -18.304119 -1.436654 1.215162 -0.620403 0.000000 -0.000000 -0.000001
0.000000 0.000000 0.000000 0.000000 -0.000000 0.000000 0.192289 -1.802430 -0.320389 24.197330 80.491653 27.866278 -0.739322 -1.705432 5.407715 0.633219 -4.778275 -4.225796 5.240360 -9.011795 17.685892 16.733780 -5.077156 7.851376 -5.787894 -19.446795 -2.173445 13.078061 -28.747627 -3.610961 0.000077 -0.000022 0.000006 -0.238881 0.337338 -0.299644 0.647110 -3.447643 -10.696927 -1.125011 4.115720 -10.835049 35.834476 -36.133873 1.973532 -113.192871 -37.689621 93.546478 165.348785 -74.532516 -168.442719 -17.791327 -2.585320 -32.124561 -5.882102 9.861279 0.702590 -10.936861 -0.360574 7.156197 0.000000 8.774815 -0.000000 -16.059992 17.645281 5.936218 -1.844031 2.498503 -2.507276 -10.163590 4.678941 4.621104 -20.975996 -0.000001 0.000001 -21.226254 2.451698 -3.593995 0.000000 -0.000006 -0.000000 -1.362681 2.240797 -0.746323 -21.334892 0.584910 3.008319 -13.821196 -0.000001 0.000001 -23.887129 -0.249075 -0.839485 -60.573883 2.251641 -0.655443 -0.294025 1.679686 0.833255 -14.218195 0.093215 1.300579 -34.212002 -0.287561 0.967166 -20.033176 0.964536 1.212838 0.000000 -0.000000 0.000000 -3.440387 0.788233 0.501655 -15.928172 -3.167306 2.999703 -6.338817 -0.000000 0.000001 -18.123419 3.648181 -4.905662 -0.000004 0.000000 -0.000002 -2.101593 21.782360 18.072969 84.303574 31.586576 18.633745 -174.375748 81.038269 -173.560150 -10.712108 4.886131 1.878359 2.243540 -5.255033 -3.180156 14.282877 -0.826594 6.952496 -0.000000 -12.690593 -0.000001 15.053246 -16.992167 3.491341 1.665665 -1.955920 -2.878297 4.727794 -4.170584 4.993919 11.020511 0.000001 -0.000000 12.109032 -3.735715 -2.866778 0.000000 -0.000000 0.000000 1.291985 -1.928548 -1.498088 14.800115 0.567467 3.865604 14.242553 -1.341738 -6.660648 19.631935 0.143921 -0.648243 50.585888 -0.397159 -5.526433 0.353029 -1.511150 -0.031940 20.222769 3.684305 2.316629 18.787249 0.000001 -0.000001 10.751608 -0.479870 1.397903 0.000000 -0.000000 0.000000 3.273804 0.305947 -0.580110 21.486790 11.830364 2.266131 8.162915 0.000000 -0.000000 18.399052 -3.798986 -4.940567 0.000003 0.000000 -0.000001 -5.466171 -2.370688 -19.867617 0.082527 0.481628 24.877502 2.421289 -16.101860 -7.733893 1.665665 -1.597047 0.296170 0.000000 -0.000000 0.000002 -8.019970 -34.734913 -6.995818 0.043142 -0.050103 26.303171 12.473701 -14.529403 -18.073738 -1.437160 1.218879 -0.564302 0.000000 -0.000000 -0.000001
0.000000 0.000000 0.000000 0.000000 -0.000000 0.000000 0.192289 -1.704774 -0.320389 24.438568 80.435619 28.548828 -0.743389 -1.588251 5.418476 0.672822 -4.611140 -4.179166 5.259695 -8.598986 17.674681 16.445395 -4.908150 8.066541 -5.654883 -18.878424 -2.231164 13.209427 -28.198574 -3.688160 0.000077 -0.000022 0.000006 -0.253958 0.347660 -0.298374 0.611131 -3.445419 -10.710558 -1.118487 4.134006 -10.845873 36.259632 -35.636898 1.779649 -113.272614 -36.852142 93.145432 164.285797 -74.606781 -167.516266 -17.589563 -1.972731 -32.447807 -5.882102 9.861279 0.702590 -10.936861 -0.360574 7.156197 0.000000 8.774815 -0.000000 -16.052540 17.772194 5.964748 -1.844031 2.498503 -2.507276 -10.163590 4.678941 4.621104 -20.975996 -0.000001 0.000001 -21.226254 2.451698 -3.593995 0.000000 -0.000006 -0.000000 -1.362681 2.240797 -0.746323 -21.334892 0.584910 3.008319 -13.821196 -0.000001 0.000001 -23.887129 -0.249075 -0.839485 -60.728195 2.234360 -0.706358 -0.294025 1.679686 0.833255 -14.218195 0.093215 1.300579 -34.212002 -0.287561 0.967166 -20.033176 0.964536 1.212838 0.000000 -0.000000 0.000000 -3.440387 0.788233 0.501655 -15.928172 -3.167306 2.999703 -6.338817 -0.000000 0.000001 -18.123419 3.648181 -4.905662 -0.000004 0.000000 -0.000002 -2.389884 22.133585 18.035744 84.428505 31.716564 18.695932 -176.595413 80.907440 -175.806198 -11.014993 4.359197 2.799783 2.243540 -5.255033 -3.180156 14.282877 -0.826594 6.952496 -0.000000 -12.690593 -0.000001 14.902555 -17.084896 3.490197 1.665665 -1.955920 -2.878297 4.727794 -4.170584 4.993919 11.020511 0.000001 -0.000000 12.109032 -3.735715 -2.866778 0.000000 -0.000000 0.000000 1.291985 -1.928548 -1.498088 14.800115 0.567467 3.865604 14.242553 -1.341738 -6.660648 19.631935 0.143921 -0.648243 50.529625 -0.396269 -5.563754 0.353029 -1.511150 -0.031940 20.222769 3.684305 2.316629 18.787249 0.000001 -0.000001 10.751608 -0.479870 1.397903 0.000000 -0.000000 0.000000 3.273804 0.305947 -0.580110 21.486790 11.830364 2.266131 8.162915 0.000000 -0.000000 18.399052 -3.798986 -4.940567 0.000003 0.000000 -0.000001 -5.507991 -1.851560 -20.092182 0.079544 0.473713 24.505379 2.244889 -15.384347 -7.483497 1.665513 -1.569270 0.336024 0.000000 -0.000000 0.000002 -7.656496 -33.910172 -7.820716 0.021175 -0.044424 26.196669 12.144351 -14.248197 -17.821907 -1.440493 1.216115 -0.484704 0.000000 -0.000000 -0.000001
0.000000 0.000000 0.000000 0.000000 -0.000000 0.000000 0.192289 -1.636262 -0.320389 24.901116 80.354523 29.482888 -0.805368 -1.498986 5.497307 0.706270 -4.422180 -4.096124 5.259908 -8.163259 17.701412 16.256222 -4.826049 8.432950 -5.514740 -18.192326 -2.304939 13.428129 -27.495373 -3.745049 0.000077 -0.000022 0.000006 -0.261647 0.348092 -0.290536 0.584844 -3.458920 -10.748739 -1.106780 4.147859 -10.876691 36.681801 -35.106056 1.700553 -113.516090 -36.082741 92.811661 163.152863 -74.777687 -166.429428 -17.289577 -1.385419 -32.929390 -5.882102 9.861279 0.702590 -10.936861 -0.360574 7.156197 0.000000 8.774815 -0.000000 -16.110973 17.863905 5.920018 -1.844031 2.498503 -2.507276 -10.163590 4.678941 4.621104 -20.975996 -0.000001 0.000001 -21.226254 2.451698 -3.593995 0.000000 -0.000006 -0.000000 -1.362681 2.240797 -0.746323 -21.334892 0.584910 3.008319 -13.821196 -0.000001 0.000001 -23.887129 -0.249075 -0.839485 -60.842972 2.234257 -0.846092 -0.294025 1.679686 0.833255 -14.218195 0.093215 1.300579 -34.212002 -0.287561 0.967166 -20.033176 0.964536 1.212838 0.000000 -0.000000 0.000000 -3.440387 0.788233 0.501655 -15.928172 -3.167306 2.999703 -6.338817 -0.000000 0.000001 -18.123419 3.648181 -4.905662 -0.000004 0.000000 -0.000002 -2.834143 22.570261 17.960098 84.856224 32.037121 18.912334 -178.486786 80.573456 -177.620316 -11.167892 4.028308 3.623108 2.243540 -5.255033 -3.180156 14.282877 -0.826594 6.952496 -0.000000 -12.690593 -0.000001 14.780742 -17.237001 3.451614 1.665665 -1.955920 -2.878297 4.727794 -4.170584 4.993919 11.020511 0.000001 -0.000000 12.109032 -3.735715 -2.866778 0.000000 -0.000000 0.000000 1.291985 -1.928548 -1.498088 14.800115 0.567467 3.865604 14.242553 -1.341738 -6.660648 19.631935 0.143921 -0.648243 50.495018 -0.408141 -5.678299 0.353029 -1.511150 -0.031940 20.222769 3.684305 2.316629 18.787249 0.000001 -0.000001 10.751608 -0.479870 1.397903 0.000000 -0.000000 0.000000 3.273804 0.305947 -0.580110 21.486790 11.830364 2.266131 8.162915 0.000000 -0.000000 18.399052 -3.798986 -4.940567 0.000003 0.000000 -0.000001 -5.614249 -1.218173 -20.460272 0.071632 0.467594 24.309412 2.043144 -14.612818 -7.264990 1.669823 -1.568900 0.353411 0.000000 -0.000000 0.000002 -7.311793 -32.955128 -8.863538 -0.010829 -0.028192 26.357300 11.870704 -13.950795 -17.668905 -1.445604 1.204373 -0.410468 0.000000 -0.000000 -0.000001
0.000000 0.000000 0.000000 0.000000 -0.000000 0.000000 0.192289 -1.653726 -0.320389 25.416402 80.272774 30.374037 -0.886174 -1.449940 5.665495 0.722558 -4.235262 -3.987501 5.252735 -7.797590 17.810987 16.199383 -4.830001 8.837687 -5.411413 -17.533230 -2.386409 13.598519 -26.738504 -3.785382 0.000077 -0.000022 0.000006 -0.260118 0.337393 -0.275332 0.580308 -3.482716 -10.791149 -1.098927 4.149617 -10.911314 36.946743 -34.619133 1.844175 -113.899971 -35.518139 92.552635 162.399643 -75.139618 -165.611755 -16.885668 -0.871872 -33.214352 -5.882102 9.861279 0.702590 -10.936861 -0.360574 7.156197 0.000000 8.774815 -0.000000 -16.156044 17.897013 5.876277 -1.844031 2.498503 -2.507276 -10.163590 4.678941 4.621104 -20.975996 -0.000001 0.000001 -21.226254 2.451698 -3.593995 0.000000 -0.000006 -0.000000 -1.362681 2.240797 -0.746323 -21.334892 0.584910 3.008319 -13.821196 -0.000001 0.000001 -23.887129 -0.249075 -0.839485 -60.819626 2.264216 -0.986556 -0.294025 1.679686 0.833255 -14.218195 0.093215 1.300579 -34.212002 -0.287561 0.967166 -20.033176 0.964536 1.212838 0.000000 -0.000000 0.000000 -3.440387 0.788233 0.501655 -15.928172 -3.167306 2.999703 -6.338817 -0.000000 0.000001 -18.123419 3.648181 -4.905662 -0.000004 0.000000 -0.000002 -3.392376 23.057924 17.786428 85.547127 32.395496 19.027853 179.531189 79.976242 -179.558563 -11.166970 3.908762 4.293251 2.243540 -5.255033 -3.180156 14.282877 -0.826594 6.952496 -0.000000 -12.690593 -0.000001 14.744690 -17.400803 3.391619 1.665665 -1.955920 -2.878297 4.727794 -4.170584 4.993919 11.020511 0.000001 -0.000000 12.109032 -3.735715 -2.866778 0.000000 -0.000000 0.000000 1.291985 -1.928548 -1.498088 14.800115 0.567467 3.865604 14.242553 -1.341738 -6.660648 19.631935 0.143921 -0.648243 50.524349 -0.426751 -5.820662 0.353029 -1.511150 -0.031940 20.222769 3.684305 2.316629 18.787249 0.000001 -0.000001 10.751608 -0.479870 1.397903 0.000000 -0.000000 0.000000 3.273804 0.305947 -0.580110 21.486790 11.830364 2.266131 8.162915 0.000000 -0.000000 18.399052 -3.798986 -4.940567 0.000003 0.000000 -0.000001 -5.744580 -0.536730 -20.917114 0.057740 0.469715 24.438643 1.918654 -13.990890 -7.263857 1.673766 -1.588166 0.347833 0.000000 -0.000000 0.000002 -7.057806 -32.033066 -9.949372 -0.040163 -0.001937 26.902369 11.748224 -13.690655 -17.775686 -1.453543 1.187840 -0.343980 0.000000 -0.000000 -0.000001
0.000000 0.000000 0.000000 0.000000 -0.000000 0.000000 0.192289 -1.746697 -0.320389 25.790790 80.217899 30.944498 -0.964767 -1.421358 5.882928 0.697406 -4.108340 -3.893231 5.239616 -7.552310 18.066128 16.173628 -4.856813 9.256644 -5.234212 -17.021265 -2.459169 13.607280 -26.058619 -3.820502 0.000077 -0.000022 0.000006 -0.246618 0.311104 -0.249593 0.596617 -3.514159 -10.791816 -1.088837 4.128387 -10.909982 36.861988 -34.349720 2.270932 -114.233101 -35.152142 92.215721 161.902756 -75.755913 -165.125717 -16.481314 -0.525624 -33.213764 -5.882102 9.861279 0.702590 -10.936861 -0.360574 7.156197 0.000000 8.774815 -0.000000 -16.141104 17.848455 5.908244 -1.844031 2.498503 -2.507276 -10.163590 4.678941 4.621104 -20.975996 -0.000001 0.000001 -21.226254 2.451698 -3.593995 0.000000 -0.000006 -0.000000 -1.362681 2.240797 -0.746323 -21.334892 0.584910 3.008319 -13.821196 -0.000001 0.000001 -23.887129 -0.249075 -0.839485 -60.652081 2.307738 -0.974669 -0.294025 1.679686 0.833255 -14.218195 0.093215 1.300579 -34.212002 -0.287561 0.967166 -20.033176 0.964536 1.212838 0.000000 -0.000000 0.000000 -3.440387 0.788233 0.501655 -15.928172 -3.167306 2.999703 -6.338817 -0.000000 0.000001 -18.123419 3.648181 -4.905662 -0.000004 0.000000 -0.000002 -3.893375 23.453423 17.636803 86.265633 32.806713 18.964968 178.040802 79.545898 178.830139 -11.168678 3.847311 4.906427 2.243540 -5.255033 -3.180156 14.282877 -0.826594 6.952496 -0.000000 -12.690593 -0.000001 14.734194 -17.439402 3.324418 1.665665 -1.955920 -2.878297 4.727794 -4.170584 4.993919 11.020511 0.000001 -0.000000 12.109032 -3.735715 -2.866778 0.000000 -0.000000 0.000000 1.291985 -1.928548 -1.498088 14.800115 0.567467 3.865604 14.242553 -1.341738 -6.660648 19.631935 0.143921 -0.648243 50.554321 -0.412292 -5.911109 0.353029 -1.511150 -0.031940 20.222769 3.684305 2.316629 18.787249 0.000001 -0.000001 10.751608 -0.479870 1.397903 0.000000 -0.000000 0.000000 3.273804 0.305947 -0.580110 21.486790 11.830364 2.266131 8.162915 0.000000 -0.000000 18.399052 -3.798986 -4.940567 0.000003 0.000000 -0.000001 -5.851027 0.145491 -21.333767 0.052206 0.493891 24.855837 1.952849 -13.627262 -7.579906 1.671098 -1.584372 0.337062 0.000000 -0.000000 0.000002 -6.932786 -31.302385 -10.856847 -0.043783 0.041306 27.700361 11.792934 -13.437891 -18.068594 -1.463704 1.190173 -0.266689 0.000000 -0.000000 -0.000001
0.000000 0.000000 0.000000 0.000000 -0.000000 0.000000 0.192289 -1.900590 -0.320389 25.838639 80.213982 30.980599 -1.019766 -1.414020 6.094711 0.640786 -4.039770 -3.826259 5.209301 -7.508354 18.417017 16.115725 -4.859379 9.580139 -4.997573 -16.717688 -2.517926 13.460642 -25.583220 -3.890913 0.000077 -0.000022 0.000006 -0.232476 0.286937 -0.231604 0.616173 -3.530268 -10.723763 -1.081367 4.097113 -10.844414 36.415787 -34.379608 2.934646 -114.345619 -34.891506 91.626770 161.292358 -76.479202 -164.752136 -16.211515 -0.534570 -33.146530 -5.882102 9.861279 0.702590 -10.936861 -0.360574 7.156197 0.000000 8.774815 -0.000000 -16.065157 17.690346 5.910007 -1.844031 2.498503 -2.507276 -10.163590 4.678941 4.621104 -20.975996 -0.000001 0.000001 -21.226254 2.451698 -3.593995 0.000000 -0.000006 -0.000000 -1.362681 2.240797 -0.746323 -21.334892 0.584910 3.008319 -13.821196 -0.000001 0.000001 -23.887129 -0.249075 -0.839485 -60.291561 2.360598 -0.861259 -0.294025 1.679686 0.833255 -14.218195 0.093215 1.300579 -34.212002 -0.287561 0.967166 -20.033176 0.964536 1.212838 0.000000 -0.000000 0.000000 -3.440387 0.788233 0.501655 -15.928172 -3.167306 2.999703 -6.338817 -0.000000 0.000001 -18.123419 3.648181 -4.905662 -0.000004 0.000000 -0.000002 -4.216138 23.635567 17.622154 86.828819 33.171341 18.998138 178.190506 79.651833 178.624664 -11.308064 3.781660 4.994545 2.243540 -5.255033 -3.180156 14.282877 -0.826594 6.952496 -0.000000 -12.690593 -0.000001 14.804324 -17.302128 3.308355 1.665665 -1.955920 -2.878297 4.727794 -4.170584 4.993919 11.020511 0.000001 -0.000000 12.109032 -3.735715 -2.866778 0.000000 -0.000000 0.000000 1.291985 -1.928548 -1.498088 14.800115 0.567467 3.865604 14.242553 -1.341738 -6.660648 19.631935 0.143921 -0.648243 50.637836 -0.392234 -5.886845 0.353029 -1.511150 -0.031940 20.222769 3.684305 2.316629 18.787249 0.000001 -0.000001 10.751608 -0.479870 1.397903 0.000000 -0.000000 0.000000 3.273804 0.305947 -0.580110 21.486790 11.830364 2.266131 8.162915 0.000000 -0.000000 18.399052 -3.798986 -4.940567 0.000003 0.000000 -0.000001 -5.884834 0.760125 -21.632832 0.070038 0.538135 25.511917 2.095574 -13.522661 -8.112011 1.661967 -1.589768 0.335359 0.000000 -0.000000 0.000002 -6.936288 -30.977783 -11.402967 -0.018412 0.076810 28.563055 11.912233 -13.051069 -18.458614 -1.470573 1.201338 -0.250311 0.000000 -0.000000 -0.000001
0.000000 0.000000 0.000000 0.000000 -0.000000 0.000000 0.192289 -2.035501 -0.320389 25.268377 80.285105 30.255221 -1.008354 -1.442753 6.238089 0.585656 -4.027198 -3.806779 5.172080 -7.626100 18.764383 15.957016 -4.823060 9.701673 -4.848382 -16.538696 -2.530201 13.246113 -25.377934 -4.016066 0.000077 -0.000022 0.000006 -0.234472 0.286422 -0.234989 0.616430 -3.515796 -10.651216 -1.086540 4.082478 -10.778544 35.718647 -34.570015 3.704462 -114.177490 -34.670109 90.804207 160.144409 -76.979828 -164.050262 -16.006779 -0.782104 -33.249039 -5.882102 9.861279 0.702590 -10.936861 -0.360574 7.156197 0.000000 8.774815 -0.000000 -15.999805 17.487988 5.888906 -1.844031 2.498503 -2.507276 -10.163590 4.678941 4.621104 -20.975996 -0.000001 0.000001 -21.226254 2.451698 -3.593995 0.000000 -0.000006 -0.000000 -1.362681 2.240797 -0.746323 -21.334892 0.584910 3.008319 -13.821196 -0.000001 0.000001 -23.887129 -0.249075 -0.839485 -60.030533 2.406856 -0.764901 -0.294025 1.679686 0.833255 -14.218195 0.093215 1.300579 -34.212002 -0.287561 0.967166 -20.033176 0.964536 1.212838 0.000000 -0.000000 0.000000 -3.440387 0.788233 0.501655 -15.928172 -3.167306 2.999703 -6.338817 -0.000000 0.000001 -18.123419 3.648181 -4.905662 -0.000004 0.000000 -0.000002 -4.278192 23.552992 17.856550 87.122581 33.291340 19.187311 -179.848083 80.231812 -179.770660 -11.646048 3.747187 4.442386 2.243540 -5.255033 -3.180156 14.282877 -0.826594 6.952496 -0.000000 -12.690593 -0.000001 14.925893 -17.005360 3.326666 1.665665 -1.955920 -2.878297 4.727794 -4.170584 4.993919 11.020511 0.000001 -0.000000 12.109032 -3.735715 -2.866778 0.000000 -0.000000 0.000000 1.291985 -1.928548 -1.498088 14.800115 0.567467 3.865604 14.242553 -1.341738 -6.660648 19.631935 0.143921 -0.648243 50.678783 -0.355880 -5.761322 0.353029 -1.511150 -0.031940 20.222769 3.684305 2.316629 18.787249 0.000001 -0.000001 10.751608 -0.479870 1.397903 0.000000 -0.000000 0.000000 3.273804 0.305947 -0.580110 21.486790 11.830364 2.266131 8.162915 0.000000 -0.000000 18.399052 -3.798986 -4.940567 0.000003 0.000000 -0.000001 -5.766954 1.236503 -21.755743 0.079966 0.555849 26.203537 2.268644 -13.591599 -8.602159 1.649097 -1.609540 0.367870 0.000000 -0.000000 0.000002 -6.953934 -31.053366 -11.500584 0.011646 0.094242 29.206846 12.002861 -12.618335 -18.664125 -1.469926 1.209767 -0.338519 0.000000 -0.000000 -0.000001
0.000000 0.000000 0.000000 0.000000 -0.000000 0.000000 0.192289 -2.119752 -0.320389 24.527242 80.376041 29.284029 -0.951918 -1.497703 6.321172 0.554657 -4.081383 -3.814572 5.111784 -7.854954 18.947981 15.833427 -4.830699 9.713992 -4.810507 -16.495466 -2.516661 13.061233 -25.357582 -4.127151 0.000077 -0.000022 0.000006 -0.249688 0.308607 -0.250962 0.596430 -3.485880 -10.632990 -1.097216 4.097485 -10.767214 35.157860 -34.810539 4.265667 -113.981361 -34.318817 89.879005 159.415695 -77.266228 -163.725128 -15.762652 -0.951988 -33.538727 -5.882102 9.861279 0.702590 -10.936861 -0.360574 7.156197 0.000000 8.774815 -0.000000 -15.985003 17.353825 5.887979 -1.844031 2.498503 -2.507276 -10.163590 4.678941 4.621104 -20.975996 -0.000001 0.000001 -21.226254 2.451698 -3.593995 0.000000 -0.000006 -0.000000 -1.362681 2.240797 -0.746323 -21.334892 0.584910 3.008319 -13.821196 -0.000001 0.000001 -23.887129 -0.249075 -0.839485 -60.004128 2.433305 -0.723129 -0.294025 1.679686 0.833255 -14.218195 0.093215 1.300579 -34.212002 -0.287561 0.967166 -20.033176 0.964536 1.212838 0.000000 -0.000000 0.000000 -3.440387 0.788233 0.501655 -15.928172 -3.167306 2.999703 -6.338817 -0.000000 0.000001 -18.123419 3.648181 -4.905662 -0.000004 0.000000 -0.000002 -4.130941 23.145048 18.188646 87.291145 32.957989 19.355701 -178.167862 80.866814 -178.269577 -12.163048 3.778206 3.421556 2.243540 -5.255033 -3.180156 14.282877 -0.826594 6.952496 -0.000000 -12.690593 -0.000001 15.013654 -16.741440 3.327514 1.665665 -1.955920 -2.878297 4.727794 -4.170584 4.993919 11.020511 0.000001 -0.000000 12.109032 -3.735715 -2.866778 0.000000 -0.000000 0.000000 1.291985 -1.928548 -1.498088 14.800115 0.567467 3.865604 14.242553 -1.341738 -6.660648 19.631935 0.143921 -0.648243 50.611938 -0.326462 -5.636976 0.353029 -1.511150 -0.031940 20.222769 3.684305 2.316629 18.787249 0.000001 -0.000001 10.751608 -0.479870 1.397903 0.000000 -0.000000 0.000000 3.273804 0.305947 -0.580110 21.486790 11.830364 2.266131 8.162915 0.000000 -0.000000 18.399052 -3.798986 -4.940567 0.000003 0.000000 -0.000001 -5.561690 1.349766 -21.728666 0.077865 0.544494 26.739641 2.408671 -13.802770 -9.030101 1.645149 -1.626812 0.396854 0.000000 -0.000000 0.000002 -6.976025 -31.503803 -11.185673 0.028814 0.102774 29.494427 12.063881 -12.351576 -18.737946 -1.463266 1.212484 -0.420210 0.000000 -0.000000 -0.000001
0.000000 0.000000 0.000000 0.000000 -0.000000 0.000000 0.192289 -2.151742 -0.320389 24.030217 80.437178 28.599345 -0.895058 -1.557826 6.337934 0.555313 -4.186415 -3.823068 5.070822 -8.124484 18.917625 15.829350 -4.927549 9.714851 -4.852180 -16.505722 -2.494822 13.007863 -25.487314 -4.260136 0.000077 -0.000022 0.000006 -0.261394 0.330334 -0.266674 0.577364 -3.465548 -10.661709 -1.101095 4.120803 -10.798419 34.934261 -35.080151 4.409425 -113.927444 -33.797657 89.202660 159.032700 -77.447334 -163.554123 -15.476322 -0.918964 -33.772980 -5.882102 9.861279 0.702590 -10.936861 -0.360574 7.156197 0.000000 8.774815 -0.000000 -15.919601 17.271681 5.929723 -1.844031 2.498503 -2.507276 -10.163590 4.678941 4.621104 -20.975996 -0.000001 0.000001 -21.226254 2.451698 -3.593995 0.000000 -0.000006 -0.000000 -1.362681 2.240797 -0.746323 -21.334892 0.584910 3.008319 -13.821196 -0.000001 0.000001 -23.887129 -0.249075 -0.839485 -60.046795 2.413931 -0.731890 -0.294025 1.679686 0.833255 -14.218195 0.093215 1.300579 -34.212002 -0.287561 0.967166 -20.033176 0.964536 1.212838 0.000000 -0.000000 0.000000 -3.440387 0.788233 0.501655 -15.928172 -3.167306 2.999703 -6.338817 -0.000000 0.000001 -18.123419 3.648181 -4.905662 -0.000004 0.000000 -0.000002 -3.846654 22.535923 18.500250 87.406357 32.213799 19.382584 -178.301102 81.131950 -178.386368 -12.629335 3.828275 2.268520 2.243540 -5.255033 -3.180156 14.282877 -0.826594 6.952496 -0.000000 -12.690593 -0.000001 15.063608 -16.649118 3.273335 1.665665 -1.955920 -2.878297 4.727794 -4.170584 4.993919 11.020511 0.000001 -0.000000 12.109032 -3.735715 -2.866778 0.000000 -0.000000 0.000000 1.291985 -1.928548 -1.498088 14.800115 0.567467 3.865604 14.242553 -1.341738 -6.660648 19.631935 0.143921 -0.648243 50.493752 -0.321918 -5.590164 0.353029 -1.511150 -0.031940 20.222769 3.684305 2.316629 18.787249 0.000001 -0.000001 10.751608 -0.479870 1.397903 0.000000 -0.000000 0.000000 3.273804 0.305947 -0.580110 21.486790 11.830364 2.266131 8.162915 0.000000 -0.000000 18.399052 -3.798986 -4.940567 0.000003 0.000000 -0.000001 -5.374866 1.119988 -21.671690 0.073433 0.515388 27.037825 2.451158 -14.192613 -9.139726 1.644695 -1.613018 0.406511 0.000000 -0.000000 0.000002 -6.987455 -32.141914 -10.721332 0.021913 0.078869 29.539455 12.210347 -12.361982 -18.762196 -1.456387 1.214099 -0.475014 0.000000 -0.000000 -0.000001
0.000000 0.000000 0.000000 0.000000 -0.000000 0.000000 0.192289 -2.151834 -0.320389 23.989772 80.450151 28.438889 -0.858488 -1.614579 6.299181 0.588945 -4.354422 -3.842007 5.068162 -8.405281 18.762205 15.905168 -5.113373 9.700082 -4.910669 -16.539349 -2.473655 13.077518 -25.663969 -4.452388 0.000077 -0.000022 0.000006 -0.265701 0.343961 -0.276602 0.567787 -3.453669 -10.697394 -1.099192 4.135514 -10.827064 34.961338 -35.365414 4.263235 -113.982536 -33.227879 88.798996 158.982269 -77.557961 -163.493668 -15.326181 -0.832157 -33.930107 -5.882102 9.861279 0.702590 -10.936861 -0.360574 7.156197 0.000000 8.774815 -0.000000 -15.852765 17.201481 5.937556 -1.844031 2.498503 -2.507276 -10.163590 4.678941 4.621104 -20.975996 -0.000001 0.000001 -21.226254 2.451698 -3.593995 0.000000 -0.000006 -0.000000 -1.362681 2.240797 -0.746323 -21.334892 0.584910 3.008319 -13.821196 -0.000001 0.000001 -23.887129 -0.249075 -0.839485 -59.961521 2.378461 -0.782922 -0.294025 1.679686 0.833255 -14.218195 0.093215 1.300579 -34.212002 -0.287561 0.967166 -20.033176 0.964536 1.212838 0.000000 -0.000000 0.000000 -3.440387 0.788233 0.501655 -15.928172 -3.167306 2.999703 -6.338817 -0.000000 0.000001 -18.123419 3.648181 -4.905662 -0.000004 0.000000 -0.000002 -3.566416 21.816923 18.670713 87.506584 31.237659 19.371347 -179.472458 80.961998 -179.446060 -12.827952 3.917512 1.106169 2.243540 -5.255033 -3.180156 14.282877 -0.826594 6.952496 -0.000000 -12.690593 -0.000001 15.130068 -16.656359 3.179670 1.665665 -1.955920 -2.878297 4.727794 -4.170584 4.993919 11.020511 0.000001 -0.000000 12.109032 -3.735715 -2.866778 0.000000 -0.000000 0.000000 1.291985 -1.928548 -1.498088 14.800115 0.567467 3.865604 14.242553 -1.341738 -6.660648 19.631935 0.143921 -0.648243 50.357727 -0.365055 -5.594029 0.353029 -1.511150 -0.031940 20.222769 3.684305 2.316629 18.787249 0.000001 -0.000001 10.751608 -0.479870 1.397903 0.000000 -0.000000 0.000000 3.273804 0.305947 -0.580110 21.486790 11.830364 2.266131 8.162915 0.000000 -0.000000 18.399052 -3.798986 -4.940567 0.000003 0.000000 -0.000001 -5.341867 0.693473 -21.674547 0.063731 0.471426 27.164053 2.502733 -14.779703 -8.999712 1.646769 -1.592892 0.377989 0.000000 -0.000000 0.000002 -7.023109 -32.904408 -10.323550 -0.001428 0.028722 29.494366 12.454164 -12.568420 -18.792625 -1.450955 1.203011 -0.529813 0.000000 -0.000000 -0.000001
0.000000 0.000000 0.000000 0.000000 -0.000000 0.000000 0.192289 -2.132569 -0.320389 24.346297 80.421348 28.745738 -0.829002 -1.653867 6.213640 0.644974 -4.545514 -3.865874 5.083651 -8.670550 18.578974 16.064030 -5.305397 9.643159 -4.958838 -16.665968 -2.475725 13.180324 -25.769072 -4.669690 0.000077 -0.000022 0.000006 -0.259564 0.343227 -0.280599 0.570817 -3.455640 -10.723036 -1.089230 4.135340 -10.840610 35.112133 -35.665379 4.005805 -114.036919 -32.713593 88.574951 159.029602 -77.651955 -163.457733 -15.256826 -0.854085 -34.258438 -5.882102 9.861279 0.702590 -10.936861 -0.360574 7.156197 0.000000 8.774815 -0.000000 -15.807582 17.198650 5.953111 -1.844031 2.498503 -2.507276 -10.163590 4.678941 4.621104 -20.975996 -0.000001 0.000001 -21.226254 2.451698 -3.593995 0.000000 -0.000006 -0.000000 -1.362681 2.240797 -0.746323 -21.334892 0.584910 3.008319 -13.821196 -0.000001 0.000001 -23.887129 -0.249075 -0.839485 -59.824615 2.340142 -0.798887 -0.294025 1.679686 0.833255 -14.218195 0.093215 1.300579 -34.212002 -0.287561 0.967166 -20.033176 0.964536 1.212838 0.000000 -0.000000 0.000000 -3.440387 0.788233 0.501655 -15.928172 -3.167306 2.999703 -6.338817 -0.000000 0.000001 -18.123419 3.648181 -4.905662 -0.000004 0.000000 -0.000002 -3.339396 21.093300 18.696539 87.512375 30.249996 19.384600 179.718124 80.532074 179.884888 -12.674070 4.004410 0.036857 2.243540 -5.255033 -3.180156 14.282877 -0.826594 6.952496 -0.000000 -12.690593 -0.000001 15.192223 -16.693531 3.076016 1.665665 -1.955920 -2.878297 4.727794 -4.170584 4.993919 11.020511 0.000001 -0.000000 12.109032 -3.735715 -2.866778 0.000000 -0.000000 0.000000 1.291985 -1.928548 -1.498088 14.800115 0.567467 3.865604 14.242553 -1.341738 -6.660648 19.631935 0.143921 -0.648243 50.209351 -0.421831 -5.606270 0.353029 -1.511150 -0.031940 20.222769 3.684305 2.316629 18.787249 0.000001 -0.000001 10.751608 -0.479870 1.397903 0.000000 -0.000000 0.000000 3.273804 0.305947 -0.580110 21.486790 11.830364 2.266131 8.162915 0.000000 -0.000000 18.399052 -3.798986 -4.940567 0.000003 0.000000 -0.000001 -5.325869 0.264782 -21.728745 0.050179 0.432365 27.199106 2.471637 -15.548045 -8.725560 1.653188 -1.571850 0.308641 0.000000 -0.000000 0.000002 -7.075423 -33.657028 -9.889639 -0.027704 -0.033324 29.376371 12.810604 -12.923205 -18.865723 -1.447244 1.192885 -0.567292 0.000000 -0.000000 -0.000001
0.000000 0.000000 0.000000 0.000000 -0.000000 0.000000 0.192289 -2.107339 -0.320389 24.863842 80.373703 29.253412 -0.798587 -1.693320 6.126027 0.698713 -4.677713 -3.878591 5.093419 -8.885962 18.435392 16.220182 -5.405703 9.525500 -4.978526 -16.862331 -2.498289 13.254764 -25.792765 -4.822151 0.000077 -0.000022 0.000006 -0.242034 0.326529 -0.277384 0.586647 -3.470107 -10.719304 -1.069392 4.115717 -10.825381 35.221245 -35.888805 3.840612 -114.001930 -32.378376 88.368675 159.161087 -77.773155 -163.539444 -15.194305 -0.996895 -34.580116 -5.882102 9.861279 0.702590 -10.936861 -0.360574 7.156197 0.000000 8.774815 -0.000000 -15.769660 17.227283 5.980905 -1.844031 2.498503 -2.507276 -10.163590 4.678941 4.621104 -20.975996 -0.000001 0.000001 -21.226254 2.451698 -3.593995 0.000000 -0.000006 -0.000000 -1.362681 2.240797 -0.746323 -21.334892 0.584910 3.008319 -13.821196 -0.000001 0.000001 -23.887129 -0.249075 -0.839485 -59.724575 2.296503 -0.754928 -0.294025 1.679686 0.833255 -14.218195 0.093215 1.300579 -34.212002 -0.287561 0.967166 -20.033176 0.964536 1.212838 0.000000 -0.000000 0.000000 -3.440387 0.788233 0.501655 -15.928172 -3.167306 2.999703 -6.338817 -0.000000 0.000001 -18.123419 3.648181 -4.905662 -0.000004 0.000000 -0.000002 -3.232560 20.548437 18.642643 87.470169 29.472485 19.267883 179.266617 80.141403 179.564987 -12.364429 4.063840 -0.828058 2.243540 -5.255033 -3.180156 14.282877 -0.826594 6.952496 -0.000000 -12.690593 -0.000001 15.259607 -16.754467 2.984076 1.665665 -1.955920 -2.878297 4.727794 -4.170584 4.993919 11.020511 0.000001 -0.000000 12.109032 -3.735715 -2.866778 0.000000 -0.000000 0.000000 1.291985 -1.928548 -1.498088 14.800115 0.567467 3.865604 14.242553 -1.341738 -6.660648 19.631935 0.143921 -0.648243 50.092319 -0.477481 -5.617422 0.353029 -1.511150 -0.031940 20.222769 3.684305 2.316629 18.787249 0.000001 -0.000001 10.751608 -0.479870 1.397903 0.000000 -0.000000 0.000000 3.273804 0.305947 -0.580110 21.486790 11.830364 2.266131 8.162915 0.000000 -0.000000 18.399052 -3.798986 -4.940567 0.000003 0.000000 -0.000001 -5.375697 -0.033368 -21.813879 0.043120 0.411019 27.191196 2.428568 -16.254732 -8.417269 1.659725 -1.546598 0.214205 0.000000 -0.000000 0.000002 -7.145995 -34.253254 -9.575779 -0.039317 -0.093492 29.223812 13.103016 -13.313822 -18.951538 -1.445555 1.195563 -0.627818 0.000000 -0.000000 -0.000001
0.000000 0.000000 0.000000 0.000000 -0.000000 0.000000 0.192289 -2.098283 -0.320389 25.349352 80.324271 29.772866 -0.780976 -1.708813 6.091137 0.737077 -4.745522 -3.871167 5.091837 -9.026611 18.289635 16.321024 -5.405259 9.415175 -4.984725 -16.933886 -2.537155 13.275426 -25.738144 -4.856617 0.000077 -0.000022 0.000006 -0.232032 0.311834 -0.269926 0.598795 -3.483721 -10.713163 -1.060929 4.099110 -10.813432 35.237076 -36.092194 3.832449 -113.848938 -32.190933 87.719513 160.531143 -77.985344 -164.785248 -15.200070 -1.213580 -34.997406 -5.882102 9.861279 0.702590 -10.936861 -0.360574 7.156197 0.000000 8.774815 -0.000000 -15.787173 17.251551 5.981732 -1.844031 2.498503 -2.507276 -10.163590 4.678941 4.621104 -20.975996 -0.000001 0.000001 -21.226254 2.451698 -3.593995 0.000000 -0.000006 -0.000000 -1.362681 2.240797 -0.746323 -21.334892 0.584910 3.008319 -13.821196 -0.000001 0.000001 -23.887129 -0.249075 -0.839485 -59.675903 2.229565 -0.662287 -0.294025 1.679686 0.833255 -14.218195 0.093215 1.300579 -34.212002 -0.287561 0.967166 -20.033176 0.964536 1.212838 0.000000 -0.000000 0.000000 -3.440387 0.788233 0.501655 -15.928172 -3.167306 2.999703 -6.338817 -0.000000 0.000001 -18.123419 3.648181 -4.905662 -0.000004 0.000000 -0.000002 -3.203655 20.285526 18.621929 87.375839 29.055103 18.967787 178.922989 79.944740 179.476562 -12.118408 4.060616 -1.556167 2.243540 -5.255033 -3.180156 14.282877 -0.826594 6.952496 -0.000000 -12.690593 -0.000001 15.362994 -16.814976 2.931743 1.665665 -1.955920 -2.878297 4.727794 -4.170584 4.993919 11.020511 0.000001 -0.000000 12.109032 -3.735715 -2.866778 0.000000 -0.000000 0.000000 1.291985 -1.928548 -1.498088 14.800115 0.567467 3.865604 14.242553 -1.341738 -6.660648 19.631935 0.143921 -0.648243 50.092545 -0.451766 -5.671000 0.353029 -1.511150 -0.031940 20.222769 3.684305 2.316629 18.787249 0.000001 -0.000001 10.751608 -0.479870 1.397903 0.000000 -0.000000 0.000000 3.273804 0.305947 -0.580110 21.486790 11.830364 2.266131 8.162915 0.000000 -0.000000 18.399052 -3.798986 -4.940567 0.000003 0.000000 -0.000001 -5.458143 -0.143381 -21.932362 0.028469 0.400055 27.243168 2.385340 -16.672981 -8.199588 1.662143 -1.515840 0.071627 0.000000 -0.000000 0.000002 -7.207599 -34.535240 -9.494518 -0.031119 -0.137004 29.220680 13.279536 -13.598307 -19.029133 -1.448693 1.200636 -0.715443 0.000000 -0.000000 -0.000001
0.000000 0.000000 0.000000 0.000000 -0.000000 0.000000 0.192289 -2.126222 -0.320389 25.960640 80.261825 30.407468 -0.696431 -1.751794 6.054770 0.761401 -4.821717 -3.842312 5.073111 -9.173120 18.205717 16.401615 -5.198234 9.241050 -4.963874 -17.185915 -2.622940 13.239528 -25.660023 -4.915239 0.000077 -0.000022 0.000006 -0.198369 0.275965 -0.251360 0.633296 -3.519438 -10.677128 -1.027685 4.061774 -10.761724 35.251007 -36.091373 4.000789 -113.667427 -32.206745 87.712761 159.574921 -78.150795 -163.934479 -15.094478 -1.509934 -34.593609 -5.882102 9.861279 0.702590 -10.936861 -0.360574 7.156197 0.000000 8.774815 -0.000000 -15.873031 17.295151 5.844720 -1.844031 2.498503 -2.507276 -10.163590 4.678941 4.621104 -20.975996 -0.000001 0.000001 -21.226254 2.451698 -3.593995 0.000000 -0.000006 -0.000000 -1.362681 2.240797 -0.746323 -21.334892 0.584910 3.008319 -13.821196 -0.000001 0.000001 -23.887129 -0.249075 -0.839485 -59.636105 2.184158 -0.651430 -0.294025 1.679686 0.833255 -14.218195 0.093215 1.300579 -34.212002 -0.287561 0.967166 -20.033176 0.964536 1.212838 0.000000 -0.000000 0.000000 -3.440387 0.788233 0.501655 -15.928172 -3.167306 2.999703 -6.338817 -0.000000 0.000001 -18.123419 3.648181 -4.905662 -0.000004 0.000000 -0.000002 -3.408644 20.197685 18.382227 87.588036 28.651403 18.676908 179.774933 80.052742 -179.895477 -11.988506 4.268664 -1.814678 2.243540 -5.255033 -3.180156 14.282877 -0.826594 6.952496 -0.000000 -12.690593 -0.000001 15.298102 -16.823454 2.989673 1.665665 -1.955920 -2.878297 4.727794 -4.170584 4.993919 11.020511 0.000001 -0.000000 12.109032 -3.735715 -2.866778 0.000000 -0.000000 0.000000 1.291985 -1.928548 -1.498088 14.800115 0.567467 3.865604 14.242553 -1.341738 -6.660648 19.631935 0.143921 -0.648243 50.158115 -0.522469 -5.726818 0.353029 -1.511150 -0.031940 20.222769 3.684305 2.316629 18.787249 0.000001 -0.000001 10.751608 -0.479870 1.397903 0.000000 -0.000000 0.000000 3.273804 0.305947 -0.580110 21.486790 11.830364 2.266131 8.162915 0.000000 -0.000000 18.399052 -3.798986 -4.940567 0.000003 0.000000 -0.000001 -5.598365 -0.353631 -22.168896 0.057894 0.465884 27.530531 2.526886 -17.034143 -8.060004 1.670893 -1.526023 -0.115208 0.000000 -0.000000 0.000002 -7.405592 -35.161407 -9.539029 -0.006588 -0.175576 29.449055 13.415346 -13.558005 -19.103910 -1.451614 1.210668 -0.832308 0.000000 -0.000000 -0.000001
0.000000 0.000000 0.000000 0.000000 -0.000000 0.000000 0.192289 -2.154901 -0.320389 25.696193 80.274876 30.299662 -0.708797 -1.757620 6.102179 0.745727 -4.634577 -3.847883 5.018160 -8.875633 18.236422 15.895542 -4.966319 9.362239 -4.779930 -16.854534 -2.597035 13.348463 -25.431587 -4.884905 0.000077 -0.000022 0.000006 -0.192290 0.256011 -0.253407 0.650321 -3.533928 -10.682460 -1.032753 4.036809 -10.779148 35.102852 -35.866112 4.036291 -113.379654 -32.064697 87.021416 160.289154 -78.228386 -164.547272 -14.803884 -1.833146 -34.938274 -5.882102 9.861279 0.702590 -10.936861 -0.360574 7.156197 0.000000 8.774815 -0.000000 -15.788341 17.231220 5.855702 -1.844031 2.498503 -2.507276 -10.163590 4.678941 4.621104 -20.975996 -0.000001 0.000001 -21.226254 2.451698 -3.593995 0.000000 -0.000006 -0.000000 -1.362681 2.240797 -0.746323 -21.334892 0.584910 3.008319 -13.821196 -0.000001 0.000001 -23.887129 -0.249075 -0.839485 -59.867088 2.179832 -0.717752 -0.294025 1.679686 0.833255 -14.218195 0.093215 1.300579 -34.212002 -0.287561 0.967166 -20.033176 0.964536 1.212838 0.000000 -0.000000 0.000000 -3.440387 0.788233 0.501655 -15.928172 -3.167306 2.999703 -6.338817 -0.000000 0.000001 -18.123419 3.648181 -4.905662 -0.000004 0.000000 -0.000002 -3.626500 20.517279 18.397606 87.829872 29.119143 18.491570 179.296509 80.688354 179.628510 -12.169207 4.479774 -2.029149 2.243540 -5.255033 -3.180156 14.282877 -0.826594 6.952496 -0.000000 -12.690593 -0.000001 15.377272 -16.738411 2.831725 1.665665 -1.955920 -2.878297 4.727794 -4.170584 4.993919 11.020511 0.000001 -0.000000 12.109032 -3.735715 -2.866778 0.000000 -0.000000 0.000000 1.291985 -1.928548 -1.498088 14.800115 0.567467 3.865604 14.242553 -1.341738 -6.660648 19.631935 0.143921 -0.648243 50.133945 -0.453058 -5.755232 0.353029 -1.511150 -0.031940 20.222769 3.684305 2.316629 18.787249 0.000001 -0.000001 10.751608 -0.479870 1.397903 0.000000 -0.000000 0.000000 3.273804 0.305947 -0.580110 21.486790 11.830364 2.266131 8.162915 0.000000 -0.000000 18.399052 -3.798986 -4.940567 0.000003 0.000000 -0.000001 -5.652555 0.473404 -22.249020 0.053286 0.456968 27.626724 2.547573 -16.585381 -8.362839 1.663399 -1.506952 -0.031579 0.000000 -0.000000 0.000002 -7.327911 -34.684895 -10.116702 0.006495 -0.125702 29.747280 13.172386 -12.888736 -19.002022 -1.458821 1.212444 -0.857650 0.000000 -0.000000 -0.000001
0.000000 0.000000 0.000000 0.000000 -0.000000 0.000000 0.192289 -2.232202 -0.320389 25.521761 80.283342 30.230277 -0.738419 -1.732486 6.130895 0.711868 -4.492691 -3.863279 4.995933 -8.704875 18.262541 15.472509 -4.741582 9.499195 -4.637362 -16.565329 -2.615008 13.309634 -25.140560 -4.846164 0.000077 -0.000022 0.000006 -0.202242 0.262981 -0.246932 0.645225 -3.526246 -10.667255 -1.047968 4.042719 -10.766944 35.127098 -35.671108 4.086120 -113.199242 -32.054100 86.622414 159.761063 -78.228989 -164.045868 -14.550968 -1.985850 -34.828262 -5.882102 9.861279 0.702590 -10.936861 -0.360574 7.156197 0.000000 8.774815 -0.000000 -15.840503 17.295881 5.841868 -1.844031 2.498503 -2.507276 -10.163590 4.678941 4.621104 -20.975996 -0.000001 0.000001 -21.226254 2.451698 -3.593995 0.000000 -0.000006 -0.000000 -1.362681 2.240797 -0.746323 -21.334892 0.584910 3.008319 -13.821196 -0.000001 0.000001 -23.887129 -0.249075 -0.839485 -59.921535 2.215603 -0.741254 -0.294025 1.679686 0.833255 -14.218195 0.093215 1.300579 -34.212002 -0.287561 0.967166 -20.033176 0.964536 1.212838 0.000000 -0.000000 0.000000 -3.440387 0.788233 0.501655 -15.928172 -3.167306 2.999703 -6.338817 -0.000000 0.000001 -18.123419 3.648181 -4.905662 -0.000004 0.000000 -0.000002 -3.863755 20.797483 18.353428 88.233932 29.543468 18.235170 178.208969 81.454292 178.388901 -12.404494 4.584594 -1.861640 2.243540 -5.255033 -3.180156 14.282877 -0.826594 6.952496 -0.000000 -12.690593 -0.000001 15.261578 -16.635750 2.857857 1.665665 -1.955920 -2.878297 4.727794 -4.170584 4.993919 11.020511 0.000001 -0.000000 12.109032 -3.735715 -2.866778 0.000000 -0.000000 0.000000 1.291985 -1.928548 -1.498088 14.800115 0.567467 3.865604 14.242553 -1.341738 -6.660648 19.631935 0.143921 -0.648243 50.213184 -0.439554 -5.763396 0.353029 -1.511150 -0.031940 20.222769 3.684305 2.316629 18.787249 0.000001 -0.000001 10.751608 -0.479870 1.397903 0.000000 -0.000000 0.000000 3.273804 0.305947 -0.580110 21.486790 11.830364 2.266131 8.162915 0.000000 -0.000000 18.399052 -3.798986 -4.940567 0.000003 0.000000 -0.000001 -5.728128 1.076308 -22.401716 0.066374 0.493558 27.985447 2.741262 -16.105515 -8.800651 1.658318 -1.523229 0.016700 0.000000 -0.000000 0.000002 -7.377673 -34.485577 -10.649571 0.024159 -0.075024 30.213879 12.884368 -12.086226 -18.961470 -1.465351 1.214749 -0.829057 0.000000 -0.000000 -0.000001
0.000000 0.000000 0.000000 0.000000 -0.000000 0.000000 0.192289 -2.320939 -0.320389 25.292727 80.300760 30.064039 -0.789311 -1.701411 6.146804 0.672209 -4.369156 -3.878225 4.980275 -8.538420 18.286343 15.040110 -4.565852 9.638271 -4.505171 -16.261078 -2.617327 13.304504 -24.888458 -4.831473 0.000077 -0.000022 0.000006 -0.213381 0.273107 -0.249077 0.632605 -3.512826 -10.655114 -1.058070 4.049611 -10.755075 35.315025 -35.498070 4.013116 -113.196014 -32.094017 86.330284 159.147888 -78.169968 -163.482239 -14.273303 -2.083572 -34.787273 -5.882102 9.861279 0.702590 -10.936861 -0.360574 7.156197 0.000000 8.774815 -0.000000 -15.843370 17.319607 5.879410 -1.844031 2.498503 -2.507276 -10.163590 4.678941 4.621104 -20.975996 -0.000001 0.000001 -21.226254 2.451698 -3.593995 0.000000 -0.000006 -0.000000 -1.362681 2.240797 -0.746323 -21.334892 0.584910 3.008319 -13.821196 -0.000001 0.000001 -23.887129 -0.249075 -0.839485 -60.004379 2.235655 -0.743132 -0.294025 1.679686 0.833255 -14.218195 0.093215 1.300579 -34.212002 -0.287561 0.967166 -20.033176 0.964536 1.212838 0.000000 -0.000000 0.000000 -3.440387 0.788233 0.501655 -15.928172 -3.167306 2.999703 -6.338817 -0.000000 0.000001 -18.123419 3.648181 -4.905662 -0.000004 0.000000 -0.000002 -3.932760 21.028559 18.409977 88.564316 29.943066 18.059578 176.432388 82.101891 176.439758 -12.464302 4.712526 -1.490188 2.243540 -5.255033 -3.180156 14.282877 -0.826594 6.952496 -0.000000 -12.690593 -0.000001 15.167453 -16.558075 2.911877 1.665665 -1.955920 -2.878297 4.727794 -4.170584 4.993919 11.020511 0.000001 -0.000000 12.109032 -3.735715 -2.866778 0.000000 -0.000000 0.000000 1.291985 -1.928548 -1.498088 14.800115 0.567467 3.865604 14.242553 -1.341738 -6.660648 19.631935 0.143921 -0.648243 50.287048 -0.416254 -5.738315 0.353029 -1.511150 -0.031940 20.222769 3.684305 2.316629 18.787249 0.000001 -0.000001 10.751608 -0.479870 1.397903 0.000000 -0.000000 0.000000 3.273804 0.305947 -0.580110 21.486790 11.830364 2.266131 8.162915 0.000000 -0.000000 18.399052 -3.798986 -4.940567 0.000003 0.000000 -0.000001 -5.779258 1.639051 -22.510130 0.073577 0.516785 28.377621 3.005944 -15.540042 -9.228875 1.649674 -1.530381 0.100001 0.000000 -0.000000 0.000002 -7.503593 -34.251881 -11.007154 0.031969 -0.020064 30.714989 12.761810 -11.249984 -18.910414 -1.468780 1.212361 -0.782751 0.000000 -0.000000 -0.000001
0.000000 0.000000 0.000000 0.000000 -0.000000 0.000000 0.192289 -2.408937 -0.320389 25.163872 80.314073 29.927561 -0.840518 -1.670023 6.121825 0.646838 -4.314965 -3.896406 4.971700 -8.415320 18.288706 14.698359 -4.464716 9.749948 -4.427173 -15.997082 -2.624268 13.306441 -24.750547 -4.791620 0.000077 -0.000022 0.000006 -0.228478 0.290061 -0.259480 0.609122 -3.495574 -10.658165 -1.064947 4.066063 -10.756425 35.599480 -35.397331 3.834934 -113.297913 -32.148685 86.163780 158.819916 -78.063744 -163.094757 -14.081844 -2.121241 -34.832996 -5.882102 9.861279 0.702590 -10.936861 -0.360574 7.156197 0.000000 8.774815 -0.000000 -15.776047 17.274567 5.935791 -1.844031 2.498503 -2.507276 -10.163590 4.678941 4.621104 -20.975996 -0.000001 0.000001 -21.226254 2.451698 -3.593995 0.000000 -0.000006 -0.000000 -1.362681 2.240797 -0.746323 -21.334892 0.584910 3.008319 -13.821196 -0.000001 0.000001 -23.887129 -0.249075 -0.839485 -60.022530 2.246188 -0.738326 -0.294025 1.679686 0.833255 -14.218195 0.093215 1.300579 -34.212002 -0.287561 0.967166 -20.033176 0.964536 1.212838 0.000000 -0.000000 0.000000 -3.440387 0.788233 0.501655 -15.928172 -3.167306 2.999703 -6.338817 -0.000000 0.000001 -18.123419 3.648181 -4.905662 -0.000004 0.000000 -0.000002 -3.915766 21.147188 18.496025 88.874359 30.115444 17.957764 174.219406 82.428917 174.025238 -12.374451 4.945843 -1.213464 2.243540 -5.255033 -3.180156 14.282877 -0.826594 6.952496 -0.000000 -12.690593 -0.000001 15.111210 -16.506889 2.957735 1.665665 -1.955920 -2.878297 4.727794 -4.170584 4.993919 11.020511 0.000001 -0.000000 12.109032 -3.735715 -2.866778 0.000000 -0.000000 0.000000 1.291985 -1.928548 -1.498088 14.800115 0.567467 3.865604 14.242553 -1.341738 -6.660648 19.631935 0.143921 -0.648243 50.304531 -0.393067 -5.697948 0.353029 -1.511150 -0.031940 20.222769 3.684305 2.316629 18.787249 0.000001 -0.000001 10.751608 -0.479870 1.397903 0.000000 -0.000000 0.000000 3.273804 0.305947 -0.580110 21.486790 11.830364 2.266131 8.162915 0.000000 -0.000000 18.399052 -3.798986 -4.940567 0.000003 0.000000 -0.000001 -5.835614 2.085143 -22.557953 0.070666 0.522697 28.762955 3.234495 -15.142011 -9.745056 1.643523 -1.534315 0.193788 0.000000 -0.000000 0.000002 -7.651322 -34.072838 -11.283883 0.030624 0.035800 31.169889 12.733644 -10.685390 -18.922941 -1.468302 1.209887 -0.691662 0.000000 -0.000000 -0.000001
0.000000 0.000000 0.000000 0.000000 -0.000000 0.000000 0.192289 -2.472344 -0.320389 25.159397 80.321017 29.844710 -0.879527 -1.641796 6.060999 0.634723 -4.309922 -3.914690 4.966506 -8.365655 18.260002 14.451620 -4.397929 9.851359 -4.415395 -15.845313 -2.633136 13.289557 -24.696609 -4.689480 0.000077 -0.000022 0.000006 -0.235457 0.297819 -0.271818 0.595955 -3.487602 -10.665769 -1.065720 4.073106 -10.760648 35.856663 -35.349739 3.637279 -113.418808 -32.187286 86.129456 158.781662 -77.973755 -162.937851 -13.976264 -2.174208 -34.782921 -5.882102 9.861279 0.702590 -10.936861 -0.360574 7.156197 0.000000 8.774815 -0.000000 -15.668024 17.216558 5.979896 -1.844031 2.498503 -2.507276 -10.163590 4.678941 4.621104 -20.975996 -0.000001 0.000001 -21.226254 2.451698 -3.593995 0.000000 -0.000006 -0.000000 -1.362681 2.240797 -0.746323 -21.334892 0.584910 3.008319 -13.821196 -0.000001 0.000001 -23.887129 -0.249075 -0.839485 -59.988506 2.249793 -0.744988 -0.294025 1.679686 0.833255 -14.218195 0.093215 1.300579 -34.212002 -0.287561 0.967166 -20.033176 0.964536 1.212838 0.000000 -0.000000 0.000000 -3.440387 0.788233 0.501655 -15.928172 -3.167306 2.999703 -6.338817 -0.000000 0.000001 -18.123419 3.648181 -4.905662 -0.000004 0.000000 -0.000002 -3.886396 21.159975 18.575260 89.201447 30.073856 17.949289 172.228577 82.505013 171.864243 -12.195705 5.203927 -1.142619 2.243540 -5.255033 -3.180156 14.282877 -0.826594 6.952496 -0.000000 -12.690593 -0.000001 15.088498 -16.458998 2.981369 1.665665 -1.955920 -2.878297 4.727794 -4.170584 4.993919 11.020511 0.000001 -0.000000 12.109032 -3.735715 -2.866778 0.000000 -0.000000 0.000000 1.291985 -1.928548 -1.498088 14.800115 0.567467 3.865604 14.242553 -1.341738 -6.660648 19.631935 0.143921 -0.648243 50.254513 -0.381159 -5.639459 0.353029 -1.511150 -0.031940 20.222769 3.684305 2.316629 18.787249 0.000001 -0.000001 10.751608 -0.479870 1.397903 0.000000 -0.000000 0.000000 3.273804 0.305947 -0.580110 21.486790 11.830364 2.266131 8.162915 0.000000 -0.000000 18.399052 -3.798986 -4.940567 0.000003 0.000000 -0.000001 -5.900391 2.396378 -22.508947 0.061890 0.517719 29.054192 3.398035 -14.927694 -10.040021 1.641689 -1.532649 0.249887 0.000000 -0.000000 0.000002 -7.840748 -33.913166 -11.339928 0.021309 0.069586 31.464804 12.794371 -10.441252 -18.944662 -1.466311 1.209402 -0.592680 0.000000 -0.000000 -0.000001
0.000000 0.000000 0.000000 0.000000 -0.000000 0.000000 0.192289 -2.510507 -0.320389 25.263513 80.322307 29.810989 -0.912680 -1.620599 5.972708 0.631672 -4.312713 -3.948307 4.956763 -8.387249 18.195642 14.251656 -4.350455 9.958341 -4.428162 -15.827314 -2.633179 13.231904 -24.660244 -4.557197 0.000077 -0.000022 0.000006 -0.235896 0.297703 -0.279327 0.595991 -3.485898 -10.666533 -1.066623 4.070890 -10.758853 36.061539 -35.323280 3.440834 -113.540627 -32.183071 86.175781 159.039917 -77.910309 -163.042435 -13.896571 -2.220781 -34.675911 -5.882102 9.861279 0.702590 -10.936861 -0.360574 7.156197 0.000000 8.774815 -0.000000 -15.623518 17.200003 5.992027 -1.844031 2.498503 -2.507276 -10.163590 4.678941 4.621104 -20.975996 -0.000001 0.000001 -21.226254 2.451698 -3.593995 0.000000 -0.000006 -0.000000 -1.362681 2.240797 -0.746323 -21.334892 0.584910 3.008319 -13.821196 -0.000001 0.000001 -23.887129 -0.249075 -0.839485 -59.985275 2.257385 -0.764175 -0.294025 1.679686 0.833255 -14.218195 0.093215 1.300579 -34.212002 -0.287561 0.967166 -20.033176 0.964536 1.212838 0.000000 -0.000000 0.000000 -3.440387 0.788233 0.501655 -15.928172 -3.167306 2.999703 -6.338817 -0.000000 0.000001 -18.123419 3.648181 -4.905662 -0.000004 0.000000 -0.000002 -3.900112 21.095627 18.587881 89.534920 29.871309 17.957291 170.510071 82.442436 170.026779 -11.968173 5.423847 -1.148567 2.243540 -5.255033 -3.180156 14.282877 -0.826594 6.952496 -0.000000 -12.690593 -0.000001 15.105732 -16.425211 2.990196 1.665665 -1.955920 -2.878297 4.727794 -4.170584 4.993919 11.020511 0.000001 -0.000000 12.109032 -3.735715 -2.866778 0.000000 -0.000000 0.000000 1.291985 -1.928548 -1.498088 14.800115 0.567467 3.865604 14.242553 -1.341738 -6.660648 19.631935 0.143921 -0.648243 50.219139 -0.375624 -5.593988 0.353029 -1.511150 -0.031940 20.222769 3.684305 2.316629 18.787249 0.000001 -0.000001 10.751608 -0.479870 1.397903 0.000000 -0.000000 0.000000 3.273804 0.305947 -0.580110 21.486790 11.830364 2.266131 8.162915 0.000000 -0.000000 18.399052 -3.798986 -4.940567 0.000003 0.000000 -0.000001 -6.040710 2.560633 -22.397385 0.053367 0.510864 29.201374 3.568397 -14.813243 -10.159807 1.642469 -1.534619 0.268483 0.000000 -0.000000 0.000002 -8.057511 -33.755440 -11.197072 0.010782 0.076649 31.589113 12.887008 -10.395046 -18.975964 -1.464615 1.208922 -0.517471 0.000000 -0.000000 -0.000001
0.000000 0.000000 0.000000 0.000000 -0.000000 0.000000 0.192289 -2.524491 -0.320389 25.420405 80.320989 29.800351 -0.926154 -1.613102 5.850060 0.628148 -4.325913 -3.995919 4.941922 -8.467437 18.112555 14.100813 -4.324683 10.074782 -4.460666 -15.903212 -2.623602 13.174589 -24.701946 -4.433684 0.000077 -0.000022 0.000006 -0.233947 0.295587 -0.281414 0.602212 -3.483831 -10.660990 -1.069265 4.065145 -10.751747 36.197399 -35.314987 3.271306 -113.698250 -32.172131 86.421356 159.016327 -77.915970 -162.915344 -13.823202 -2.257580 -34.426846 -5.882102 9.861279 0.702590 -10.936861 -0.360574 7.156197 0.000000 8.774815 -0.000000 -15.667171 17.251633 5.990733 -1.844031 2.498503 -2.507276 -10.163590 4.678941 4.621104 -20.975996 -0.000001 0.000001 -21.226254 2.451698 -3.593995 0.000000 -0.000006 -0.000000 -1.362681 2.240797 -0.746323 -21.334892 0.584910 3.008319 -13.821196 -0.000001 0.000001 -23.887129 -0.249075 -0.839485 -60.061008 2.264318 -0.779345 -0.294025 1.679686 0.833255 -14.218195 0.093215 1.300579 -34.212002 -0.287561 0.967166 -20.033176 0.964536 1.212838 0.000000 -0.000000 0.000000 -3.440387 0.788233 0.501655 -15.928172 -3.167306 2.999703 -6.338817 -0.000000 0.000001 -18.123419 3.648181 -4.905662 -0.000004 0.000000 -0.000002 -3.940273 20.976837 18.557922 89.822784 29.587250 18.015104 169.667480 82.390625 169.103561 -11.768191 5.670505 -1.124616 2.243540 -5.255033 -3.180156 14.282877 -0.826594 6.952496 -0.000000 -12.690593 -0.000001 15.120133 -16.419230 3.012070 1.665665 -1.955920 -2.878297 4.727794 -4.170584 4.993919 11.020511 0.000001 -0.000000 12.109032 -3.735715 -2.866778 0.000000 -0.000000 0.000000 1.291985 -1.928548 -1.498088 14.800115 0.567467 3.865604 14.242553 -1.341738 -6.660648 19.631935 0.143921 -0.648243 50.217377 -0.382493 -5.551851 0.353029 -1.511150 -0.031940 20.222769 3.684305 2.316629 18.787249 0.000001 -0.000001 10.751608 -0.479870 1.397903 0.000000 -0.000000 0.000000 3.273804 0.305947 -0.580110 21.486790 11.830364 2.266131 8.162915 0.000000 -0.000000 18.399052 -3.798986 -4.940567 0.000003 0.000000 -0.000001 -6.108027 2.565689 -22.181469 0.051028 0.505659 29.236259 3.655354 -14.742888 -10.230557 1.643755 -1.542363 0.264245 0.000000 -0.000000 0.000002 -8.183810 -33.653030 -10.951558 0.000600 0.066410 31.542917 12.897635 -10.511983 -19.063498 -1.463288 1.207157 -0.469313 0.000000 -0.000000 -0.000001
0.000000 0.000000 0.000000 0.000000 -0.000000 0.000000 0.192289 -2.526742 -0.320389 25.529801 80.327146 29.709197 -0.918455 -1.619977 5.719874 0.628837 -4.355180 -4.044817 4.932944 -8.594572 17.990480 13.977259 -4.335306 10.216497 -4.492831 -16.035814 -2.605500 13.096060 -24.823086 -4.338768 0.000077 -0.000022 0.000006 -0.231412 0.293381 -0.281028 0.609403 -3.480747 -10.650140 -1.071573 4.058123 -10.739140 36.305103 -35.342361 3.067424 -113.891838 -32.128464 86.735481 158.916626 -77.965645 -162.770859 -13.762798 -2.321359 -34.119862 -5.882102 9.861279 0.702590 -10.936861 -0.360574 7.156197 0.000000 8.774815 -0.000000 -15.745784 17.310642 5.973031 -1.844031 2.498503 -2.507276 -10.163590 4.678941 4.621104 -20.975996 -0.000001 0.000001 -21.226254 2.451698 -3.593995 0.000000 -0.000006 -0.000000 -1.362681 2.240797 -0.746323 -21.334892 0.584910 3.008319 -13.821196 -0.000001 0.000001 -23.887129 -0.249075 -0.839485 -60.123409 2.266706 -0.788820 -0.294025 1.679686 0.833255 -14.218195 0.093215 1.300579 -34.212002 -0.287561 0.967166 -20.033176 0.964536 1.212838 0.000000 -0.000000 0.000000 -3.440387 0.788233 0.501655 -15.928172 -3.167306 2.999703 -6.338817 -0.000000 0.000001 -18.123419 3.648181 -4.905662 -0.000004 0.000000 -0.000002 -4.012473 20.837372 18.533344 90.056725 29.299223 18.096567 169.708038 82.396507 169.153992 -11.620103 5.872142 -1.185305 2.243540 -5.255033 -3.180156 14.282877 -0.826594 6.952496 -0.000000 -12.690593 -0.000001 15.140702 -16.460789 3.039722 1.665665 -1.955920 -2.878297 4.727794 -4.170584 4.993919 11.020511 0.000001 -0.000000 12.109032 -3.735715 -2.866778 0.000000 -0.000000 0.000000 1.291985 -1.928548 -1.498088 14.800115 0.567467 3.865604 14.242553 -1.341738 -6.660648 19.631935 0.143921 -0.648243 50.239185 -0.401573 -5.534306 0.353029 -1.511150 -0.031940 20.222769 3.684305 2.316629 18.787249 0.000001 -0.000001 10.751608 -0.479870 1.397903 0.000000 -0.000000 0.000000 3.273804 0.305947 -0.580110 21.486790 11.830364 2.266131 8.162915 0.000000 -0.000000 18.399052 -3.798986 -4.940567 0.000003 0.000000 -0.000001 -6.144909 2.431210 -21.911457 0.051448 0.497682 29.212334 3.746408 -14.746626 -10.268386 1.644455 -1.556564 0.257647 0.000000 -0.000000 0.000002 -8.428504 -33.619926 -10.464025 -0.006046 0.044894 31.345036 13.013925 -10.695657 -19.101286 -1.461335 1.205904 -0.439275 0.000000 -0.000000 -0.000001
0.000000 0.000000 0.000000 0.000000 -0.000000 0.000000 0.192289 -2.527253 -0.320389 25.608474 80.338293 29.564171 -0.888690 -1.644509 5.577353 0.636110 -4.403121 -4.099230 4.935043 -8.743422 17.842955 13.888722 -4.378389 10.364587 -4.538329 -16.237036 -2.581873 13.001550 -25.057652 -4.233601 0.000077 -0.000022 0.000006 -0.233549 0.298371 -0.280567 0.611502 -3.471645 -10.640839 -1.078361 4.059707 -10.731005 36.396427 -35.407467 2.854695 -114.086143 -32.105968 87.067696 158.917557 -78.047600 -162.790192 -13.678535 -2.438120 -33.812603 -5.882102 9.861279 0.702590 -10.936861 -0.360574 7.156197 0.000000 8.774815 -0.000000 -15.805200 17.348543 5.951647 -1.844031 2.498503 -2.507276 -10.163590 4.678941 4.621104 -20.975996 -0.000001 0.000001 -21.226254 2.451698 -3.593995 0.000000 -0.000006 -0.000000 -1.362681 2.240797 -0.746323 -21.334892 0.584910 3.008319 -13.821196 -0.000001 0.000001 -23.887129 -0.249075 -0.839485 -60.151764 2.253918 -0.781305 -0.294025 1.679686 0.833255 -14.218195 0.093215 1.300579 -34.212002 -0.287561 0.967166 -20.033176 0.964536 1.212838 0.000000 -0.000000 0.000000 -3.440387 0.788233 0.501655 -15.928172 -3.167306 2.999703 -6.338817 -0.000000 0.000001 -18.123419 3.648181 -4.905662 -0.000004 0.000000 -0.000002 -4.066254 20.651558 18.521132 90.168678 29.027822 18.111708 170.187698 82.461731 169.682632 -11.554159 6.016647 -1.292082 2.243540 -5.255033 -3.180156 14.282877 -0.826594 6.952496 -0.000000 -12.690593 -0.000001 15.162398 -16.510698 3.056180 1.665665 -1.955920 -2.878297 4.727794 -4.170584 4.993919 11.020511 0.000001 -0.000000 12.109032 -3.735715 -2.866778 0.000000 -0.000000 0.000000 1.291985 -1.928548 -1.498088 14.800115 0.567467 3.865604 14.242553 -1.341738 -6.660648 19.631935 0.143921 -0.648243 50.285118 -0.418863 -5.555738 0.353029 -1.511150 -0.031940 20.222769 3.684305 2.316629 18.787249 0.000001 -0.000001 10.751608 -0.479870 1.397903 0.000000 -0.000000 0.000000 3.273804 0.305947 -0.580110 21.486790 11.830364 2.266131 8.162915 0.000000 -0.000000 18.399052 -3.798986 -4.940567 0.000003 0.000000 -0.000001 -6.162798 2.156405 -21.626949 0.058543 0.490816 29.173897 3.857358 -14.874698 -10.290547 1.644840 -1.563164 0.222545 0.000000 -0.000000 0.000002 -8.680442 -33.679703 -9.860077 -0.004865 0.023963 31.066244 13.168302 -10.983143 -19.170057 -1.458346 1.216577 -0.448290 0.000000 -0.000000 -0.000001
0.000000 0.000000 0.000000 0.000000 0.000000 0.000000 0.192289 -2.545153 -0.320389 25.722766 80.364585 29.234053 -0.830774 -1.672946 5.268206 0.650097 -4.541700 -4.204125 4.990045 -8.983915 17.514460 14.001008 -4.513798 10.575786 -4.745195 -16.818302 -2.546298 12.820333 -25.725805 -3.900059 0.000077 -0.000022 0.000006 -0.227386 0.297089 -0.285003 0.624937 -3.470375 -10.637227 -1.079711 4.056159 -10.731129 36.735026 -35.473171 2.327606 -114.404470 -32.176999 87.800163 159.175288 -78.095230 -162.932487 -13.548968 -2.799455 -33.511421 -5.882102 9.861279 0.702590 -10.936861 -0.360574 7.156197 0.000000 8.774815 0.000000 -15.829022 17.423434 5.940888 -1.844031 2.498503 -2.507276 -10.163590 4.678941 4.621104 -20.975996 -0.000001 0.000001 -21.226254 2.451698 -3.593995 0.000000 -0.000006 0.000000 -1.362681 2.240797 -0.746323 -21.334892 0.584910 3.008319 -13.821196 -0.000001 0.000001 -23.887129 -0.249075 -0.839485 -60.149874 2.220019 -0.754062 -0.294025 1.679686 0.833255 -14.218195 0.093215 1.300579 -34.212002 -0.287561 0.967166 -20.033176 0.964536 1.212838 0.000000 0.000000 0.000000 -3.440387 0.788233 0.501655 -15.928172 -3.167306 2.999703 -6.338817 0.000000 0.000001 -18.123419 3.648181 -4.905662 -0.000004 0.000000 -0.000002 -4.037177 20.303556 18.430851 89.933895 28.566929 17.678503 171.018318 82.742092 170.631657 -11.487442 6.033116 -1.883784 2.243540 -5.255033 -3.180156 14.282877 -0.826594 6.952496 0.000000 -12.690593 -0.000001 15.174801 -16.577222 3.090106 1.665665 -1.955920 -2.878297 4.727794 -4.170584 4.993919 11.020511 0.000001 -0.000000 12.109032 -3.735715 -2.866778 0.000000 0.000000 0.000000 1.291985 -1.928548 -1.498088 14.800115 0.567467 3.865604 14.242553 -1.341738 -6.660648 19.631935 0.143921 -0.648243 50.319900 -0.458887 -5.580360 0.353029 -1.511150 -0.031940 20.222769 3.684305 2.316629 18.787249 0.000001 -0.000001 10.751608 -0.479870 1.397903 0.000000 0.000000 0.000000 3.273804 0.305947 -0.580110 21.486790 11.830364 2.266131 8.162915 0.000000 0.000000 18.399052 -3.798986 -4.940567 0.000003 0.000000 -0.000001 -6.190238 1.388749 -21.222057 0.078677 0.493522 29.267425 4.034961 -15.312249 -10.232338 1.649902 -1.554359 0.077921 0.000000 0.000000 0.000002 -9.109716 -34.006656 -8.727041 0.001404 0.003672 30.616060 13.472994 -11.674438 -19.348250 -1.452822 1.237422 -0.530315 0.000000 0.000000 -0.000001
0.000000 0.000000 0.000000 0.000000 0.000000 0.000000 0.192289 -2.570535 -0.320389 25.683803 80.401540 28.795049 -0.816021 -1.675862 4.959438 0.645397 -4.614113 -4.313007 5.046515 -9.062021 17.195996 14.089815 -4.629354 10.765090 -4.932487 -17.332540 -2.495557 12.653434 -26.377322 -3.486399 0.000077 -0.000022 0.000006 -0.218643 0.288817 -0.293383 0.642597 -3.476133 -10.644596 -1.079919 4.045416 -10.742685 37.063296 -35.399629 1.798809 -114.657044 -32.210154 88.427123 159.782343 -78.083224 -163.297184 -13.296418 -3.179422 -33.519222 -5.882102 9.861279 0.702590 -10.936861 -0.360574 7.156197 0.000000 8.774815 0.000000 -15.797182 17.472423 5.954756 -1.844031 2.498503 -2.507276 -10.163590 4.678941 4.621104 -20.975996 -0.000001 0.000001 -21.226254 2.451698 -3.593995 0.000000 -0.000006 0.000000 -1.362681 2.240797 -0.746323 -21.334892 0.584910 3.008319 -13.821196 -0.000001 0.000001 -23.887129 -0.249075 -0.839485 -60.223123 2.190992 -0.755421 -0.294025 1.679686 0.833255 -14.218195 0.093215 1.300579 -34.212002 -0.287561 0.967166 -20.033176 0.964536 1.212838 0.000000 0.000000 0.000000 -3.440387 0.788233 0.501655 -15.928172 -3.167306 2.999703 -6.338817 0.000000 0.000001 -18.123419 3.648181 -4.905662 -0.000004 0.000000 -0.000002 -3.966965 20.078386 18.323128 89.555776 28.263249 17.178756 171.240348 83.176505 171.006255 -11.499300 5.991140 -2.687562 2.243540 -5.255033 -3.180156 14.282877 -0.826594 6.952496 0.000000 -12.690593 -0.000001 15.209592 -16.615532 3.071580 1.665665 -1.955920 -2.878297 4.727794 -4.170584 4.993919 11.020511 0.000001 -0.000000 12.109032 -3.735715 -2.866778 0.000000 0.000000 0.000000 1.291985 -1.928548 -1.498088 14.800115 0.567467 3.865604 14.242553 -1.341738 -6.660648 19.631935 0.143921 -0.648243 50.303587 -0.465925 -5.606605 0.353029 -1.511150 -0.031940 20.222769 3.684305 2.316629 18.787249 0.000001 -0.000001 10.751608 -0.479870 1.397903 0.000000 0.000000 0.000000 3.273804 0.305947 -0.580110 21.486790 11.830364 2.266131 8.162915 0.000000 0.000000 18.399052 -3.798986 -4.940567 0.000003 0.000000 -0.000001 -6.213168 0.799147 -20.834118 0.088003 0.492560 29.343486 4.112831 -15.511005 -10.228019 1.654405 -1.543769 0.008811 0.000000 0.000000 0.000002 -9.461349 -34.088145 -7.802330 0.006528 0.006773 30.247992 13.648918 -12.193510 -19.506583 -1.450064 1.246627 -0.594211 0.000000 0.000000 -0.000001
0.000000 0.000000 0.000000 0.000000 0.000000 0.000000 0.192289 -2.606046 -0.320389 25.577241 80.440179 28.337830 -0.852590 -1.628172 4.639998 0.615376 -4.645034 -4.419702 5.090150 -9.061062 16.891833 14.163470 -4.686795 10.923374 -5.087286 -17.818192 -2.458550 12.415758 -26.954720 -2.979003 0.000077 -0.000022 0.000006 -0.205902 0.273721 -0.297163 0.663636 -3.489726 -10.644951 -1.075574 4.028321 -10.743530 37.372913 -35.235033 1.329240 -114.827069 -32.153380 89.021407 159.939336 -78.043171 -163.217254 -12.934268 -3.456291 -33.657114 -5.882102 9.861279 0.702590 -10.936861 -0.360574 7.156197 0.000000 8.774815 0.000000 -15.799660 17.564058 5.962396 -1.844031 2.498503 -2.507276 -10.163590 4.678941 4.621104 -20.975996 -0.000001 0.000001 -21.226254 2.451698 -3.593995 0.000000 -0.000006 0.000000 -1.362681 2.240797 -0.746323 -21.334892 0.584910 3.008319 -13.821196 -0.000001 0.000001 -23.887129 -0.249075 -0.839485 -60.245736 2.181117 -0.762659 -0.294025 1.679686 0.833255 -14.218195 0.093215 1.300579 -34.212002 -0.287561 0.967166 -20.033176 0.964536 1.212838 0.000000 0.000000 0.000000 -3.440387 0.788233 0.501655 -15.928172 -3.167306 2.999703 -6.338817 0.000000 0.000001 -18.123419 3.648181 -4.905662 -0.000004 0.000000 -0.000002 -3.915577 19.999768 18.195968 89.234866 28.078537 16.762094 170.962816 83.769872 170.814484 -11.613358 5.902014 -3.596824 2.243540 -5.255033 -3.180156 14.282877 -0.826594 6.952496 0.000000 -12.690593 -0.000001 15.180791 -16.634139 3.077964 1.665665 -1.955920 -2.878297 4.727794 -4.170584 4.993919 11.020511 0.000001 -0.000000 12.109032 -3.735715 -2.866778 0.000000 0.000000 0.000000 1.291985 -1.928548 -1.498088 14.800115 0.567467 3.865604 14.242553 -1.341738 -6.660648 19.631935 0.143921 -0.648243 50.264466 -0.465768 -5.620798 0.353029 -1.511150 -0.031940 20.222769 3.684305 2.316629 18.787249 0.000001 -0.000001 10.751608 -0.479870 1.397903 0.000000 0.000000 0.000000 3.273804 0.305947 -0.580110 21.486790 11.830364 2.266131 8.162915 0.000000 0.000000 18.399052 -3.798986 -4.940567 0.000003 0.000000 -0.000001 -6.250376 0.347526 -20.465203 0.097236 0.506159 29.448176 4.145275 -15.433488 -10.309567 1.660830 -1.549137 -0.030749 0.000000 0.000000 0.000002 -9.788049 -34.047488 -7.063875 0.010962 0.026187 29.966972 13.697219 -12.458650 -19.621915 -1.450074 1.251512 -0.616981 0.000000 0.000000 -0.000001
0.000000 0.000000 0.000000 0.000000 0.000000 0.000000 0.192289 -2.640735 -0.320389 25.322980 80.486393 27.793818 -0.924440 -1.552508 4.331908 0.557155 -4.609637 -4.525968 5.093732 -8.988315 16.621539 14.128563 -4.676461 11.050997 -5.166362 -18.194153 -2.421250 12.133782 -27.391167 -2.438162 0.000077 -0.000022 0.000006 -0.188860 0.251220 -0.297010 0.687105 -3.510595 -10.638893 -1.065196 4.003912 -10.736619 37.587534 -35.007262 0.954942 -114.926380 -31.976673 89.479865 159.504350 -78.037909 -162.613823 -12.395781 -3.652547 -33.968763 -5.882102 9.861279 0.702590 -10.936861 -0.360574 7.156197 0.000000 8.774815 0.000000 -15.857665 17.668943 5.949893 -1.844031 2.498503 -2.507276 -10.163590 4.678941 4.621104 -20.975996 -0.000001 0.000001 -21.226254 2.451698 -3.593995 0.000000 -0.000006 0.000000 -1.362681 2.240797 -0.746323 -21.334892 0.584910 3.008319 -13.821196 -0.000001 0.000001 -23.887129 -0.249075 -0.839485 -60.283513 2.190831 -0.799931 -0.294025 1.679686 0.833255 -14.218195 0.093215 1.300579 -34.212002 -0.287561 0.967166 -20.033176 0.964536 1.212838 0.000000 0.000000 0.000000 -3.440387 0.788233 0.501655 -15.928172 -3.167306 2.999703 -6.338817 0.000000 0.000001 -18.123419 3.648181 -4.905662 -0.000004 0.000000 -0.000002 -3.897979 20.080249 18.068182 89.031254 28.029904 16.547760 169.829348 84.492359 169.713427 -11.861250 5.770865 -4.385114 2.243540 -5.255033 -3.180156 14.282877 -0.826594 6.952496 0.000000 -12.690593 -0.000001 15.088318 -16.653977 3.106335 1.665665 -1.955920 -2.878297 4.727794 -4.170584 4.993919 11.020511 0.000001 -0.000000 12.109032 -3.735715 -2.866778 0.000000 0.000000 0.000000 1.291985 -1.928548 -1.498088 14.800115 0.567467 3.865604 14.242553 -1.341738 -6.660648 19.631935 0.143921 -0.648243 50.213300 -0.446265 -5.626697 0.353029 -1.511150 -0.031940 20.222769 3.684305 2.316629 18.787249 0.000001 -0.000001 10.751608 -0.479870 1.397903 0.000000 0.000000 0.000000 3.273804 0.305947 -0.580110 21.486790 11.830364 2.266131 8.162915 0.000000 0.000000 18.399052 -3.798986 -4.940567 0.000003 0.000000 -0.000001 -6.286419 0.154374 -20.065081 0.100976 0.517328 29.493351 4.163661 -15.036733 -10.547122 1.665135 -1.560798 -0.017703 0.000000 0.000000 0.000002 -10.051142 -33.778296 -6.575603 0.016975 0.053272 29.742122 13.609720 -12.429900 -19.665723 -1.453551 1.250484 -0.630116 0.000000 0.000000 -0.000001
0.000000 0.000000 0.000000 0.000000 0.000000 0.000000 0.192289 -2.665350 -0.320389 24.965309 80.534238 27.224863 -1.030481 -1.473116 4.030586 0.479688 -4.521979 -4.638490 5.056837 -8.841393 16.376082 13.948004 -4.611149 11.163201 -5.172337 -18.387653 -2.380587 11.824099 -27.692136 -1.894192 0.000077 -0.000022 0.000006 -0.180404 0.237763 -0.292404 0.701833 -3.521441 -10.632931 -1.063654 3.988488 -10.732147 37.699391 -34.730272 0.681211 -115.031379 -31.675570 89.706650 158.860856 -78.105949 -161.852263 -11.708861 -3.789944 -34.602114 -5.882102 9.861279 0.702590 -10.936861 -0.360574 7.156197 0.000000 8.774815 0.000000 -15.979024 17.744849 5.945370 -1.844031 2.498503 -2.507276 -10.163590 4.678941 4.621104 -20.975996 -0.000001 0.000001 -21.226254 2.451698 -3.593995 0.000000 -0.000006 0.000000 -1.362681 2.240797 -0.746323 -21.334892 0.584910 3.008319 -13.821196 -0.000001 0.000001 -23.887129 -0.249075 -0.839485 -60.370720 2.210687 -0.843504 -0.294025 1.679686 0.833255 -14.218195 0.093215 1.300579 -34.212002 -0.287561 0.967166 -20.033176 0.964536 1.212838 0.000000 0.000000 0.000000 -3.440387 0.788233 0.501655 -15.928172 -3.167306 2.999703 -6.338817 0.000000 0.000001 -18.123419 3.648181 -4.905662 -0.000004 0.000000 -0.000002 -3.918342 20.302121 17.936607 88.939139 28.044603 16.524371 167.595486 85.189647 167.528296 -12.238063 5.595652 -5.186038 2.243540 -5.255033 -3.180156 14.282877 -0.826594 6.952496 0.000000 -12.690593 -0.000001 15.003504 -16.638522 3.141925 1.665665 -1.955920 -2.878297 4.727794 -4.170584 4.993919 11.020511 0.000001 -0.000000 12.109032 -3.735715 -2.866778 0.000000 0.000000 0.000000 1.291985 -1.928548 -1.498088 14.800115 0.567467 3.865604 14.242553 -1.341738 -6.660648 19.631935 0.143921 -0.648243 50.193091 -0.393481 -5.630221 0.353029 -1.511150 -0.031940 20.222769 3.684305 2.316629 18.787249 0.000001 -0.000001 10.751608 -0.479870 1.397903 0.000000 0.000000 0.000000 3.273804 0.305947 -0.580110 21.486790 11.830364 2.266131 8.162915 0.000000 0.000000 18.399052 -3.798986 -4.940567 0.000003 0.000000 -0.000001 -6.318307 0.218898 -19.635735 0.103540 0.537172 29.432819 4.150269 -14.310685 -10.834740 1.663990 -1.577758 0.040458 0.000000 0.000000 0.000002 -10.279529 -33.259096 -6.256651 0.030509 0.095763 29.548283 13.480549 -12.133666 -19.604078 -1.459085 1.245584 -0.630188 0.000000 0.000000 -0.000001
